G21
G90;svg#svg5 > g#layer1 > path#path2003
G0 X22.007272 Y8.292799000000002
G1 X21.566456113091995 Y8.383104388862577 F300
G1 X21.136426857251664 Y8.480906035805525 F300
G1 X20.71666500657954 Y8.586216405938735 F300
G1 X20.30666672827187 Y8.699052899666103 F300
G1 X19.905942952000004 Y8.819438448000003 F300
G1 X19.504623099327812 Y8.95059855204791 F300
G1 X19.111324574750487 Y9.090010544997796 F300
G1 X18.725600920516854 Y9.237769237889603 F300
G1 X18.347017074381515 Y9.39397869665827 F300
G1 X17.975148736000005 Y9.558752744000001 F300
G1 X17.606712010674677 Y9.733623563394218 F300
G1 X17.243635672690893 Y9.917787549457556 F300
G1 X16.88554155746278 Y10.111443076098077 F300
G1 X16.532058079722344 Y10.314801199037204 F300
G1 X16.182819543999997 Y10.528086016000001 F300
G1 X15.84050193222186 Y10.749514782053897 F300
G1 X15.501072825662458 Y10.981581373267083 F300
G1 X15.164208633885378 Y11.224595771026923 F300
G1 X14.829586909774749 Y11.478882804232967 F300
G1 X14.496885568 Y11.744782392000001 F300
G1 X14.173833240864166 Y12.015734188322185 F300
G1 X13.851437172292702 Y12.298928553656424 F300
G1 X13.529408761893468 Y12.59477948566229 F300
G1 X13.207454877413975 Y12.903716733997635 F300
G1 X12.885277 Y13.226185999999998 F300
G1 X12.599079773960355 Y13.526045897986918 F300
G1 X12.32184468868815 Y13.831498171973651 F300
G1 X12.053484196162804 Y14.142415961719896 F300
G1 X11.793919929297273 Y14.458681799150686 F300
G1 X11.543082950246928 Y14.780186967162553 F300
G1 X11.300913989453125 Y15.10683084765625 F300
G1 X11.06614917495681 Y15.44029086983503 F300
G1 X10.840331427076286 Y15.778336869062867 F300
G1 X10.623403922704993 Y16.120861286514312 F300
G1 X10.41531915935991 Y16.467763578501412 F300
G1 X10.216039157526138 Y16.818949587597665 F300
G1 X10.025535653124999 Y17.174330906249995 F300
G1 X9.843327202983021 Y17.53476817008244 F300
G1 X9.67013628270579 Y17.898778231147322 F300
G1 X9.505932083056626 Y18.266265727297846 F300
G1 X9.350693201214584 Y18.637140317382958 F300
G1 X9.204407806562283 Y19.01131606615019 F300
G1 X9.067073796484374 Y19.388710824218748 F300
G1 X8.938615307360472 Y19.76950354088215 F300
G1 X8.819300836248244 Y20.152844574027263 F300
G1 X8.709122023440008 Y20.538646783731096 F300
G1 X8.608080074096952 Y20.926826351992755 F300
G1 X8.516185895629466 Y21.317302174582085 F300
G1 X8.433460225 Y21.70999525 F300
G1 X8.359992500361308 Y22.104490570783717 F300
G1 X8.295829510646945 Y22.500508136313396 F300
G1 X8.24098390303624 Y22.897967204258602 F300
G1 X8.19547820650752 Y23.296788799608024 F300
G1 X8.15934494565975 Y23.69689510201141 F300
G1 X8.132626744140625 Y24.09820883203125 F300
G1 X8.1154058167474 Y24.499705414581975 F300
G1 X8.107674881001467 Y24.90171502659807 F300
G1 X8.1094688172172 Y25.304162345146654 F300
G1 X8.120832903365725 Y25.70697222632557 F300
G1 X8.141822905867164 Y26.11006907556574 F300
G1 X8.172505159375 Y26.51337621875 F300
G1 X8.212766452295181 Y26.91512298357059 F300
G1 X8.262732038544183 Y27.316411259408444 F300
G1 X8.322463071215353 Y27.717169587382937 F300
G1 X8.392031805311104 Y28.1173248886498 F300
G1 X8.471521661183683 Y28.51680180765649 F300
G1 X8.561027276171874 Y28.91552205859375 F300
G1 X8.659951348487214 Y29.310734261452552 F300
G1 X8.768841772223727 Y29.704570373865764 F300
G1 X8.887792493319585 Y30.09695928563802 F300
G1 X9.016909380999781 Y30.487826113339295 F300
G1 X9.156310254937257 Y30.877091513140723 F300
G1 X9.3061249 Y31.264671 F300
G1 X9.48076621036056 Y31.684309363163237 F300
G1 X9.664584930004187 Y32.09552519452081 F300
G1 X9.857367942349411 Y32.498430056943995 F300
G1 X10.058918516617315 Y32.89312920024028 F300
G1 X10.269055710924457 Y33.27972104431346 F300
G1 X10.487613756100002 Y33.65829666510001 F300
G1 X10.717305179941702 Y34.033485436318465 F300
G1 X10.955052970667639 Y34.400205180365475 F300
G1 X11.200691058333142 Y34.75853792999331 F300
G1 X11.454067052739816 Y35.108558030593244 F300
G1 X11.715041609699943 Y35.450331669605625 F300
G1 X11.983487780800003 Y35.78391641280001 F300
G1 X12.26152476643832 Y36.11193001341394 F300
G1 X12.546566916427409 Y36.431316257796084 F300
G1 X12.838483356831668 Y36.742127491591845 F300
G1 X13.137154333613111 Y37.04440730708301 F300
G1 X13.442470559672508 Y37.338190122640015 F300
G1 X13.7543325487 Y37.6235007717 F300
G1 X14.074081940708997 Y37.90156821766884 F300
G1 X14.39982312712468 Y38.17075438715109 F300
G1 X14.731451087899732 Y38.43108331312274 F300
G1 X15.068869616844463 Y38.682569398319785 F300
G1 X15.411990658402217 Y38.92521704074942 F300
G1 X15.760733634400003 Y39.159020270400006 F300
G1 X16.115592829947328 Y39.38431321181341 F300
G1 X16.475452135869382 Y39.60039845129756 F300
G1 X16.8402259989016 Y39.80727308379957 F300
G1 X17.209835616488736 Y40.00492374738745 F300
G1 X17.584208263625094 Y40.19332628814821 F300
G1 X17.9632766125 Y40.372445437500005 F300
G1 X18.34663582214403 Y40.54208811632688 F300
G1 X18.73402482253042 Y40.70214503656243 F300
G1 X19.12537361381248 Y40.85258638617428 F300
G1 X19.52061702680728 Y40.993371000034855 F300
G1 X19.919694034267817 Y41.12444605884319 F300
G1 X20.3225470576 Y41.245746801600006 F300
G1 X20.727763602261337 Y41.356842178903634 F300
G1 X21.136072446902947 Y41.45793374550769 F300
G1 X21.5474166133675 Y41.548962526051575 F300
G1 X21.96174202725253 Y41.629857151145785 F300
G1 X22.37899680584951 Y41.70053358891304 F300
G1 X22.7991305443 Y41.7608948913 F300
G1 X23.21952042598493 Y41.81055981168571 F300
G1 X23.642114663905737 Y41.84976093367522 F300
G1 X24.0668667465956 Y41.8784051592601 F300
G1 X24.49373097207696 Y41.89638579929993 F300
G1 X24.92266170698707 Y41.903582341645006 F300
G1 X25.353612647200002 Y41.8998602352 F300
G1 X25.782462094777785 Y41.88526152091333 F300
G1 X26.21269148436339 Y41.85968029370545 F300
G1 X26.644260755026558 Y41.82298192196386 F300
G1 X27.077128265839203 Y41.77501689668341 F300
G1 X27.51125002773183 Y41.71562064526155 F300
G1 X27.946578940899997 Y41.6446133619 F300
G1 X28.377175539920962 Y41.562995030338485 F300
G1 X28.808394152095207 Y41.46978758798301 F300
G1 X29.24019455878629 Y41.36480605606911 F300
G1 X29.672532229796584 Y41.247849350727094 F300
G1 X30.10535754062223 Y41.118700153856096 F300
G1 X30.538614999999997 Y40.9771248 F300
G1 X30.925916388617335 Y40.839628997977655 F300
G1 X31.308165007855738 Y40.69321131588331 F300
G1 X31.685368992324218 Y40.5380003604304 F300
G1 X32.05753273689867 Y40.374113140416995 F300
G1 X32.42465640157297 Y40.20165546801419 F300
G1 X32.78673541982508 Y40.02072237259476 F300
G1 X33.145105719162686 Y39.830663916484895 F300
G1 X33.49794330980619 Y39.63247150343033 F300
G1 X33.84523941472032 Y39.426244476921255 F300
G1 X34.18698029067807 Y39.21207234376132 F300
G1 X34.52314677338513 Y38.99003518866247 F300
G1 X34.853713827988344 Y38.76020409912536 F300
G1 X35.17900644548697 Y38.52237452848306 F300
G1 X35.49822007385019 Y38.27716393417446 F300
G1 X35.811329089800374 Y38.02464937057338 F300
G1 X36.11830185705381 Y37.764899583076335 F300
G1 X36.419100305818624 Y37.497975431419185 F300
G1 X36.713679518950435 Y37.223930321282786 F300
G1 X37.00169935056291 Y36.94309809692336 F300
G1 X37.28304685539771 Y36.65561553085159 F300
G1 X37.55767981373408 Y36.36154171407816 F300
G1 X37.82554900116275 Y36.060928744590726 F300
G1 X38.086597794794685 Y35.75382216066121 F300
G1 X38.34076178717201 Y35.44026138075802 F300
G1 X38.587272352051954 Y35.12120315071358 F300
G1 X38.82648803792886 Y34.796202628745846 F300
G1 X39.05834939438457 Y34.46530303815719 F300
G1 X39.282788916140305 Y34.1285417912878 F300
G1 X39.4997306694236 Y33.78595093799659 F300
G1 X39.7090899271137 Y33.43755761924198 F300
G1 X39.90983285315767 Y33.08508096470494 F300
G1 X40.102640258384156 Y32.727336855879514 F300
G1 X40.28743311287307 Y32.3643533160284 F300
G1 X40.46412313948073 Y31.996153715712758 F300
G1 X40.63261245698371 Y31.622757243202923 F300
G1 X40.792793233236154 Y31.244179378425656 F300
G1 X40.94351577543237 Y30.863133588127408 F300
G1 X41.08564480121858 Y30.477445707875155 F300
G1 X41.219077139043144 Y30.08712882181364 F300
G1 X41.34369899818587 Y29.69219261675148 F300
G1 X41.459385629912724 Y29.292643880193253 F300
G1 X41.566001 Y28.888487 F300
G1 X41.615052940854376 Y28.67586885002271 F300
G1 X41.66164179309492 Y28.437074294269255 F300
G1 X41.70534262825789 Y28.171535386831273 F300
G1 X41.74230733675418 Y27.905715521387204 F300
G1 X41.77590199460907 Y27.6195408223165 F300
G1 X41.80585284087792 Y27.313491427983536 F300
G1 X41.8413670856497 Y26.84919946082187 F300
G1 X41.86802962962963 Y26.354275444444447 F300
G1 X41.88483527275513 Y25.851859570212937 F300
G1 X41.89237098628258 Y25.333807757201644 F300
G1 X41.89051037710329 Y24.81319003373165 F300
G1 X41.87937490260631 Y24.292008687242795 F300
G1 X41.85891399657207 Y23.77318313837514 F300
G1 X41.82953937037037 Y23.268798555555552 F300
G1 X41.79052257416685 Y22.77171444949958 F300
G1 X41.74336238134431 Y22.30409768312757 F300
G1 X41.705782249333474 Y21.995836511915456 F300
G1 X41.665017138744034 Y21.706898856011847 F300
G1 X41.62134192729767 Y21.437826390946498 F300
G1 X41.57104711642671 Y21.16917869997563 F300
G1 X41.51845979886451 Y20.92668837836299 F300
G1 X41.463976 Y20.709905 F300
G1 X41.34397623397885 Y20.288656764273977 F300
G1 X41.21369181157879 Y19.87233628656041 F300
G1 X41.0732904313829 Y19.460957670540854 F300
G1 X40.92292541997983 Y19.05453851689084 F300
G1 X40.76273625503088 Y18.653100616721577 F300
G1 X40.59284910495628 Y18.25667064139942 F300
G1 X40.412629648921516 Y17.86370276863405 F300
G1 X40.223132993428884 Y17.476415308766473 F300
G1 X40.02449497629903 Y17.094839283934924 F300
G1 X39.816839300711756 Y16.719010755738662 F300
G1 X39.60027806551932 Y16.34897146028063 F300
G1 X39.3749123090379 Y15.984769437317784 F300
G1 X39.14032593206377 Y15.625704568551056 F300
G1 X38.89744499642773 Y15.273150778583007 F300
G1 X38.646382040898345 Y14.927154168557449 F300
G1 X38.38723921720234 Y14.587767186674217 F300
G1 X38.12010882777061 Y14.255049222755527 F300
G1 X37.84507387463556 Y13.929067195335273 F300
G1 X37.56195503641857 Y13.609616926128849 F300
G1 X37.27151311190566 Y13.297550485345802 F300
G1 X36.97384108438276 Y12.99292727970817 F300
G1 X36.66902290394254 Y12.695814392546838 F300
G1 X36.357134043463425 Y12.406287157483076 F300
G1 X36.03824206413994 Y12.124429723032067 F300
G1 X35.71245980330538 Y11.850378776599214 F300
G1 X35.38030587171563 Y11.584594298765262 F300
G1 X35.041853593890416 Y11.3271492559751 F300
G1 X34.6971684044039 Y11.07812588271752 F300
G1 X34.34630843998312 Y10.837616250898696 F300
G1 X33.98932513994169 Y10.605722827988336 F300
G1 X33.62682273712202 Y10.38289300343095 F300
G1 X33.25885321302961 Y10.169202168669328 F300
G1 X32.88546778297248 Y9.964740843893912 F300
G1 X32.50671094555711 Y9.769610866283339 F300
G1 X32.122621132340406 Y9.583925964318382 F300
G1 X31.73323136443149 Y9.407812317784252 F300
G1 X31.340046977044665 Y9.242009612669746 F300
G1 X30.942215455613315 Y9.086207780194467 F300
G1 X30.53976305823957 Y8.940523940373804 F300
G1 X30.132710805706004 Y8.805089145515666 F300
G1 X29.72107520876721 Y8.680048956396451 F300
G1 X29.30486900000001 Y8.565563999999997 F300
G1 X29.06936563268542 Y8.508057246011305 F300
G1 X28.810424534527886 Y8.452518011179595 F300
G1 X28.528111089843755 Y8.399312175781244 F300
G1 X28.245387778913138 Y8.352354833518994 F300
G1 X27.94549500311616 Y8.308396715695967 F300
G1 X27.629306218750006 Y8.267703906249993 F300
G1 X27.15083052495362 Y8.215735477934455 F300
G1 X26.650129050781253 Y8.172296871093744 F300
G1 X26.144391195752107 Y8.138710344606753 F300
G1 X25.632254250000003 Y8.114648749999994 F300
G1 X25.120269921404134 Y8.100442899338065 F300
G1 X24.61735648046875 Y8.096317222656246 F300
G1 X24.11977482640424 Y8.10248117831872 F300
G1 X23.64711040625 Y8.118859968749996 F300
G1 X23.334673999679563 Y8.136120752374783 F300
G1 X23.039781264594595 Y8.157856343208032 F300
G1 X22.763190691406255 Y8.183834667968746 F300
G1 X22.486567283187714 Y8.216281206572612 F300
G1 X22.234645961862594 Y8.252737973754854 F300
G1 X22.007272000000004 Y8.292798999999995 F300
G1 X22.007272 Y8.292799000000002 F300
G0 X27.673433 Y8.675806999999999
G1 X28.148187649274842 Y8.764569770709416 F300
G1 X28.61432833326596 Y8.86364231550634 F300
G1 X29.07201527609422 Y8.972864670563368 F300
G1 X29.52140471605418 Y9.092092270866923 F300
G1 X29.96264844560559 Y9.221195911257615 F300
G1 X30.395893346303026 Y9.36006169029947 F300
G1 X30.821280920000003 Y9.508590936000001 F300
G1 X31.247611166009406 Y9.67011280918959 F300
G1 X31.665784752602505 Y9.841442778153432 F300
G1 X32.075940194311016 Y10.022504342664089 F300
G1 X32.478208887256464 Y10.213237017406406 F300
G1 X32.87271460024051 Y10.413596170937256 F300
G1 X33.25957296963682 Y10.62355284127819 F300
G1 X33.638891 Y10.843093528 F300
G1 X34.01372563572835 Y11.074100443229868 F300
G1 X34.380862275023844 Y11.314712489859955 F300
G1 X34.740393752004 Y11.564943156329779 F300
G1 X35.09240267534381 Y11.824821146172779 F300
G1 X35.436960951472145 Y12.09439007281867 F300
G1 X35.77412932242173 Y12.37370813187688 F300
G1 X36.10395692 Y12.662847752000001 F300
G1 X36.42463423349244 Y12.960134887240324 F300
G1 X36.7379284090031 Y13.267124019233869 F300
G1 X37.04386704074592 Y13.583910610193358 F300
G1 X37.342465205408885 Y13.91060310799493 F300
G1 X37.633725095992894 Y14.247322535397924 F300
G1 X37.91763567677401 Y14.594202065315184 F300
G1 X38.19417236 Y14.951386584000002 F300
G1 X38.45831781491562 Y15.312039840133071 F300
G1 X38.71513644730843 Y15.68271472778185 F300
G1 X38.96458198844529 Y16.063568154137794 F300
G1 X39.206594676610166 Y16.454766934361388 F300
G1 X39.44110103090887 Y16.85648735585875 F300
G1 X39.668013644959004 Y17.26891473957515 F300
G1 X39.887231 Y17.692242999999998 F300
G1 X40.02422143956042 Y17.975827574251166 F300
G1 X40.16005008256555 Y18.278917978976825 F300
G1 X40.29424876967931 Y18.60101311078717 F300
G1 X40.42040935008144 Y18.925776769427117 F300
G1 X40.54337350507058 Y19.26452692267303 F300
G1 X40.6626917696793 Y19.616307518950435 F300
G1 X40.77486398984051 Y19.97021119829412 F300
G1 X40.88202960919341 Y20.332237484918473 F300
G1 X40.98379653644314 Y20.701171909620985 F300
G1 X41.0788021184029 Y21.071886229303953 F300
G1 X41.16723987516484 Y21.444816437152618 F300
G1 X41.248799606413996 Y21.81865196793003 F300
G1 X41.32351766601161 Y22.193934312669395 F300
G1 X41.390294746607104 Y22.565401414840952 F300
G1 X41.44893751603499 Y22.931793379008745 F300
G1 X41.50023833012533 Y23.29950125747246 F300
G1 X41.54241656188426 Y23.65713505069274 F300
G1 X41.575446801749266 Y24.003641827988332 F300
G1 X41.600088652422365 Y24.351376938433823 F300
G1 X41.61472892735251 Y24.682794775935687 F300
G1 X41.619564 Y24.997242999999994 F300
G1 X41.613294960442055 Y25.304745836794677 F300
G1 X41.59386386588922 Y25.653474516034983 F300
G1 X41.56334196987395 Y26.012866023176606 F300
G1 X41.52066766180757 Y26.401472760932943 F300
G1 X41.46853767451781 Y26.796591022829993 F300
G1 X41.40583168513119 Y27.208802137026236 F300
G1 X41.334811613677026 Y27.62356762801 F300
G1 X41.25521223323615 Y28.043027046647225 F300
G1 X41.16810695906117 Y28.46103873024919 F300
G1 X41.074665603498545 Y28.87171189212828 F300
G1 X40.97421663153878 Y29.27686722963795 F300
G1 X40.87004809329446 Y29.662421075801745 F300
G1 X40.75902531265523 Y30.03830474635822 F300
G1 X40.647216 Y30.382718999999994 F300
G1 X40.49891043614443 Y30.799418637099706 F300
G1 X40.34088068968853 Y31.208863050044457 F300
G1 X40.173316484440456 Y31.61112011541318 F300
G1 X39.9963911935104 Y32.006252483960004 F300
G1 X39.81026238187916 Y32.394316953644484 F300
G1 X39.61507236914063 Y32.775363845703126 F300
G1 X39.408898732414734 Y33.153078306812134 F300
G1 X39.19400293289886 Y33.52326424966383 F300
G1 X38.97052713567121 Y33.885965271146574 F300
G1 X38.73859951758409 Y34.241217901090636 F300
G1 X38.49833485690681 Y34.58905101689325 F300
G1 X38.249835140625 Y34.929485265625 F300
G1 X37.99177391643673 Y35.264321548394165 F300
G1 X37.72591354879046 Y35.591267368475236 F300
G1 X37.45235851926547 Y35.91033966538721 F300
G1 X37.17120161997588 Y36.22154672806818 F300
G1 X36.88252457654205 Y36.524887656486925 F300
G1 X36.586398685546875 Y36.820351833984375 F300
G1 X36.28237859271573 Y37.108386355587506 F300
G1 X35.97142686593984 Y37.38809084127101 F300
G1 X35.65361813860058 Y37.65945417882194 F300
G1 X35.32901752309294 Y37.9224551816582 F300
G1 X34.99768125942537 Y38.177062096641386 F300
G1 X34.659657375 Y38.423232125000006 F300
G1 X34.31558897544979 Y38.66050672507576 F300
G1 X33.96541109199593 Y38.88894843312347 F300
G1 X33.6091741592147 Y39.10851638686413 F300
G1 X33.24692115364623 Y39.31915827661818 F300
G1 X32.87868826580888 Y39.52080989688373 F300
G1 X32.50450558007813 Y39.71339471289063 F300
G1 X32.12630878840386 Y39.89593120733939 F300
G1 X31.742777566104543 Y40.069078562752026 F300
G1 X31.35394222948672 Y40.23276311630322 F300
G1 X30.959827681216918 Y40.38689835510071 F300
G1 X30.560454106203878 Y40.53138451099116 F300
G1 X30.155837671875 Y40.666108171874995 F300
G1 X29.749455180315984 Y40.789935026171506 F300
G1 X29.338457643482315 Y40.90376300317284 F300
G1 X28.922858853006936 Y41.0074806859025 F300
G1 X28.50266932259752 Y41.10096235151175 F300
G1 X28.077897006997752 Y41.18406761260263 F300
G1 X27.648548021484377 Y41.256641076171874 F300
G1 X27.21994062878428 Y41.31782346150571 F300
G1 X26.787373607911803 Y41.368331388206144 F300
G1 X26.350848546947184 Y41.40800894580808 F300
G1 X25.91036607288368 Y41.43668445810137 F300
G1 X25.46592658760097 Y41.45417017794329 F300
G1 X25.017531 Y41.460262 F300
G1 X24.588177927589715 Y41.455257794951784 F300
G1 X24.162530984162096 Y41.439751491260196 F300
G1 X23.740585413993312 Y41.41391883134119 F300
G1 X23.322336052636878 Y41.377921604616816 F300
G1 X22.90777791871979 Y41.33190785931563 F300
G1 X22.496906808984377 Y41.27601212851563 F300
G1 X22.08521667727598 Y41.20957181350584 F300
G1 X21.677735470144853 Y41.133353117172796 F300
G1 X21.27446232898922 Y41.04748852354977 F300
G1 X20.87539796877738 Y40.95209752571471 F300
G1 X20.480545266083872 Y40.84728688475757 F300
G1 X20.089909846875 Y40.733150903124994 F300
G1 X19.700790104752514 Y40.60886877961698 F300
G1 X19.316413712559708 Y40.47544468981669 F300
G1 X18.936788604843034 Y40.332972541280995 F300
G1 X18.561926174175383 Y40.181534297382235 F300
G1 X18.191841846849485 Y40.02120027941793 F300
G1 X17.826555655078124 Y39.85202948242188 F300
G1 X17.464912038312498 Y39.67346851148247 F300
G1 X17.108579388604934 Y39.48632813492186 F300
G1 X16.75757865270139 Y39.290667716152754 F300
G1 X16.411936046490297 Y39.08653575995781 F300
G1 X16.071683613172528 Y38.87397025436763 F300
G1 X15.736859775000001 Y38.65299902500001 F300
G1 X15.407603607631525 Y38.423707127259746 F300
G1 X15.084257018000681 Y38.18633183053305 F300
G1 X14.766858122630175 Y37.94090102758375 F300
G1 X14.455452089270317 Y37.68743287067433 F300
G1 X14.150091673803766 Y37.425936151093666 F300
G1 X13.850837748046875 Y37.156410689453125 F300
G1 X13.558881862175065 Y36.87993725599317 F300
G1 X13.273463760548799 Y36.59581035311066 F300
G1 X12.994643454570921 Y36.30402865561224 F300
G1 X12.72248979799529 Y36.00458227754936 F300
G1 X12.457080998146477 Y35.69745318782162 F300
G1 X12.198505115625 Y35.382615634375 F300
G1 X11.948750157895493 Y35.062522086301804 F300
G1 X11.706194338859465 Y34.735134476975965 F300
G1 X11.470925276315903 Y34.40042420350119 F300
G1 X11.243041238288125 Y34.058355392969105 F300
G1 X11.022651621971518 Y33.70888535137263 F300
G1 X10.809877419140625 Y33.35196501835938 F300
G1 X10.607193151090087 Y32.99182491600683 F300
G1 X10.412413571962231 Y32.624674192394096 F300
G1 X10.225660627169788 Y32.25045931598757 F300
G1 X10.047068697828404 Y31.86912093435734 F300
G1 X9.876785038491416 Y31.480594350231662 F300
G1 X9.7149702 Y31.08481 F300
G1 X9.574108430474093 Y30.71982695831997 F300
G1 X9.44605214027407 Y30.37173785964497 F300
G1 X9.329960098611114 Y30.03847431944445 F300
G1 X9.220151110499827 Y29.702689003084284 F300
G1 X9.121084869566285 Y29.376801658561163 F300
G1 X9.03212268888889 Y29.059039222222232 F300
G1 X8.95058533315195 Y28.7391847971791 F300
G1 X8.877922724264357 Y28.421992039637956 F300
G1 X8.8137314625 Y28.105851625000003 F300
G1 X8.757463394028463 Y27.78820553639074 F300
G1 X8.708642764049394 Y27.466224541795246 F300
G1 X8.667059911111112 Y27.138258444444446 F300
G1 X8.633141022091515 Y26.80952338921666 F300
G1 X8.605599075255983 Y26.469271165812092 F300
G1 X8.584381526388889 Y26.11560659722222 F300
G1 X8.569915950836139 Y25.76198643 F300
G1 X8.561103802597378 Y25.389947456788377 F300
G1 X8.5579698 Y24.997243000000005 F300
G1 X8.563513695995416 Y24.54451291243683 F300
G1 X8.580642264703739 Y24.096259019784192 F300
G1 X8.609127034170642 Y23.652460604693356 F300
G1 X8.648756897489669 Y23.21309658954906 F300
G1 X8.699337797036598 Y22.77814625516803 F300
G1 X8.76069238984911 Y22.347589964334702 F300
G1 X8.833657326635239 Y21.915937549093346 F300
G1 X8.917256801437304 Y21.489252606337995 F300
G1 X9.011316574401214 Y21.06752153078828 F300
G1 X9.11567819797935 Y20.650732756178478 F300
G1 X9.230198641418838 Y20.238877460345517 F300
G1 X9.354749896570645 Y19.831950270233193 F300
G1 X9.49038604742661 Y19.42660482365683 F300
G1 X9.635815138895998 Y19.02677377963658 F300
G1 X9.790908996510966 Y18.63245624090702 F300
G1 X9.955553584100317 Y18.243655529075625 F300
G1 X10.129648578323629 Y17.860379863698636 F300
G1 X10.31310692592593 Y17.48264303703704 F300
G1 X10.5067246590869 Y17.1088365348222 F300
G1 X10.70937668390794 Y16.741148025516093 F300
G1 X10.920973778261372 Y16.379593323399668 F300
G1 X11.141439229929299 Y16.024194462670565 F300
G1 X11.370708368777752 Y15.674980345807683 F300
G1 X11.608728083676269 Y15.33198738408779 F300
G1 X11.855672472329939 Y14.994972958417467 F300
G1 X12.110959120320109 Y14.664729024046995 F300
G1 X12.374532459301404 Y14.34129150920429 F300
G1 X12.646347860211769 Y14.024704473751452 F300
G1 X12.926371126691024 Y13.715020726346328 F300
G1 X13.21457797558299 Y13.412302430727022 F300
G1 X13.510199653603227 Y13.117354719735374 F300
G1 X13.813533576445392 Y12.82986950658436 F300
G1 X14.124554340855433 Y12.549906761927522 F300
G1 X14.443245932703018 Y12.277536506432805 F300
G1 X14.769601181960923 Y12.012839396489602 F300
G1 X15.103621207407407 Y11.755907296296295 F300
G1 X15.443253437473034 Y11.508306256580056 F300
G1 X15.79003539566694 Y11.268895109728385 F300
G1 X16.143969520023724 Y11.0377632451453 F300
G1 X16.50506602358016 Y10.815012090326707 F300
G1 X16.87334231047536 Y10.600755661831638 F300
G1 X17.24882238491084 Y10.395121100137173 F300
G1 X17.627771895975687 Y10.200124840450709 F300
G1 X18.013386692299886 Y10.014087499479741 F300
G1 X18.405694830753845 Y9.837135136912044 F300
G1 X18.804730366303364 Y9.66940790669765 F300
G1 X19.21053273168991 Y9.511060565261028 F300
G1 X19.6231461138546 Y9.36226296159122 F300
G1 X20.03670195520483 Y9.22507823541735 F300
G1 X20.45652530616189 Y9.097681595509002 F300
G1 X20.882666531846272 Y8.98024461073619 F300
G1 X21.315179982402434 Y8.872954984815994 F300
G1 X21.75412334545148 Y8.776017009719753 F300
G1 X22.199557000000002 Y8.689652 F300
G1 X22.586263568748784 Y8.623758451662056 F300
G1 X22.960674845289656 Y8.567879537959 F300
G1 X23.324351880000005 Y8.521676176000003 F300
G1 X23.689144388130792 Y8.483869159692599 F300
G1 X24.047660377824602 Y8.455496726066928 F300
G1 X24.40129004 Y8.436386448000002 F300
G1 X24.755266621211415 Y8.426317550240544 F300
G1 X25.108799127324826 Y8.425421401702726 F300
G1 X25.46321836 Y8.433699632000003 F300
G1 X25.817336880861877 Y8.451010578525288 F300
G1 X26.176791975856666 Y8.477562975617616 F300
G1 X26.542983720000002 Y8.513532544000004 F300
G1 X26.9080884382304 Y8.557875321534294 F300
G1 X27.28437874189923 Y8.611851816772337 F300
G1 X27.673433 Y8.675802000000004 F300
G1 X27.673433 Y8.675806999999999 F300
G0 X16.956326 Y19.483724
G1 X16.733237461417286 Y19.570431211346264 F300
G1 X16.5146067001848 Y19.6648822985833 F300
G1 X16.300512886909935 Y19.766840791264922 F300
G1 X16.09104260288612 Y19.876092792599284 F300
G1 X15.886291808000005 Y19.992445264000004 F300
G1 X15.685266645642665 Y20.116430854242363 F300
G1 X15.489921224718818 Y20.246792088458786 F300
G1 X15.300343860861037 Y20.383312576245025 F300
G1 X15.116632287562766 Y20.525795264013354 F300
G1 X14.938895504000003 Y20.674060752000003 F300
G1 X14.765944053255659 Y20.829164827916475 F300
G1 X14.599920037432124 Y20.989228405480617 F300
G1 X14.440906506561992 Y21.15405628988732 F300
G1 X14.288998722421725 Y21.323471411267555 F300
G1 X14.144306096000001 Y21.497313007999995 F300
G1 X14.005605540818383 Y21.67725410345815 F300
G1 X13.875011482699628 Y21.860737746644613 F300
G1 X13.752597288972085 Y22.047605440589763 F300
G1 X13.6384540058332 Y22.237716243769157 F300
G1 X13.532692592 Y22.430944576 F300
G1 X13.434495496031836 Y22.629201232356984 F300
G1 X13.345454084974378 Y22.829695856423523 F300
G1 X13.265650123648067 Y23.03233000190658 F300
G1 X13.195193321561066 Y23.237020789387877 F300
G1 X13.134224 Y23.443697999999998 F300
G1 X13.092336261184245 Y23.616523427201123 F300
G1 X13.056688717311882 Y23.802639008813284 F300
G1 X13.02755962682216 Y24.001631046647233 F300
G1 X13.006265882009393 Y24.2014042992419 F300
G1 X12.991473616140135 Y24.40972280945022 F300
G1 X12.983294483965015 Y24.625711067055395 F300
G1 X12.981795691009655 Y24.841800349849926 F300
G1 X12.986691875942638 Y25.061327653798656 F300
G1 X12.997942536443146 Y25.28319695335276 F300
G1 X13.015365177042613 Y25.504670779480215 F300
G1 X13.038778128489575 Y25.724426912840997 F300
G1 X13.068017749271137 Y25.941347597667637 F300
G1 X13.103476743158145 Y26.15737292526345 F300
G1 X13.144241326968189 Y26.366379204040875 F300
G1 X13.190034087463555 Y26.56742189212828 F300
G1 X13.24268594963872 Y26.766998700073735 F300
G1 X13.299635404867985 Y26.95426424741641 F300
G1 X13.360505516034983 Y27.12867872886297 F300
G1 X13.429528510039269 Y27.30041275168126 F300
G1 X13.501480401900066 Y27.454922310857874 F300
G1 X13.575946 Y27.592377 F300
G1 X13.703498459105724 Y27.800734085659865 F300
G1 X13.839415109478988 Y28.004905524280662 F300
G1 X13.98350782071465 Y28.20473050390697 F300
G1 X14.13560684375 Y28.400032375000002 F300
G1 X14.294569749013954 Y28.58948076942879 F300
G1 X14.460601777758763 Y28.77346815926183 F300
G1 X14.633507400842404 Y28.951815787216635 F300
G1 X14.813106000000001 Y29.124329 F300
G1 X14.998658683048298 Y29.290302536581052 F300
G1 X15.189913317874856 Y29.44953132435769 F300
G1 X15.386672505793413 Y29.60183441082558 F300
G1 X15.588752406250002 Y29.747014125 F300
G1 X15.795999956829363 Y29.88486652417602 F300
G1 X16.0075540313914 Y30.014740793297168 F300
G1 X16.223229682150414 Y30.136461805583032 F300
G1 X16.442855 Y30.249834999999997 F300
G1 X16.653149751502657 Y30.35074887151785 F300
G1 X16.83862078240741 Y30.43356164351852 F300
G1 X17.020347005139804 Y30.506464608589802 F300
G1 X17.1920205925926 Y30.56573781481482 F300
G1 X17.365074812297742 Y30.61478027308515 F300
G1 X17.543807125000004 Y30.654075374999998 F300
G1 X17.72826169995079 Y30.68373715196417 F300
G1 X17.934733074074078 Y30.706286185185185 F300
G1 X18.15139939436561 Y30.72094071170932 F300
G1 X18.40555113425926 Y30.730082106481483 F300
G1 X18.67506462214375 Y30.733692202963912 F300
G1 X18.997014 Y30.733174999999996 F300
G1 X19.308320946687846 Y30.725879644244856 F300
G1 X19.606420878539623 Y30.70859394165649 F300
G1 X19.89237839341499 Y30.681481808939658 F300
G1 X20.167203192000002 Y30.644689512000003 F300
G1 X20.442882852075538 Y30.596163837875025 F300
G1 X20.70967412725328 Y30.53708891198585 F300
G1 X20.968478971545707 Y30.467401602069096 F300
G1 X21.220161456000003 Y30.386999895999992 F300
G1 X21.46828225604118 Y30.29464980306497 F300
G1 X21.71176102455758 Y30.19056021510841 F300
G1 X21.95134354754053 Y30.074345525798627 F300
G1 X22.187760024 Y29.945566423999992 F300
G1 X22.41681350089035 Y29.806859389190052 F300
G1 X22.645089634416728 Y29.654493835852843 F300
G1 X22.873225890186145 Y29.48774989218938 F300
G1 X23.101870128 Y29.305849367999997 F300
G1 X23.32061992861567 Y29.11783061035887 F300
G1 X23.5418798802138 Y28.913725051820506 F300
G1 X23.7662493140556 Y28.692560376907068 F300
G1 X23.994363 Y28.453308999999997 F300
G1 X25.017530999999998 Y27.348163999999997 F300
G1 X26.040699999999998 Y28.453308999999997 F300
G1 X26.220680497841233 Y28.642819145715716 F300
G1 X26.398180738099434 Y28.81999853440522 F300
G1 X26.57384972668144 Y28.985735033477923 F300
G1 X26.74829811111111 Y29.14086692592593 F300
G1 X26.92912788645412 Y29.291868450401232 F300
G1 X27.111120313953755 Y29.434025915918355 F300
G1 X27.294908866282896 Y29.567973207178632 F300
G1 X27.48111822222222 Y29.694315740740738 F300
G1 X27.671656661239055 Y29.814415407336845 F300
G1 X27.8671032407118 Y29.928634120231923 F300
G1 X28.06816995937193 Y30.03740771625165 F300
G1 X28.275588999999997 Y30.141166999999996 F300
G1 X28.499425139674447 Y30.247231106381722 F300
G1 X28.69408731778426 Y30.335709244897963 F300
G1 X28.88213437641892 Y30.415897311373183 F300
G1 X29.052007868804658 Y30.48199814285714 F300
G1 X29.219594053971356 Y30.539592096223828 F300
G1 X29.38092504956267 Y30.586672510204075 F300
G1 X29.543690813195656 Y30.625335073288404 F300
G1 X29.712413256559763 Y30.656371163265305 F300
G1 X29.885926864356946 Y30.679832874947678 F300
G1 X30.078046886297372 Y30.697732918367343 F300
G1 X30.2785032261721 Y30.709633720756724 F300
G1 X30.50940033527696 Y30.717396591836728 F300
G1 X31.038047999999996 Y30.722000999999995 F300
G1 X31.35852094026781 Y30.719775721677454 F300
G1 X31.628405236111114 Y30.713685749999996 F300
G1 X31.883560850300462 Y30.702026621774607 F300
G1 X32.103111222222225 Y30.684975666666663 F300
G1 X32.31306965146295 Y30.6600000913027 F300
G1 X32.503042875 Y30.627824249999993 F300
G1 X32.68791606835343 Y30.586024020011404 F300
G1 X32.86907711111111 Y30.534184999999994 F300
G1 X33.04953563707224 Y30.472139955793665 F300
G1 X33.242090847222215 Y30.39601141666666 F300
G1 X33.439122469276285 Y30.30991878534038 F300
G1 X33.662960999999996 Y30.205256999999996 F300
G1 X33.89546872416498 Y30.088174920902475 F300
G1 X34.12246419226191 Y29.962626840695478 F300
G1 X34.34371550746501 Y29.82895169232621 F300
G1 X34.55897882812499 Y29.687461890625 F300
G1 X34.769086264667884 Y29.537636466383958 F300
G1 X34.971743396625115 Y29.38116379997879 F300
G1 X35.166737019348616 Y29.218385827237682 F300
G1 X35.353841624999994 Y29.049618125 F300
G1 X35.53479390709269 Y28.87314688358631 F300
G1 X35.706417286917144 Y28.691947267142858 F300
G1 X35.868546175767065 Y28.506340715065868 F300
G1 X36.02099910937499 Y28.316619796875 F300
G1 X36.165887800609966 Y28.119763320567195 F300
G1 X36.299743857772 Y27.92009969907621 F300
G1 X36.422459722440585 Y27.717889336320276 F300
G1 X36.53390099999999 Y27.513360999999996 F300
G1 X36.608278862564816 Y27.35627934272956 F300
G1 X36.67902735290871 Y27.180742788540545 F300
G1 X36.74568024781342 Y26.986772379008748 F300
G1 X36.8034180533093 Y26.790356516575862 F300
G1 X36.85612849910445 Y26.5808158624626 F300
G1 X36.90344298250728 Y26.358979379008748 F300
G1 X36.94332732150997 Y26.135864711143746 F300
G1 X36.977190501337496 Y25.905690390963137 F300
G1 X37.004809548104944 Y25.669709294460638 F300
G1 X37.02566244859232 Y25.433051661485543 F300
G1 X37.03988439561184 Y25.195584452533552 F300
G1 X37.04740028862973 Y24.95868941982507 F300
G1 X37.048100430298774 Y24.721650483148863 F300
G1 X37.0418818564916 Y24.490220590509473 F300
G1 X37.02883554810495 Y24.26564704956268 F300
G1 X37.00819927825324 Y24.041436552918057 F300
G1 X36.9807357688568 Y23.82938638356388 F300
G1 X36.94673567055393 Y23.630309478134105 F300
G1 X36.90346557871932 Y23.432630781656858 F300
G1 X36.85396544708071 Y23.253337173162535 F300
G1 X36.79872099999999 Y23.092404 F300
G1 X36.69470837697922 Y22.836055076096567 F300
G1 X36.58221268170641 Y22.588826262879284 F300
G1 X36.461502233980056 Y22.35049908893529 F300
G1 X36.33280541090465 Y22.1208720221643 F300
G1 X36.196312260784715 Y21.89976260397998 F300
G1 X36.052176248 Y21.687009568000004 F300
G1 X35.89749515946981 Y21.478581000314744 F300
G1 X35.73549673214097 Y21.279058820198312 F300
G1 X35.566307058960874 Y21.088304457946695 F300
G1 X35.390019003073455 Y20.906205120758823 F300
G1 X35.20669438066904 Y20.732675784892287 F300
G1 X35.016366264 Y20.567661104 F300
G1 X34.81872523012568 Y20.41089750213778 F300
G1 X34.61458775372389 Y20.263033956694073 F300
G1 X34.40396738918139 Y20.124046243823873 F300
G1 X34.18685421531735 Y19.993942675489205 F300
G1 X33.963217370723456 Y19.872765646378724 F300
G1 X33.73300765599999 Y19.76059305599999 F300
G1 X33.499801548344955 Y19.65903345181385 F300
G1 X33.26068439978033 Y19.566681763173094 F300
G1 X33.01560049641627 Y19.483644916309476 F300
G1 X32.76448149654672 Y19.410065928770855 F300
G1 X32.507248985226184 Y19.346124898525506 F300
G1 X32.243817031999995 Y19.292039871999997 F300
G1 X31.9821013529096 Y19.24921142827406 F300
G1 X31.71496114857821 Y19.216241738629833 F300
G1 X31.44231550315417 Y19.193367474920013 F300
G1 X31.1640808666458 Y19.1808619124505 F300
G1 X30.880173353506958 Y19.179035442717748 F300
G1 X30.590510999999992 Y19.188235999999996 F300
G1 X30.33977535916997 Y19.205969351359006 F300
G1 X30.0926494288497 Y19.233496134381962 F300
G1 X29.848875204494508 Y19.27077084796844 F300
G1 X29.608201861650446 Y19.317779997179542 F300
G1 X29.37038620061023 Y19.374542358743522 F300
G1 X29.13519308531765 Y19.4411091414103 F300
G1 X28.902395866323978 Y19.51756404013793 F300
G1 X28.671776777777772 Y19.604023185185184 F300
G1 X28.447629618899047 Y19.698625623351543 F300
G1 X28.22504460521906 Y19.803223442928743 F300
G1 X28.003844217949712 Y19.918036397756634 F300
G1 X27.78386080263832 Y20.04331372922487 F300
G1 X27.564936677552435 Y20.179333662506174 F300
G1 X27.346924175448382 Y20.32640285135345 F300
G1 X27.12968561783152 Y20.48485578217725 F300
G1 X26.913093222222216 Y20.655054148148146 F300
G1 X26.68190629353493 Y20.85062762901991 F300
G1 X26.450993089881695 Y21.060790905691636 F300
G1 X26.22023573292892 Y21.28612307908079 F300
G1 X25.989528854561996 Y21.527236414615185 F300
G1 X25.758778948733102 Y21.784775396495064 F300
G1 X25.527903657143256 Y22.05941583006748 F300
G1 X25.29683099999999 Y22.351863999999996 F300
G1 X25.21769569772924 Y22.45220535312316 F300
G1 X25.156834423999996 Y22.518925792000005 F300
G1 X25.114168065675933 Y22.55422117600908 F300
G1 X25.07557270477301 Y22.57452159229133 F300
G1 X25.038379431999992 Y22.582236736 F300
G1 X25.000646176817842 Y22.578433738521053 F300
G1 X24.956723606139597 Y22.5612359024829 F300
G1 X24.902679527999986 Y22.525612383999995 F300
G1 X24.852683892887843 Y22.48270244263889 F300
G1 X24.790104080246827 Y22.420260197091388 F300
G1 X24.71094821599999 Y22.332868287999997 F300
G1 X24.589628763770655 Y22.18966603944062 F300
G1 X24.42439899999999 Y21.987819999999996 F300
G1 X24.217844355896382 Y21.738953735023685 F300
G1 X24.01770152401925 Y21.508128819447734 F300
G1 X23.823272440436778 Y21.294253152294754 F300
G1 X23.633915060185178 Y21.096288217592594 F300
G1 X23.435375694857843 Y20.900130415766384 F300
G1 X23.240398945266666 Y20.71920800092671 F300
G1 X23.048349777961246 Y20.552579966991985 F300
G1 X22.858630481481477 Y20.399359407407406 F300
G1 X22.6608579881661 Y20.251668872005034 F300
G1 X22.46334765854565 Y20.116296421468423 F300
G1 X22.26546952152867 Y19.992563587190585 F300
G1 X22.06660462499999 Y19.879841374999994 F300
G1 X21.86213342487475 Y19.775616595270495 F300
G1 X21.6543247983749 Y19.681235648696557 F300
G1 X21.442483068029734 Y19.59632346785516 F300
G1 X21.225896851851843 Y19.52054192592592 F300
G1 X21.007053222818264 Y19.45448421566949 F300
G1 X20.78110367983492 Y19.396492795814808 F300
G1 X20.547227909317826 Y19.346453180259555 F300
G1 X20.30456652314814 Y19.304268865740735 F300
G1 X20.063377111173015 Y19.271190525460163 F300
G1 X19.811317122980242 Y19.245061233645547 F300
G1 X19.547422707856462 Y19.22592668930478 F300
G1 X19.27067299999999 Y19.213829999999994 F300
G1 X18.895448221660732 Y19.207546965391916 F300
G1 X18.562401171874992 Y19.212101468749992 F300
G1 X18.344555873538983 Y19.221578573032595 F300
G1 X18.142587735235264 Y19.235919499045433 F300
G1 X17.95486512499999 Y19.254841749999994 F300
G1 X17.767526918977698 Y19.27993494065181 F300
G1 X17.591910670842168 Y19.30990318448152 F300
G1 X17.42664626562499 Y19.344549656249995 F300
G1 X17.262806263102576 Y19.38578446789656 F300
G1 X17.106400282362497 Y19.43218979208558 F300
G1 X16.95632599999999 Y19.483723999999995 F300
G1 X16.956326 Y19.483724 F300
G0 X21.124612 Y19.915644999999998
G1 X21.305118204680397 Y19.988470072528187 F300
G1 X21.492889855244204 Y20.074761067623243 F300
G1 X21.687485592592598 Y20.17461925462963 F300
G1 X21.877834916104284 Y20.281916053176065 F300
G1 X22.071777318506594 Y20.400557311433705 F300
G1 X22.26861674074074 Y20.530293703703705 F300
G1 X22.461178740428604 Y20.66617288926876 F300
G1 X22.65357176513723 Y20.81081633665332 F300
G1 X22.844996 Y20.963734875 F300
G1 X23.031950757442655 Y21.12210334489687 F300
G1 X23.21508720412495 Y21.286402735912674 F300
G1 X23.393613925925926 Y21.456009296296294 F300
G1 X23.56712403186649 Y21.63071496727225 F300
G1 X23.733300371028935 Y21.808328397368278 F300
G1 X23.891461074074073 Y21.988183495370368 F300
G1 X24.043675048471574 Y22.17308585697056 F300
G1 X24.185185230278645 Y22.357671431824055 F300
G1 X24.315528 Y22.541323999999996 F300
G1 X24.38291669986524 Y22.633905731219137 F300
G1 X24.454215956068612 Y22.720375950767988 F300
G1 X24.528451509259263 Y22.80056140277778 F300
G1 X24.60715478755659 Y22.876495023716462 F300
G1 X24.685816612459227 Y22.94426675738411 F300
G1 X24.76351307407408 Y23.003926222222223 F300
G1 X24.844846652505687 Y23.058944807949622 F300
G1 X24.921730224011668 Y23.10390110904559 F300
G1 X24.99357625 Y23.139324874999996 F300
G1 X25.06840277312912 Y23.168588399538606 F300
G1 X25.134263013150182 Y23.18660115780032 F300
G1 X25.191504592592594 Y23.19466377777777 F300
G1 X25.248355414920105 Y23.19285273550906 F300
G1 X25.293992658403447 Y23.180350476057185 F300
G1 X25.33016165740741 Y23.157849347222218 F300
G1 X25.351106284434152 Y23.134666533626408 F300
G1 X25.36735638991599 Y23.104735769329714 F300
G1 X25.378288094783063 Y23.06624365453419 F300
G1 X25.382411 Y23.016787999999995 F300
G1 X25.386326597701487 Y22.99925980209191 F300
G1 X25.40234999628278 Y22.965293645246966 F300
G1 X25.43808269600001 Y22.90684392 F300
G1 X25.499638571754804 Y22.818582356782873 F300
G1 X25.592919608000003 Y22.695045759999992 F300
G1 X25.828654472 Y22.403950639999994 F300
G1 X26.127020024000004 Y22.056115679999998 F300
G1 X26.469749 Y21.674097999999994 F300
G1 X26.659353262887368 Y21.472387959135986 F300
G1 X26.845068456284785 Y21.28517515518335 F300
G1 X27.02743889525919 Y21.111617774262964 F300
G1 X27.206974008000007 Y20.950916912 F300
G1 X27.394314120021722 Y20.794094371435445 F300
G1 X27.5804249264541 Y20.64930756106476 F300
G1 X27.765832570942198 Y20.515896429607963 F300
G1 X27.951046984 Y20.393242655999995 F300
G1 X28.142362883923063 Y20.277418018064516 F300
G1 X28.33541181129691 Y20.17137346244158 F300
G1 X28.53075487934299 Y20.074688921766892 F300
G1 X28.728957656000002 Y19.986979743999996 F300
G1 X28.930664835944434 Y19.907869021503604 F300
G1 X29.13725514417265 Y19.83679374588787 F300
G1 X29.349375359232678 Y19.773568841363918 F300
G1 X29.567695752000002 Y19.718032687999994 F300
G1 X29.78637752147078 Y19.671312163553097 F300
G1 X30.013182617950307 Y19.63145384577186 F300
G1 X30.248873282797376 Y19.598451273400496 F300
G1 X30.494251 Y19.572305999999994 F300
G1 X30.713212837480594 Y19.557169312752908 F300
G1 X30.932763342151922 Y19.55127500721001 F300
G1 X31.152756808421184 Y19.55444871727505 F300
G1 X31.373047850638535 Y19.56654496450495 F300
G1 X31.593488199074077 Y19.58744574074074 F300
G1 X31.81268185295294 Y19.61686788813706 F300
G1 X32.03088493873666 Y19.65467895146158 F300
G1 X32.24792127155019 Y19.70073707261814 F300
G1 X32.46361044467755 Y19.75492208491844 F300
G1 X32.67776525925926 Y19.817134259259255 F300
G1 X32.94189628533074 Y19.90566854962465 F300
G1 X33.20167861058394 Y20.005880600250713 F300
G1 X33.45673449172982 Y20.117520283945467 F300
G1 X33.70666837499999 Y20.240380999999992 F300
G1 X33.951034322232125 Y20.374281285847445 F300
G1 X34.18825863895731 Y20.518369570446936 F300
G1 X34.41797234537708 Y20.672406603779805 F300
G1 X34.63978374074074 Y20.836195407407402 F300
G1 X34.811995826628305 Y20.97475406561892 F300
G1 X34.977967631182885 Y21.118869692655537 F300
G1 X35.137531399262386 Y21.26843577010169 F300
G1 X35.290506669314034 Y21.42336481320806 F300
G1 X35.43669755092592 Y21.583586925925918 F300
G1 X35.576673607594536 Y21.750019591931803 F300
G1 X35.70886117736997 Y21.921076860995033 F300
G1 X35.83310226109641 Y22.096705699729778 F300
G1 X35.94921613799429 Y22.276873282151882 F300
G1 X36.056996 Y22.461564999999993 F300
G1 X36.17258055269838 Y22.674664689910067 F300
G1 X36.266024449074074 Y22.85799362499999 F300
G1 X36.34836712905087 Y23.036482130709647 F300
G1 X36.41425192592593 Y23.201887666666664 F300
G1 X36.46865893140941 Y23.36861379041931 F300
G1 X36.511844125 Y23.540503374999993 F300
G1 X36.54424623648362 Y23.718725197171967 F300
G1 X36.56896674074075 Y23.921096999999996 F300
G1 X36.58513283015521 Y24.1349478046491 F300
G1 X36.59578546759259 Y24.390924791666656 F300
G1 X36.600904554648864 Y24.66432255102484 F300
G1 X36.602466 Y24.997242999999994 F300
G1 X36.60091082665443 Y25.325686053492543 F300
G1 X36.59591842129631 Y25.59582601388889 F300
G1 X36.585702230092224 Y25.84862633289539 F300
G1 X36.57042870370371 Y26.058680777777777 F300
G1 X36.54720959561642 Y26.256755917311928 F300
G1 X36.517226375 Y26.427992874999994 F300
G1 X36.477192094083534 Y26.59181485432689 F300
G1 X36.427540962962965 Y26.745947888888885 F300
G1 X36.36706584436867 Y26.89704647659189 F300
G1 X36.29260199537036 Y27.05473140277777 F300
G1 X36.207739461150396 Y27.21468396772944 F300
G1 X36.103639 Y27.39652899999999 F300
G1 X35.97298738754693 Y27.609279191933418 F300
G1 X35.836463805177765 Y27.813424051160535 F300
G1 X35.69428013454079 Y28.009161827101728 F300
G1 X35.54662086082544 Y28.196674177046038 F300
G1 X35.39364462541439 Y28.376124955843654 F300
G1 X35.23548585648148 Y28.547659027777776 F300
G1 X35.069046217817856 Y28.714495707732752 F300
G1 X34.89785637920786 Y28.872969357206586 F300
G1 X34.72204355069128 Y29.023210502290816 F300
G1 X34.5417138076896 Y29.16532891468237 F300
G1 X34.35695391006618 Y29.299412552652896 F300
G1 X34.167833185185195 Y29.425526555555557 F300
G1 X33.97307043839941 Y29.544491840212864 F300
G1 X33.77451006535045 Y29.65515701937167 F300
G1 X33.57221856136098 Y29.757574281755726 F300
G1 X33.366248357073616 Y29.851771991318778 F300
G1 X33.156639791933344 Y29.937753869562798 F300
G1 X32.943423124999995 Y30.015498249999993 F300
G1 X32.72765574026458 Y30.084648092812067 F300
G1 X32.50893294873126 Y30.145368830547188 F300
G1 X32.28728477285601 Y30.197628978071176 F300
G1 X32.06273440635359 Y30.24137124620224 F300
G1 X31.835300226726716 Y30.27651199741696 F300
G1 X31.604997814814816 Y30.302940777777774 F300
G1 X31.37543812822353 Y30.320317994864276 F300
G1 X31.14369997772647 Y30.328947070658742 F300
G1 X30.90979945281635 Y30.328710133216024 F300
G1 X30.673752855086526 Y30.31946250311947 F300
G1 X30.435578649219703 Y30.301032414788022 F300
G1 X30.195299393518518 Y30.27322080555555 F300
G1 X29.959073815296392 Y30.23686373190306 F300
G1 X29.721417778109547 Y30.19124917713146 F300
G1 X29.48235466837748 Y30.136171757876937 F300
G1 X29.24191470316709 Y30.07139920808108 F300
G1 X29.000136732353443 Y29.996672330859877 F300
G1 X28.757070000000002 Y29.911704999999994 F300
G1 X28.544129433550037 Y29.82893752670783 F300
G1 X28.34865352314816 Y29.744324129629632 F300
G1 X28.15968366886656 Y29.652308948286997 F300
G1 X27.977297518518526 Y29.551978703703703 F300
G1 X27.79901589755599 Y29.441592616920047 F300
G1 X27.616889125000004 Y29.315665499999994 F300
G1 X27.43608479274399 Y29.177834057806052 F300
G1 X27.241315481481486 Y29.01638129629629 F300
G1 X27.04441357490611 Y28.84151426014946 F300
G1 X26.824463726851853 Y28.63512287037036 F300
G1 X26.59824661026505 Y28.41364020497749 F300
G1 X26.340221000000007 Y28.152886999999993 F300
G1 X25.017531 Y26.799013999999993 F300
G1 X23.694842 Y28.152886999999993 F300
G1 X23.422413006653656 Y28.425157727393714 F300
G1 X23.16467398629731 Y28.669368084560453 F300
G1 X22.91953508333334 Y28.88792860185185 F300
G1 X22.728834217539926 Y29.047782561115177 F300
G1 X22.54316471308499 Y29.19425352203279 F300
G1 X22.36172550938901 Y29.328220049832346 F300
G1 X22.183770666666675 Y29.45050881481481 F300
G1 X21.999187278507932 Y29.567629460842277 F300
G1 X21.815629771721913 Y29.67421095231713 F300
G1 X21.632353862436755 Y29.770852135832676 F300
G1 X21.44863475 Y29.85810924999999 F300
G1 X21.260807069489196 Y29.937675769109905 F300
G1 X21.069823483615224 Y30.00901709380462 F300
G1 X20.874894667135408 Y30.072436598575393 F300
G1 X20.675213333333335 Y30.128211518518512 F300
G1 X20.474675652964308 Y30.175577613481153 F300
G1 X20.26669081762053 Y30.2163340058709 F300
G1 X20.050325084881297 Y30.25055196359897 F300
G1 X19.824592416666665 Y30.278297231481474 F300
G1 X19.52461874560235 Y30.304178517628095 F300
G1 X19.203284590968607 Y30.320057789240618 F300
G1 X18.857858 Y30.325847999999993 F300
G1 X18.603828083293095 Y30.321795224296736 F300
G1 X18.35847184032328 Y30.3087169880874 F300
G1 X18.12119428008859 Y30.286784650542113 F300
G1 X17.891424810277346 Y30.256143598562293 F300
G1 X17.668616 Y30.21691146875 F300
G1 X17.44503636362886 Y30.167415453301103 F300
G1 X17.227192782356248 Y30.10872247177793 F300
G1 X17.014589302054723 Y30.040781578342745 F300
G1 X16.806749990617337 Y29.963503482983167 F300
G1 X16.60321775 Y29.87675949999999 F300
G1 X16.404363752170514 Y29.780795431410763 F300
G1 X16.208429824536758 Y29.674783728663023 F300
G1 X16.01504048386641 Y29.55840166125834 F300
G1 X15.823832437449397 Y29.43128510409919 F300
G1 X15.634452875000001 Y29.293028531249995 F300
G1 X15.453912051576225 Y29.149293571318303 F300
G1 X15.27398248741734 Y28.994019987157095 F300
G1 X15.094389069631585 Y28.826664308948754 F300
G1 X14.914857279712987 Y28.64664746030067 F300
G1 X14.735111 Y28.453354999999995 F300
G1 X14.56070624248074 Y28.251214009763643 F300
G1 X14.399496946412158 Y28.047715462560294 F300
G1 X14.251023466385949 Y27.842733574105225 F300
G1 X14.114866552452584 Y27.636124202604456 F300
G1 X13.990648675875512 Y27.42772489582189 F300
G1 X13.87803529051428 Y27.217355083748476 F300
G1 X13.77673600297905 Y27.004816417398388 F300
G1 X13.686505625 Y26.78989324999999 F300
G1 X13.605941063707832 Y26.56878561000479 F300
G1 X13.536419212217236 Y26.3446262418329 F300
G1 X13.477845043298704 Y26.117138446323224 F300
G1 X13.430173839290408 Y25.886031024362214 F300
G1 X13.393411284934341 Y25.65099932562866 F300
G1 X13.367613332033084 Y25.411726329108674 F300
G1 X13.352885839714027 Y25.16788372894469 F300
G1 X13.349384 Y24.919132999999995 F300
G1 X13.357624098089026 Y24.666604237315962 F300
G1 X13.377576308961338 Y24.41938514062528 F300
G1 X13.408761986016028 Y24.177332154963555 F300
G1 X13.450763076453159 Y23.940306445399443 F300
G1 X13.503219385459532 Y23.708177389574754 F300
G1 X13.5669335691596 Y23.477143045335474 F300
G1 X13.640647159126605 Y23.251559006748586 F300
G1 X13.724045852332726 Y23.031340289430435 F300
G1 X13.81686134669646 Y22.81641560325667 F300
G1 X13.918868268861456 Y22.6067303388203 F300
G1 X14.030451582902876 Y22.401251985622228 F300
G1 X14.150577084635154 Y22.201651683016532 F300
G1 X14.279028520823044 Y22.00791179739236 F300
G1 X14.415622356429196 Y21.82003357071713 F300
G1 X14.560204740740744 Y21.638039518518518 F300
G1 X14.71236424880281 Y21.462290316897796 F300
G1 X14.871688985477189 Y21.293095899218688 F300
G1 X15.038012677939292 Y21.13049637269991 F300
G1 X15.211191835577559 Y20.97455348969719 F300
G1 X15.391102891632373 Y20.8253525994513 F300
G1 X15.576669821200259 Y20.683713973911022 F300
G1 X15.768018463130218 Y20.54945460182348 F300
G1 X15.96500935464168 Y20.422658910764262 F300
G1 X16.16751893748554 Y20.30343518564631 F300
G1 X16.37543681207133 Y20.191917252400543 F300
G1 X16.587199617855525 Y20.08894194493513 F300
G1 X16.803357537091223 Y19.994224125906783 F300
G1 X17.023793392132024 Y19.907886711021213 F300
G1 X17.248400641667857 Y19.830079585292673 F300
G1 X17.477080592592593 Y19.760981148148144 F300
G1 X17.707690299009492 Y19.701286201584846 F300
G1 X17.941366936872377 Y19.650733697784563 F300
G1 X18.17801919463344 Y19.609493677541394 F300
G1 X18.41756095991265 Y19.577768031993763 F300
G1 X18.659908323731145 Y19.55579195747599 F300
G1 X18.90186485279409 Y19.543922623941384 F300
G1 X19.145698233442815 Y19.5421059568004 F300
G1 X19.39134329902739 Y19.550585072075545 F300
G1 X19.638732799170462 Y19.569641671775578 F300
G1 X19.88779409602195 Y19.599597351165976 F300
G1 X20.133525654008903 Y19.63989757502322 F300
G1 X20.380132445699104 Y19.691273374567913 F300
G1 X20.627561707740906 Y19.754080673502358 F300
G1 X20.87574846857591 Y19.82872150112915 F300
G1 X21.124612000000003 Y19.915644999999998 F300
G1 X21.124612 Y19.915644999999998 F300
G0 X17.263835 Y21.50878
G1 X17.05001779767097 Y21.612939032278987 F300
G1 X16.848667575906003 Y21.723184622103403 F300
G1 X16.659275464612655 Y21.839283359592876 F300
G1 X16.481367181540907 Y21.96105267188754 F300
G1 X16.314506276609166 Y22.08835998102801 F300
G1 X16.15829741267025 Y22.22112158302214 F300
G1 X16.01238962962963 Y22.359301222222225 F300
G1 X15.871507662317807 Y22.508474047731507 F300
G1 X15.741375316137104 Y22.66322873072631 F300
G1 X15.62171577867503 Y22.823627701454893 F300
G1 X15.51231349207957 Y22.989780670863304 F300
G1 X15.413017169823185 Y23.161841430638074 F300
G1 X15.323742436176861 Y23.34000432396864 F300
G1 X15.244474037037037 Y23.524500444444445 F300
G1 X15.176844247509237 Y23.71082412670615 F300
G1 X15.119005163125472 Y23.90333013910923 F300
G1 X15.071079365557914 Y24.102298211620273 F300
G1 X15.033257192213682 Y24.30803087243872 F300
G1 X15.005797042954955 Y24.52084958014053 F300
G1 X14.989025313526827 Y24.741090931730955 F300
G1 X14.983336000000001 Y24.969103 F300
G1 X14.988126212653512 Y25.19685376566919 F300
G1 X15.002309345623342 Y25.412404136847872 F300
G1 X15.025627757375082 Y25.61686238668547 F300
G1 X15.057859875000002 Y25.811269046875 F300
G1 X15.101116628626396 Y26.00570971967661 F300
G1 X15.15416802093587 Y26.192185212822444 F300
G1 X15.217087518369102 Y26.371596088878167 F300
G1 X15.290017250000002 Y26.544792625000003 F300
G1 X15.373511273973058 Y26.71321453021248 F300
G1 X15.468088803514298 Y26.87774746082841 F300
G1 X15.574277403889498 Y27.039060918078754 F300
G1 X15.692686750000002 Y27.197802390625 F300
G1 X15.818390092721692 Y27.34823740795663 F300
G1 X15.95734697970487 Y27.498145924772 F300
G1 X16.11047015298233 Y27.648035247569755 F300
G1 X16.278747000000003 Y27.798427 F300
G1 X16.42879430475729 Y27.920412990176263 F300
G1 X16.583775403994583 Y28.033985043933885 F300
G1 X16.743493770080143 Y28.139319769697103 F300
G1 X16.907780536931547 Y28.23655748273406 F300
G1 X17.076489736111117 Y28.325801412037045 F300
G1 X17.249350215858943 Y28.407053797123012 F300
G1 X17.425668928158977 Y28.480141066954545 F300
G1 X17.60527679281671 Y28.54514166059795 F300
G1 X17.78801793608993 Y28.60210188839168 F300
G1 X17.97374555555556 Y28.651035629629636 F300
G1 X18.161206323175907 Y28.691708383336756 F300
G1 X18.35054011640583 Y28.72425970755668 F300
G1 X18.54157706177924 Y28.74870923185885 F300
G1 X18.73415150688956 Y28.76504774402442 F300
G1 X18.928098375 Y28.773237125 F300
G1 X19.170319902369 Y28.771969042000126 F300
G1 X19.41279382950123 Y28.757975267747604 F300
G1 X19.655180756190255 Y28.731198367848492 F300
G1 X19.897132111111112 Y28.69151337037037 F300
G1 X20.088654527957452 Y28.65069280283205 F300
G1 X20.27872180242658 Y28.60170254522952 F300
G1 X20.467162361670116 Y28.544482797990014 F300
G1 X20.65379607722532 Y28.478944956179852 F300
G1 X20.838430680555554 Y28.40497183796296 F300
G1 X21.019051225702324 Y28.323283870507634 F300
G1 X21.19666017961645 Y28.233353182568045 F300
G1 X21.371082984288012 Y28.135056992307035 F300
G1 X21.542127079767535 Y28.028241020976495 F300
G1 X21.709578000000004 Y27.91272 F300
G1 X21.81638005833452 Y27.83161730240413 F300
G1 X21.93102829226887 Y27.737138340235095 F300
G1 X22.05319943554688 Y27.629217556640622 F300
G1 X22.232696011264224 Y27.45896055149618 F300
G1 X22.420577671875005 Y27.267633140625 F300
G1 X22.605563605503622 Y27.067317499759472 F300
G1 X22.790268978515634 Y26.855943498046877 F300
G1 X22.96976710949769 Y26.6394501001568 F300
G1 X23.140829625000002 Y26.422125375 F300
G1 X23.304029028802823 Y26.203183258792603 F300
G1 X23.45081588085938 Y25.99415551757813 F300
G1 X23.58664350587121 Y25.786732278425223 F300
G1 X23.698784015625 Y25.600010671875 F300
G1 X23.767052710154804 Y25.475036266414982 F300
G1 X23.821593381142094 Y25.364384550020446 F300
G1 X23.86329029882813 Y25.267667583984377 F300
G1 X23.898238560654615 Y25.16757056270757 F300
G1 X23.917160267634223 Y25.08762861890246 F300
G1 X23.922891000000003 Y25.025103 F300
G1 X23.91777295665637 Y24.978153044577066 F300
G1 X23.90004170030011 Y24.911535865567018 F300
G1 X23.865830796875002 Y24.820833007812503 F300
G1 X23.802060678986486 Y24.68359125556398 F300
G1 X23.709139375000003 Y24.509653187500003 F300
G1 X23.603059502180848 Y24.3283349027248 F300
G1 X23.474550515625005 Y24.122546648437503 F300
G1 X23.33663817677014 Y23.912880925399776 F300
G1 X23.183798000000003 Y23.690496500000002 F300
G1 X23.024626833629775 Y23.467950925129085 F300
G1 X22.858615609375004 Y23.2444858515625 F300
G1 X22.688906750700735 Y23.02465984533826 F300
G1 X22.520737125000004 Y22.815497812500006 F300
G1 X22.3512350543261 Y22.61406399739115 F300
G1 X22.191896328125 Y22.4345154921875 F300
G1 X22.033287483296387 Y22.2672819253123 F300
G1 X21.893827 Y22.132522 F300
G1 X21.776455572104624 Y22.031279466857484 F300
G1 X21.650621094416458 Y21.93463272148273 F300
G1 X21.516461530456883 Y21.8426250829444 F300
G1 X21.37410246355686 Y21.755340379008757 F300
G1 X21.228715398011033 Y21.67552272589438 F300
G1 X21.076752238235684 Y21.60079296463918 F300
G1 X20.918456399092197 Y21.53125386404137 F300
G1 X20.754075524781342 Y21.467034868804664 F300
G1 X20.53182618304617 Y21.391800952204246 F300
G1 X20.302060898183544 Y21.326668613947213 F300
G1 X20.065587046647227 Y21.271894927113703 F300
G1 X19.826719551907377 Y21.228346811244748 F300
G1 X19.584709973861028 Y21.195725923740383 F300
G1 X19.340477892128284 Y21.17421001166181 F300
G1 X19.095529865555424 Y21.16403532600328 F300
G1 X18.851931538525548 Y21.165361836567065 F300
G1 X18.610588924198254 Y21.178269580174927 F300
G1 X18.370296385017518 Y21.203160184848116 F300
G1 X18.135763552456716 Y21.239858241261125 F300
G1 X17.907761005830906 Y21.288363090379008 F300
G1 X17.738397930551706 Y21.333425883951698 F300
G1 X17.574469707671568 Y21.385187956290242 F300
G1 X17.41620597229634 Y21.44363385582805 F300
G1 X17.263835000000004 Y21.50878 F300
G0 X20.365313 Y21.730788
G1 X20.47862551763672 Y21.76764876301463 F300
G1 X20.605866864824637 Y21.82137317912738 F300
G1 X20.7476129941691 Y21.893386326530617 F300
G1 X20.88451864703758 Y21.97292135117274 F300
G1 X21.031099726604623 Y22.06729223410981 F300
G1 X21.186935361516035 Y22.17676269387755 F300
G1 X21.338394566198275 Y22.291276550829796 F300
G1 X21.4948554779679 Y22.417336741474845 F300
G1 X21.655459536443146 Y22.554526040816324 F300
G1 X21.89066253841715 Y22.769307662989515 F300
G1 X22.12536495335277 Y23.000285306122446 F300
G1 X22.352391460757584 Y23.240690598403457 F300
G1 X22.568831046647233 Y23.48764942857143 F300
G1 X22.707423771126813 Y23.65661175380741 F300
G1 X22.837401047427385 Y23.824440436047773 F300
G1 X22.958037250728864 Y23.990227346938774 F300
G1 X23.073251223525013 Y24.160168053167947 F300
G1 X23.175709529077288 Y24.324187582034185 F300
G1 X23.265163 Y24.481627999999997 F300
G1 X23.610855 Y25.123733 F300
G1 X22.880439000000003 Y26.112460000000002 F300
G1 X22.754772587542547 Y26.276527074120438 F300
G1 X22.613864512000013 Y26.449170000000006 F300
G1 X22.466332987685945 Y26.620270507578237 F300
G1 X22.312346456000004 Y26.790183680000002 F300
G1 X22.154913586372448 Y26.955704996978888 F300
G1 X22.000082544 Y27.110666560000002 F300
G1 X21.84470962892251 Y27.258000851249488 F300
G1 X21.701270488000006 Y27.385784160000007 F300
G1 X21.559894092199084 Y27.502158768173484 F300
G1 X21.440108000000002 Y27.590702000000004 F300
G1 X21.26231665146104 Y27.707073314059475 F300
G1 X21.082222642816134 Y27.812964941283962 F300
G1 X20.90006301773333 Y27.908733121131462 F300
G1 X20.716045821553422 Y27.994691854896345 F300
G1 X20.530354938775517 Y28.071112775510215 F300
G1 X20.33982562535239 Y28.139331507298223 F300
G1 X20.148678822898383 Y28.197884451458243 F300
G1 X19.957112260646277 Y28.24702828369097 F300
G1 X19.765307347002498 Y28.286980968185077 F300
G1 X19.573433795918366 Y28.317922000000006 F300
G1 X19.37920550079624 Y28.340217860857727 F300
G1 X19.186126671980453 Y28.353482425074972 F300
G1 X18.9943730850159 Y28.357906100499985 F300
G1 X18.804113495026908 Y28.35364251738739 F300
G1 X18.615514204081627 Y28.340809020408162 F300
G1 X18.426762581037 Y28.319214404798114 F300
G1 X18.24095802653463 Y28.28916458746956 F300
G1 X18.05825308542724 Y28.250795225143392 F300
G1 X17.878802039630724 Y28.20420436073554 F300
G1 X17.70276579591837 Y28.149453183673472 F300
G1 X17.52890551974443 Y28.086012738340663 F300
G1 X17.359696670117394 Y28.014658124873996 F300
G1 X17.1952695304181 Y27.935452187696285 F300
G1 X17.035768593682768 Y27.848416744382405 F300
G1 X16.881358204081636 Y27.753533836734697 F300
G1 X16.731972015722917 Y27.650560417910242 F300
G1 X16.588731168566433 Y27.540071635471506 F300
G1 X16.451775643843245 Y27.422011387245277 F300
G1 X16.321280228251613 Y27.296278775817576 F300
G1 X16.19746106122449 Y27.162730326530614 F300
G1 X16.08197888162494 Y27.022976381661984 F300
G1 X15.973945385714138 Y26.875747079879662 F300
G1 X15.873598532053158 Y26.72081545417162 F300
G1 X15.781240414010721 Y26.557910737613952 F300
G1 X15.697244000000001 Y26.386722000000002 F300
G1 X15.61443181050813 Y26.19117450598166 F300
G1 X15.544574515708296 Y25.998940468164854 F300
G1 X15.486920002025219 Y25.809959187511417 F300
G1 X15.440794994818491 Y25.62414703448897 F300
G1 X15.405603897119342 Y25.44140218930041 F300
G1 X15.379969935577673 Y25.253771304992217 F300
G1 X15.365210305782355 Y25.069743642198134 F300
G1 X15.36081884706644 Y24.88922477893727 F300
G1 X15.366362490418199 Y24.712114695954753 F300
G1 X15.381478954732511 Y24.538313144032927 F300
G1 X15.406512353324977 Y24.364012775760003 F300
G1 X15.440846844311467 Y24.193612326567376 F300
G1 X15.484191003956198 Y24.027045998882826 F300
G1 X15.536313389911495 Y23.864258974795526 F300
G1 X15.597039222222227 Y23.70521244444445 F300
G1 X15.666516072022251 Y23.549325754725544 F300
G1 X15.744115665006698 Y23.397833456467882 F300
G1 X15.829696524577091 Y23.25073710757435 F300
G1 X15.923161648418994 Y23.10806126646202 F300
G1 X16.024454748971195 Y22.969857670781895 F300
G1 X16.132503841718204 Y22.837432978989305 F300
G1 X16.2477092188083 Y22.710139217186775 F300
G1 X16.37001913844494 Y22.588056971416343 F300
G1 X16.4994126036739 Y22.47129756483993 F300
G1 X16.635895584362142 Y22.360006403292186 F300
G1 X16.776834874877512 Y22.256226461905335 F300
G1 X16.924057822896106 Y22.15849862199675 F300
G1 X17.077565250505394 Y22.066983268024106 F300
G1 X17.23737770386798 Y21.981877176320197 F300
G1 X17.40353177777778 Y21.903416222222226 F300
G1 X17.571690818419846 Y21.83357704973504 F300
G1 X17.745330810861027 Y21.770833577649597 F300
G1 X17.924486657883282 Y21.715431477273 F300
G1 X18.10920355037566 Y21.667658103958175 F300
G1 X18.299533378600827 Y21.627844707818934 F300
G1 X18.4891857045774 Y21.59724036234488 F300
G1 X18.683609252180666 Y21.57488830545008 F300
G1 X18.882860165696297 Y21.561135219077087 F300
G1 X19.08699564038333 Y21.55637478437511 F300
G1 X19.296070436213995 Y21.56104944032922 F300
G1 X19.501481822353508 Y21.57487126994774 F300
G1 X19.711056968317223 Y21.5982612097863 F300
G1 X19.924855269345283 Y21.63168818934629 F300
G1 X20.14292758903694 Y21.675672677878143 F300
G1 X20.365313000000004 Y21.730788000000004 F300
G1 X20.365313 Y21.730788 F300
G0 X17.002342 Y24.708922
G1 X16.96392413659201 Y24.761466517431145 F300
G1 X16.928865572406554 Y24.82224014008173 F300
G1 X16.897757444444448 Y24.890274518518524 F300
G1 X16.87252353373254 Y24.960754715507974 F300
G1 X16.853020296217256 Y25.03296968951063 F300
G1 X16.839608222222225 Y25.105408148148147 F300
G1 X16.832618516331557 Y25.178692087700984 F300
G1 X16.83296661190541 Y25.24645779546707 F300
G1 X16.840483 Y25.307748 F300
G1 X16.852117632109195 Y25.35468986540363 F300
G1 X16.868733050620612 Y25.396261228135057 F300
G1 X16.89171440277778 Y25.433424976851857 F300
G1 X16.921081706790805 Y25.46550044418304 F300
G1 X16.961360431277903 Y25.49596805958485 F300
G1 X17.01660888888889 Y25.524954481481487 F300
G1 X17.07539681242784 Y25.547091586932485 F300
G1 X17.153107849037653 Y25.56863618081237 F300
G1 X17.255366875 Y25.589220875000002 F300
G1 X17.419479540811942 Y25.612094912394184 F300
G1 X17.648188777777776 Y25.63310851851852 F300
G1 X17.901905418117018 Y25.64888624753855 F300
G1 X18.235275013888888 Y25.66350177314815 F300
G1 X19.056826 Y25.687285 F300
G1 X21.210291 Y25.738785 F300
G1 X21.152681 Y25.13996 F300
G1 X21.095071 Y24.541137 F300
G1 X19.161074 Y24.489627 F300
G1 X18.717983962862192 Y24.479793248432717 F300
G1 X18.364745984000006 Y24.476136488000005 F300
G1 X18.039795884025843 Y24.47864677983329 F300
G1 X17.789981552 Y24.487338903999998 F300
G1 X17.56346815656632 Y24.50446985669905 F300
G1 X17.397507728 Y24.527215176 F300
G1 X17.29378031037958 Y24.54922914449748 F300
G1 X17.21223651888976 Y24.573605490117814 F300
G1 X17.148051536 Y24.599746232 F300
G1 X17.087704233536698 Y24.63329319686194 F300
G1 X17.040172583468454 Y24.669662070829325 F300
G1 X17.00234 Y24.708913 F300
G1 X17.002342 Y24.708922 F300
G0 X20.821413 Y25.088463
G1 X20.81692527557903 Y25.13132693092273 F300
G1 X20.802913120577493 Y25.1689454357556 F300
G1 X20.777585128000002 Y25.202912376 F300
G1 X20.744055239830296 Y25.23006093652274 F300
G1 X20.69408190180996 Y25.25640810603286 F300
G1 X20.621032904 Y25.281528648000005 F300
G1 X20.545529233259998 Y25.299204389639293 F300
G1 X20.445438570838466 Y25.315643951093243 F300
G1 X20.314153415999996 Y25.330286232 F300
G1 X20.10516895965653 Y25.344696765045875 F300
G1 X19.819343752 Y25.355159544000003 F300
G1 X19.504674653017876 Y25.360363086414957 F300
G1 X19.099001 Y25.362123 F300
G1 X18.70361208514736 Y25.35912303151043 F300
G1 X18.376442174618592 Y25.350700062309322 F300
G1 X18.108491687500003 Y25.3377226875 F300
G1 X17.84074916172223 Y25.3160291432657 F300
G1 X17.639659836858076 Y25.289992034659658 F300
G1 X17.492373 Y25.26116775 F300
G1 X17.397763548747655 Y25.234436630123902 F300
G1 X17.329359920955394 Y25.20727741440615 F300
G1 X17.281543251810078 Y25.180267078173454 F300
G1 X17.24956076582954 Y25.153691711739313 F300
G1 X17.229618312499998 Y25.127427187500004 F300
G1 X17.21816682472571 Y25.09657538708185 F300
G1 X17.2175906763822 Y25.063520282660367 F300
G1 X17.228698622706812 Y25.026325131931806 F300
G1 X17.254391998182598 Y24.98296138847205 F300
G1 X17.299201 Y24.93147 F300
G1 X17.315233847551507 Y24.921564035437456 F300
G1 X17.352610786530718 Y24.90925125768081 F300
G1 X17.423157632000002 Y24.894695352000006 F300
G1 X17.535266011591638 Y24.878938513436804 F300
G1 X17.697646056 Y24.862681776000002 F300
G1 X17.875416252413316 Y24.849483175368178 F300
G1 X18.092100063999997 Y24.837388824 F300
G1 X18.575953448 Y24.820776048000003 F300
G1 X19.11864 Y24.814803 F300
G1 X19.51931353131176 Y24.816569325069956 F300
G1 X19.830236808000006 Y24.821788440000006 F300
G1 X20.11270210271956 Y24.83227260908143 F300
G1 X20.319338064 Y24.846705720000003 F300
G1 X20.449158147465567 Y24.861360167220326 F300
G1 X20.548180591511553 Y24.87781005944613 F300
G1 X20.622918216000002 Y24.89549628 F300
G1 X20.695184288489294 Y24.920597648943556 F300
G1 X20.744689338207746 Y24.946936685483024 F300
G1 X20.777951712 Y24.97410156 F300
G1 X20.803047634572437 Y25.00802608142893 F300
G1 X20.81695428988988 Y25.045618913246663 F300
G1 X20.821413 Y25.088463 F300
G0 X29.122429 Y21.506375000000002
G1 X28.98433217231503 Y21.575052864322824 F300
G1 X28.8376989923589 Y21.659478532042 F300
G1 X28.682728021947867 Y21.759998211248284 F300
G1 X28.532773226900456 Y21.86714649412505 F300
G1 X28.378052147216593 Y21.986994756290425 F300
G1 X28.219190879286696 Y22.119189875171475 F300
G1 X28.06473788182601 Y22.25613806179122 F300
G1 X27.909457294633413 Y22.401917233683957 F300
G1 X27.754143259259266 Y22.555747037037044 F300
G1 X27.52820437615304 Y22.794033317036984 F300
G1 X27.30991084910837 Y23.041466742112487 F300
G1 X27.101461763368068 Y23.29535839731883 F300
G1 X26.908819336076817 Y23.5481460356653 F300
G1 X26.786504559054134 Y23.719801891848405 F300
G1 X26.674521760910203 Y23.886560980921566 F300
G1 X26.573194407407406 Y24.047581962962965 F300
G1 X26.477044098974922 Y24.212371640329405 F300
G1 X26.394516051786766 Y24.367168553043633 F300
G1 X26.325361750342935 Y24.51157156927298 F300
G1 X26.263632493889517 Y24.660006443145868 F300
G1 X26.218127129660516 Y24.793269884483152 F300
G1 X26.187647052126202 Y24.91191189986283 F300
G1 X26.17234120763571 Y25.00456421812301 F300
G1 X26.1669589595482 Y25.086199152139333 F300
G1 X26.170547638109852 Y25.157813136552807 F300
G1 X26.182376 Y25.2204 F300
G1 X26.211970352463933 Y25.31332837882358 F300
G1 X26.255354078179078 Y25.421268967885833 F300
G1 X26.31387351603499 Y25.545011956268226 F300
G1 X26.414063814432136 Y25.729405860183928 F300
G1 X26.54118457725947 Y25.937151446064142 F300
G1 X26.681548473312446 Y26.146568644922567 F300
G1 X26.84150823906705 Y26.368125472303205 F300
G1 X27.011098365139866 Y26.58816911578679 F300
G1 X27.19204355685131 Y26.809241037900875 F300
G1 X27.379587705876546 Y27.02527547003852 F300
G1 X27.569989586005832 Y27.231805145772597 F300
G1 X27.764383929505556 Y27.429389153868684 F300
G1 X27.9525453819242 Y27.60712479883382 F300
G1 X28.080854364127603 Y27.71992884369176 F300
G1 X28.202462954556708 Y27.819752466266156 F300
G1 X28.31691 Y27.906507 F300
G1 X28.4836239179405 Y28.021514644527997 F300
G1 X28.654109482043626 Y28.127983977578364 F300
G1 X28.828140784859496 Y28.22608798769223 F300
G1 X29.005513328297038 Y28.315969275678952 F300
G1 X29.186040018518526 Y28.39773956944445 F300
G1 X29.370479081479477 Y28.471830695561856 F300
G1 X29.556997819320266 Y28.53760865534021 F300
G1 X29.74538760124599 Y28.595183824825106 F300
G1 X29.935451659383535 Y28.644639010032012 F300
G1 X30.127001481481482 Y28.686029222222235 F300
G1 X30.368998469602296 Y28.726570000825728 F300
G1 X30.611367352449786 Y28.754346794515115 F300
G1 X30.853724919754725 Y28.769487233576108 F300
G1 X31.095698 Y28.772053875000005 F300
G1 X31.33782699102194 Y28.76198202037911 F300
G1 X31.577493323308623 Y28.739328469148983 F300
G1 X31.81434667509335 Y28.704164268505853 F300
G1 X32.04803318518518 Y28.656491444444452 F300
G1 X32.2332358826305 Y28.609086060539376 F300
G1 X32.415183099422705 Y28.55375210951258 F300
G1 X32.59372113865241 Y28.490490012014945 F300
G1 X32.768688324623035 Y28.41926750057939 F300
G1 X32.93991064814814 Y28.340019847222223 F300
G1 X33.107221962644005 Y28.25263665649048 F300
G1 X33.26976595588029 Y28.15738421774769 F300
G1 X33.4273986399156 Y28.054172397798467 F300
G1 X33.57995304406148 Y27.94287229665843 F300
G1 X33.727234 Y27.823317000000003 F300
G1 X33.8996532075448 Y27.669509575424577 F300
G1 X34.05633198036714 Y27.516989523228283 F300
G1 X34.198317797157166 Y27.36522216281961 F300
G1 X34.326582515625006 Y27.21369350000001 F300
G1 X34.44795420581986 Y27.05362372611657 F300
G1 X34.5565873360177 Y26.891791131852585 F300
G1 X34.65316282886819 Y26.727559374829124 F300
G1 X34.738277374999996 Y26.560276750000003 F300
G1 X34.81300927818845 Y26.387848643572895 F300
G1 X34.877345515731406 Y26.210030653564758 F300
G1 X34.93148990609622 Y26.026004063391106 F300
G1 X34.975573796875 Y25.834905375000005 F300
G1 X35.008567472024026 Y25.64340690326611 F300
G1 X35.032388313463976 Y25.44267101276864 F300
G1 X35.0468502099236 Y25.231696397217124 F300
G1 X35.051727 Y25.009418000000004 F300
G1 X35.04609287900867 Y24.77489464970086 F300
G1 X35.029489204351094 Y24.549133615442553 F300
G1 X35.002316413572885 Y24.331709940369425 F300
G1 X34.964910526034274 Y24.122213483284757 F300
G1 X34.91754214787705 Y23.920251924760915 F300
G1 X34.8604157694683 Y23.725453927919464 F300
G1 X34.793669407407414 Y23.537472407407417 F300
G1 X34.71492280972305 Y23.35060624635205 F300
G1 X34.62616477692967 Y23.170542131782376 F300
G1 X34.52736943522844 Y22.996986862223526 F300
G1 X34.418439407634615 Y22.8296863056824 F300
G1 X34.299207535279166 Y22.668428747049933 F300
G1 X34.16943906579648 Y22.513047957968354 F300
G1 X34.02883425925926 Y22.36342592592593 F300
G1 X33.8830796577855 Y22.224924092186377 F300
G1 X33.72676806578641 Y22.091806250601895 F300
G1 X33.559498518686645 Y21.96407593939329 F300
G1 X33.38082269244282 Y21.841784167065683 F300
G1 X33.19024795629101 Y21.725030220901203 F300
G1 X32.987240431424034 Y21.613962156498335 F300
G1 X32.771228 Y21.508777000000002 F300
G1 X32.608218172024436 Y21.440868606283257 F300
G1 X32.42912440421719 Y21.379475058627904 F300
G1 X32.23433513425926 Y21.325034638888894 F300
G1 X32.03712175910916 Y21.28061228624962 F300
G1 X31.829536746399853 Y21.243702055840657 F300
G1 X31.612647740740748 Y21.214592111111116 F300
G1 X31.394777844186216 Y21.194139097510647 F300
G1 X31.172897699759368 Y21.181735616896393 F300
G1 X30.948389625000004 Y21.177477250000003 F300
G1 X30.723876002348163 Y21.181438989385477 F300
G1 X30.501879417974205 Y21.19354924844045 F300
G1 X30.283784592592596 Y21.21371788888889 F300
G1 X30.06665962601675 Y21.24253644295785 F300
G1 X29.858725048257867 Y21.279171980612077 F300
G1 X29.661056449074074 Y21.32334186111111 F300
G1 X29.465792274891122 Y21.377513784451637 F300
G1 X29.286115261349245 Y21.43867017181099 F300
G1 X29.122429 Y21.506377 F300
G1 X29.122429 Y21.506375000000002 F300
G0 X32.191211 Y21.726482
G1 X32.341040369333605 Y21.774419743098516 F300
G1 X32.497362393008615 Y21.836901603162865 F300
G1 X32.65958666203704 Y21.91391131481482 F300
G1 X32.81728338911857 Y21.999800282133474 F300
G1 X32.97670667378923 Y22.097171094747775 F300
G1 X33.136874629629645 Y22.205464518518525 F300
G1 X33.292218717536954 Y22.320610226041474 F300
G1 X33.44432943199655 Y22.443393455571883 F300
G1 X33.592150875 Y22.5729225 F300
G1 X33.734609057481286 Y22.708325290816486 F300
G1 X33.86901488225867 Y22.847039276317474 F300
G1 X33.994491370370376 Y22.988066148148153 F300
G1 X34.113434928542695 Y23.134676525013816 F300
G1 X34.219737647426726 Y23.27983596557387 F300
G1 X34.31297208796296 Y23.422676351851855 F300
G1 X34.3972697662498 Y23.571033679984485 F300
G1 X34.46507920189225 Y23.713115079032217 F300
G1 X34.516669 Y23.848534 F300
G1 X34.57519473016041 Y24.044551825718493 F300
G1 X34.6210246692558 Y24.23796998880115 F300
G1 X34.65483761569685 Y24.428823430881373 F300
G1 X34.677224096229146 Y24.617166571561775 F300
G1 X34.688689017578135 Y24.8030665703125 F300
G1 X34.68954133095128 Y24.991408291606586 F300
G1 X34.67976295211604 Y25.176591729926137 F300
G1 X34.659773029944404 Y25.35864525928612 F300
G1 X34.62992009413479 Y25.53759544163466 F300
G1 X34.590485828125004 Y25.71346075 F300
G1 X34.54124154952947 Y25.88767920787561 F300
G1 X34.482943908808025 Y26.05793875426658 F300
G1 X34.4158456231208 Y26.22421363541171 F300
G1 X34.34014764896745 Y26.386461762826222 F300
G1 X34.256003318359376 Y26.5446194921875 F300
G1 X34.1637353594731 Y26.69826230871211 F300
G1 X34.06377578434333 Y26.846866051338083 F300
G1 X33.95628665811439 Y26.99034409625809 F300
G1 X33.84139269601468 Y27.12858452107419 F300
G1 X33.719185375 Y27.26144575 F300
G1 X33.59074247948821 Y27.387802377920266 F300
G1 X33.4559080977173 Y27.507877626562625 F300
G1 X33.314787556774974 Y27.621531069738452 F300
G1 X33.167458663937396 Y27.7285893861957 F300
G1 X33.01397588476563 Y27.8288424765625 F300
G1 X32.85628553666147 Y27.920986643822243 F300
G1 X32.693432921580644 Y28.005568809717012 F300
G1 X32.525468962256895 Y28.082387636861682 F300
G1 X32.352425279578256 Y28.151199059930107 F300
G1 X32.174318734375 Y28.211712624999997 F300
G1 X31.99453543679669 Y28.262723145520035 F300
G1 X31.810640384978107 Y28.30488159005683 F300
G1 X31.622624850684197 Y28.337887868019557 F300
G1 X31.430471158643385 Y28.36138568064799 F300
G1 X31.234157810546876 Y28.374959148437497 F300
G1 X31.03958841575043 Y28.378189568118774 F300
G1 X30.841682502133438 Y28.371158196453653 F300
G1 X30.640385624111403 Y28.35340005401808 F300
G1 X30.435649394568273 Y28.32437899552024 F300
G1 X30.227437000000002 Y28.283485 F300
G1 X30.030663831239057 Y28.234365547468236 F300
G1 X29.835929876734294 Y28.175701639792297 F300
G1 X29.64317716735457 Y28.107510737692657 F300
G1 X29.452360009184748 Y28.029771063195064 F300
G1 X29.263447426235132 Y27.942423300920503 F300
G1 X29.076425518518526 Y27.845372444444447 F300
G1 X28.89602253197988 Y27.741354335474753 F300
G1 X28.71787901657035 Y27.628143772562 F300
G1 X28.542018726036208 Y27.50563170029082 F300
G1 X28.36848393961027 Y27.373682709161024 F300
G1 X28.197337120147765 Y27.232136804251763 F300
G1 X28.028662481481483 Y27.08081122222222 F300
G1 X27.837434603975375 Y26.893972665916056 F300
G1 X27.650340676473032 Y26.694082739069366 F300
G1 X27.467574629843398 Y26.480852166819176 F300
G1 X27.289373298216585 Y26.253960144625225 F300
G1 X27.116019 Y26.013057999999997 F300
G1 X26.416400000000003 Y24.997242999999997 F300
G1 X27.081470000000003 Y24.031591999999996 F300
G1 X27.194672401536753 Y23.870599988698483 F300
G1 X27.31826338400001 Y23.701194952 F300
G1 X27.576308192000006 Y23.363839296 F300
G1 X27.70820888695748 Y23.198828343866122 F300
G1 X27.835518008 Y23.044287464 F300
G1 X27.961753457787317 Y22.896078695693557 F300
G1 X28.075806416000006 Y22.767301887999995 F300
G1 X28.186526483133342 Y22.64839935540556 F300
G1 X28.277087 Y22.557644999999997 F300
G1 X28.424353430525063 Y22.424906468790848 F300
G1 X28.579287012841604 Y22.301277262783735 F300
G1 X28.741699721606018 Y22.18664860298908 F300
G1 X28.911448952000008 Y22.080973936000003 F300
G1 X29.08662938356042 Y21.98519047147323 F300
G1 X29.268024979230688 Y21.898635751297615 F300
G1 X29.45548356831478 Y21.821342317008952 F300
G1 X29.648873576000003 Y21.753399847999997 F300
G1 X29.844967733134705 Y21.695782806924964 F300
G1 X30.045715494053514 Y21.64775813310136 F300
G1 X30.25095517634292 Y21.609452603855495 F300
G1 X30.460529623999996 Y21.581044991999995 F300
G1 X30.670491017375888 Y21.562998907083404 F300
G1 X30.883444163253678 Y21.55501117179579 F300
G1 X31.099205685316562 Y21.557274762626886 F300
G1 X31.317585848000004 Y21.570031623999995 F300
G1 X31.534251874138775 Y21.59303449875348 F300
G1 X31.752216841306765 Y21.626600157872893 F300
G1 X31.971276515723215 Y21.670982022833165 F300
G1 X32.191211 Y21.726481999999997 F300
G1 X32.191211 Y21.726482 F300
G0 X30.125849000000002 Y23.879472
G1 X30.12376396450428 Y23.994445587558918 F300
G1 X30.117416107904702 Y24.086930098746862 F300
G1 X30.106906031250006 Y24.1611659375 F300
G1 X30.088613599342715 Y24.233151918925042 F300
G1 X30.06420859910464 Y24.29017595242829 F300
G1 X30.033525250000004 Y24.335797000000003 F300
G1 X29.994287093096123 Y24.374110785094253 F300
G1 X29.944398940725243 Y24.406301640977368 F300
G1 X29.880878843750004 Y24.433251562499997 F300
G1 X29.81373311193585 Y24.45242850746706 F300
G1 X29.729467167430652 Y24.469029582572762 F300
G1 X29.624139000000003 Y24.483416 F300
G1 X29.497961872734088 Y24.50094433261143 F300
G1 X29.402709320000007 Y24.521451320000008 F300
G1 X29.343985911845994 Y24.54058547279796 F300
G1 X29.296161290203507 Y24.562926077107843 F300
G1 X29.257128760000004 Y24.58885424 F300
G1 X29.223359624834522 Y24.62089289043996 F300
G1 X29.195232430714814 Y24.65962697060278 F300
G1 X29.17209204 Y24.7068662 F300
G1 X29.155556316864118 Y24.757326402718096 F300
G1 X29.14222438348735 Y24.819645831506172 F300
G1 X29.132293880000006 Y24.89672864 F300
G1 X29.124792849948808 Y25.018829167051386 F300
G1 X29.122429000000004 Y25.179682999999997 F300
G1 X29.126402704542937 Y25.37724053865589 F300
G1 X29.138860687500003 Y25.516518078124996 F300
G1 X29.155829524306252 Y25.60191919529629 F300
G1 X29.17864520287179 Y25.66730798104965 F300
G1 X29.207135000000005 Y25.717770875 F300
G1 X29.2348410291852 Y25.750825728517068 F300
G1 X29.268045495950492 Y25.779044643917807 F300
G1 X29.307863626776673 Y25.803175284874705 F300
G1 X29.355720812500003 Y25.823780234375 F300
G1 X29.422108321194905 Y25.843505574494095 F300
G1 X29.50642439725466 Y25.860323392162133 F300
G1 X29.613087000000004 Y25.874884999999995 F300
G1 X29.707417537044872 Y25.888437520570942 F300
G1 X29.78636743308718 Y25.905343647289254 F300
G1 X29.852422921875007 Y25.925548437499994 F300
G1 X29.9154738191236 Y25.95284016874726 F300
G1 X29.968224843033283 Y25.98509174092941 F300
G1 X30.012526125000004 Y26.022762499999995 F300
G1 X30.05019635970707 Y26.067064293973388 F300
G1 X30.082447772521377 Y26.119816044611657 F300
G1 X30.109739765625005 Y26.182867812499993 F300
G1 X30.129945205520055 Y26.248924022017167 F300
G1 X30.146852528165134 Y26.32787441586431 F300
G1 X30.160407000000003 Y26.422204999999995 F300
G1 X30.17496971936519 Y26.528868584425542 F300
G1 X30.191788150992174 Y26.61318512215795 F300
G1 X30.211513734375 Y26.67957271874999 F300
G1 X30.23211877687783 Y26.727430006700512 F300
G1 X30.256249361190513 Y26.767248046840013 F300
G1 X30.284468087072824 Y26.800452286865408 F300
G1 X30.317522625000002 Y26.82815799999999 F300
G1 X30.367985090671773 Y26.85664739499146 F300
G1 X30.433373435925258 Y26.879462638390095 F300
G1 X30.518774203125 Y26.896431031249996 F300
G1 X30.658051284493567 Y26.908888520236136 F300
G1 X30.855609 Y26.912861999999993 F300
G1 X31.053166510984347 Y26.908888296887262 F300
G1 X31.192443937500002 Y26.896430328124996 F300
G1 X31.277844974625747 Y26.879461512746396 F300
G1 X31.343233678344085 Y26.856645869580284 F300
G1 X31.393696500000004 Y26.828156124999996 F300
G1 X31.426751314318512 Y26.800450147042145 F300
G1 X31.454970206124898 Y26.767245743666617 F300
G1 X31.479100842552395 Y26.727427692714272 F300
G1 X31.4997058125 Y26.679570609375 F300
G1 X31.519431221067155 Y26.61318323838305 F300
G1 X31.536249170512235 Y26.528867348701922 F300
G1 X31.550811 Y26.422204999999995 F300
G1 X31.564363520042377 Y26.32787446208664 F300
G1 X31.581269642503017 Y26.24892456599115 F300
G1 X31.601474421875 Y26.182869078124998 F300
G1 X31.628766134136722 Y26.11981817457313 F300
G1 X31.661017671668468 Y26.067067151146816 F300
G1 X31.698688375 Y26.022765874999997 F300
G1 X31.742990107553847 Y25.985095633151342 F300
G1 X31.795741763109447 Y25.95284422153142 F300
G1 X31.858793390625 Y25.925552234374997 F300
G1 X31.924849462277194 Y25.90534679205016 F300
G1 X32.00379966768868 Y25.88843947001197 F300
G1 X32.09813 Y25.874884999999995 F300
G1 X32.204793831877346 Y25.86032225837082 F300
G1 X32.2891105574243 Y25.843503774550246 F300
G1 X32.355498296875 Y25.823778124999993 F300
G1 X32.40335569052164 Y25.803173016570923 F300
G1 X32.44317381260487 Y25.779042367637167 F300
G1 X32.47637811509307 Y25.750823583765595 F300
G1 X32.504083875 Y25.717768999999997 F300
G1 X32.53257332947936 Y25.667306464684515 F300
G1 X32.55538860643997 Y25.601918093114058 F300
G1 X32.572357015625 Y25.516517374999992 F300
G1 X32.58481451912235 Y25.377240392469943 F300
G1 X32.588788 Y25.179682999999997 F300
G1 X32.58481429423515 Y24.982125137864433 F300
G1 X32.5723563125 Y24.842847499999994 F300
G1 X32.55538747049773 Y24.75744634096203 F300
G1 X32.53257179033825 Y24.692057581009358 F300
G1 X32.504082 Y24.641594749999992 F300
G1 X32.476375974004824 Y24.60853995024875 F300
G1 X32.443171509608135 Y24.580321093784406 F300
G1 X32.403353378501514 Y24.556190514047955 F300
G1 X32.3554961875 Y24.535585624999996 F300
G1 X32.28910868273819 Y24.51586035223896 F300
G1 X32.20479260634288 Y24.499042586448642 F300
G1 X32.09813 Y24.484481 F300
G1 X32.003799711878074 Y24.470926284454066 F300
G1 X31.924849989775907 Y24.454018821895684 F300
G1 X31.858794656249998 Y24.43381334375 F300
G1 X31.79574380266728 Y24.406521343015072 F300
G1 X31.742992876918578 Y24.37426995461977 F300
G1 X31.698691749999995 Y24.336599749999998 F300
G1 X31.661021549998257 Y24.292298624371327 F300
G1 X31.628770177351413 Y24.239547684770933 F300
G1 X31.601478218749996 Y24.176496781250002 F300
G1 X31.58127282605991 Y24.110441390861553 F300
G1 X31.5643655000331 Y24.031491535582227 F300
G1 X31.550810999999996 Y23.937161 F300
G1 X31.533306817357385 Y23.815851924510696 F300
G1 X31.511630864000004 Y23.722495520000003 F300
G1 X31.491343314870782 Y23.66494371371343 F300
G1 X31.46723470776227 Y23.61663148880098 F300
G1 X31.438810072 Y23.575838360000002 F300
G1 X31.40436895208435 Y23.54020187604599 F300
G1 X31.362545920229504 Y23.509040827558866 F300
G1 X31.311498047999997 Y23.481785839999997 F300
G1 X31.257190641858955 Y23.460730344689473 F300
G1 X31.19057419259053 Y23.441788896417393 F300
G1 X31.108844216 Y23.424934280000002 F300
G1 X30.97920747856195 Y23.406397433078638 F300
G1 X30.809997999999997 Y23.389879999999998 F300
G1 X30.624387132324838 Y23.37594364751945 F300
G1 X30.488924328000007 Y23.370227776000004 F300
G1 X30.403583308780405 Y23.37161762717659 F300
G1 X30.338112390376143 Y23.37819241569051 F300
G1 X30.288015104 Y23.389293407999997 F300
G1 X30.24163278454832 Y23.408417308089632 F300
G1 X30.20630644738212 Y23.43406174499822 F300
G1 X30.179227815999994 Y23.467144351999995 F300
G1 X30.159876550228006 Y23.506217253450085 F300
G1 X30.144963946306042 Y23.55724700351377 F300
G1 X30.134519951999998 Y23.623848064 F300
G1 X30.127639676663215 Y23.73131080834583 F300
G1 X30.125848999999995 Y23.879472 F300
G1 X30.125849000000002 Y23.879472 F300
G0 X31.253981000000003 Y24.221874
G1 X31.26786659918905 Y24.319935217323145 F300
G1 X31.284903856156646 Y24.401443012776756 F300
G1 X31.305105453125 Y24.469155562499996 F300
G1 X31.33253496365829 Y24.533825479327675 F300
G1 X31.364971770860784 Y24.587541889356096 F300
G1 X31.402927625000004 Y24.63236325 F300
G1 X31.44774904203473 Y24.670319051357247 F300
G1 X31.501465591328007 Y24.70275590475911 F300
G1 X31.566135734375003 Y24.730185562499997 F300
G1 X31.63384849360483 Y24.75038736587185 F300
G1 X31.715356529413345 Y24.767424940978536 F300
G1 X31.813418000000002 Y24.781311 F300
G1 X31.930991671174887 Y24.799287474070635 F300
G1 X32.0255296329062 Y24.822605088989864 F300
G1 X32.10101762962964 Y24.850478777777784 F300
G1 X32.15507493423576 Y24.87867047054679 F300
G1 X32.1993319291723 Y24.91016508746473 F300
G1 X32.23521550412056 Y24.9450600635779 F300
G1 X32.26381837037037 Y24.98367988888889 F300
G1 X32.2858173540869 Y25.026429603560565 F300
G1 X32.30181763293931 Y25.07464005532297 F300
G1 X32.31171088795535 Y25.129356475523526 F300
G1 X32.315128 Y25.191800999999998 F300
G1 X32.31190390869009 Y25.26027201039276 F300
G1 X32.30251614135368 Y25.316962749954552 F300
G1 X32.28731387355106 Y25.364061141128072 F300
G1 X32.26643600000001 Y25.403405370370375 F300
G1 X32.23835741307879 Y25.43782080851188 F300
G1 X32.202055035935246 Y25.467393040411576 F300
G1 X32.15552716884512 Y25.49251974256235 F300
G1 X32.09611733333334 Y25.513179962962962 F300
G1 X32.01481109394395 Y25.529918795267125 F300
G1 X31.907718666250876 Y25.54074491607566 F300
G1 X31.767808000000002 Y25.544562999999997 F300
G1 X31.6462364793469 Y25.546316572566866 F300
G1 X31.551088765904034 Y25.551963011632505 F300
G1 X31.477044265625 Y25.561666281249998 F300
G1 X31.421725845758015 Y25.57455552411058 F300
G1 X31.377116289578453 Y25.59114095288323 F300
G1 X31.341031007922744 Y25.611476094032795 F300
G1 X31.311708375000002 Y25.635781749999996 F300
G1 X31.287402676231363 Y25.66510433363913 F300
G1 X31.267067452891517 Y25.701189614959684 F300
G1 X31.250481913948164 Y25.74579924451654 F300
G1 X31.237592546875 Y25.801117843749992 F300
G1 X31.227889159649155 Y25.87516257651879 F300
G1 X31.222242618012718 Y25.97031073292642 F300
G1 X31.220489 Y26.091882999999996 F300
G1 X31.216683784910607 Y26.233847385773334 F300
G1 X31.205824401925863 Y26.341700990634212 F300
G1 X31.188957148148155 Y26.422976962962966 F300
G1 X31.168012078925063 Y26.482113254228334 F300
G1 X31.142380184353257 Y26.52826848714158 F300
G1 X31.111996718545278 Y26.564185834693163 F300
G1 X31.076340851851853 Y26.591902703703703 F300
G1 X31.035892502238855 Y26.612172755074667 F300
G1 X30.987037984046403 Y26.626959044583 F300
G1 X30.927746856628577 Y26.636080488154526 F300
G1 X30.855609 Y26.639201999999997 F300
G1 X30.783472228188746 Y26.636080505841157 F300
G1 X30.72418166504593 Y26.626959093042803 F300
G1 X30.675327338437608 Y26.612172810326403 F300
G1 X30.634878925925932 Y26.591902703703706 F300
G1 X30.599222997154843 Y26.564185842080597 F300
G1 X30.568839337306628 Y26.52826849188151 F300
G1 X30.543207155561877 Y26.482113252090528 F300
G1 X30.522261740740745 Y26.42297696296296 F300
G1 X30.505394092943025 Y26.341700973095662 F300
G1 X30.494534369756366 Y26.233847372264535 F300
G1 X30.490729 Y26.091882999999996 F300
G1 X30.48897542736213 Y25.970311230228965 F300
G1 X30.4833289881854 Y25.875163328445282 F300
G1 X30.47362571875 Y25.801118687499994 F300
G1 X30.460736473050115 Y25.745800154592885 F300
G1 X30.44415104189823 Y25.70119051575664 F300
G1 X30.423815900857655 Y25.665105174806293 F300
G1 X30.399510250000002 Y25.635782499999998 F300
G1 X30.370187660557857 Y25.611476758231873 F300
G1 X30.334102376494243 Y25.59114150413628 F300
G1 X30.289492748509485 Y25.574555943778698 F300
G1 X30.234174156250006 Y25.561666562499994 F300
G1 X30.16012942365488 Y25.551963164890388 F300
G1 X30.064981267417124 Y25.546316618759093 F300
G1 X29.943409000000003 Y25.544562999999997 F300
G1 X29.803498661801058 Y25.54074491897501 F300
G1 X29.69640635629493 Y25.529918801214134 F300
G1 X29.61510011111112 Y25.513179962962965 F300
G1 X29.555690266250565 Y25.49251974792886 F300
G1 X29.50916234533853 Y25.46739304791573 F300
G1 X29.47285989208951 Y25.43782081377827 F300
G1 X29.44478122222223 Y25.403405370370372 F300
G1 X29.423903267387658 Y25.364061129172935 F300
G1 X29.4087009304636 Y25.31696273366085 F300
G1 X29.399313112143048 Y25.260271998096716 F300
G1 X29.396089000000003 Y25.191800999999998 F300
G1 X29.3995061161483 Y25.129356481821098 F300
G1 X29.409399377325805 Y25.074640161135616 F300
G1 X29.42539965658293 Y25.026429865471044 F300
G1 X29.44739862962964 Y24.983680333333332 F300
G1 X29.47600147445881 Y24.945060690389848 F300
G1 X29.511885037432137 Y24.910165858544005 F300
G1 X29.556142037390117 Y24.8786713351812 F300
G1 X29.610199370370374 Y24.850479666666665 F300
G1 X29.685687351675078 Y24.82260591134159 F300
G1 X29.780225318332135 Y24.799288029357676 F300
G1 X29.897799000000003 Y24.781311 F300
G1 X29.995860461372896 Y24.767425375362603 F300
G1 X30.077368386257486 Y24.75038806563768 F300
G1 X30.145080984375003 Y24.73018640625 F300
G1 X30.2097509335468 Y24.702756806500055 F300
G1 X30.263467321414097 Y24.670319917598626 F300
G1 X30.308288625000003 Y24.632364000000003 F300
G1 X30.34624436289789 Y24.587542525907224 F300
G1 X30.378681134600818 Y24.533825954452798 F300
G1 X30.406110703125 Y24.46915584375 F300
G1 X30.42631244407756 Y24.401443132914434 F300
G1 X30.443349966426965 Y24.319935226536963 F300
G1 X30.457236 Y24.221874 F300
G1 X30.47376411820795 Y24.11258975495023 F300
G1 X30.49521845562421 Y24.02256448578159 F300
G1 X30.52089531595758 Y23.94889067493865 F300
G1 X30.55024381498106 Y23.889001521077393 F300
G1 X30.582922500000002 Y23.840678249999996 F300
G1 X30.62453117448191 Y23.797027228779335 F300
G1 X30.67143938712812 Y23.763752341699778 F300
G1 X30.724607006354447 Y23.73990759702089 F300
G1 X30.78541355660915 Y23.72524191974289 F300
G1 X30.855609 Y23.720163 F300
G1 X30.925804065790008 Y23.725241918463848 F300
G1 X30.986610173355615 Y23.73990758931796 F300
G1 X31.039777344293913 Y23.763752324214817 F300
G1 X31.086685149848257 Y23.797027208000515 F300
G1 X31.1282935 Y23.840678249999996 F300
G1 X31.16097192429675 Y23.889001441877284 F300
G1 X31.190320336557054 Y23.948890558356396 F300
G1 X31.215997325099515 Y24.02256437493634 F300
G1 X31.237452076809483 Y24.112589686868233 F300
G1 X31.253981 Y24.221874 F300
G1 X31.253981000000003 Y24.221874 F300
M2
