G21
G90;svg#svg5 > g#layer1 > path#path104
G0 X8.6392473 Y7.272663999999999
G1 X8.08798875889213 Y7.840335174927113 F300
G1 X7.861727593492027 Y8.07886911858564 F300
G1 X7.686255273177841 Y8.26934690962099 F300
G1 X7.5296484542020625 Y8.447434920630375 F300
G1 X7.4159879921282785 Y8.58637723323615 F300
G1 X7.320278697761007 Y8.717519034087855 F300
G1 X7.259128065014577 Y8.818104174927115 F300
G1 X7.2272179586060386 Y8.885109638078168 F300
G1 X7.207636257384408 Y8.941985028271638 F300
G1 X7.197616641107873 Y8.991205763848397 F300
G1 X7.195204043948699 Y9.041166611858007 F300
G1 X7.200753882643095 Y9.087663565102577 F300
G1 X7.213394869679299 Y9.132360029154519 F300
G1 X7.243649941707395 Y9.197553856192142 F300
G1 X7.2884039 Y9.268245 F300
G1 X7.412866136800001 Y9.447877696000003 F300
G1 X7.6086440184 Y9.730695368000001 F300
G1 X7.8565287416 Y10.088937792 F300
G1 X8.1373115032 Y10.494844744000002 F300
G1 X8.4317835 Y10.920656000000001 F300
G1 X9.3254615 Y12.213107999999998 F300
G1 X8.9950153 Y13.151592 F300
G1 X8.757996830452672 Y13.825513241426611 F300
G1 X8.653888427096009 Y14.111661780301922 F300
G1 X8.562957173251029 Y14.346208227709191 F300
G1 X8.499977535992326 Y14.495772164908729 F300
G1 X8.44022754809138 Y14.625396590857402 F300
G1 X8.382643155555558 Y14.737740851851854 F300
G1 X8.319118195076017 Y14.846882066382427 F300
G1 X8.255143159789512 Y14.941651891510201 F300
G1 X8.189801604526751 Y15.024175006858709 F300
G1 X8.11776031940056 Y15.100715350076333 F300
G1 X8.04064682915608 Y15.168767411510347 F300
G1 X7.957179347325103 Y15.229574585733882 F300
G1 X7.868557160155779 Y15.28284634079079 F300
G1 X7.769348533250912 Y15.332106922172644 F300
G1 X7.65752321111111 Y15.378003481481482 F300
G1 X7.543208772201246 Y15.417340320609004 F300
G1 X7.412767552056614 Y15.455636615175674 F300
G1 X7.263580023045267 Y15.493525587105623 F300
G1 X7.030732360975214 Y15.544820276816601 F300
G1 X6.748096610288065 Y15.600204795610424 F300
G1 X6.083819799999999 Y15.722104999999999 F300
G1 X4.084177 Y16.08989 F300
G1 X4.0334029 Y18.393631 F300
G1 X4.011460971467764 Y19.171018555555555 F300
G1 X4.002758375558872 Y19.49794946291907 F300
G1 X4.000041656927298 Y19.76062625925926 F300
G1 X4.002876683130814 Y19.929096264944697 F300
G1 X4.010347126575013 Y20.071891141817144 F300
G1 X4.022477962962964 Y20.19287366666667 F300
G1 X4.042659317339225 Y20.312670489283846 F300
G1 X4.0692426338942385 Y20.413258225858435 F300
G1 X4.102102896159122 Y20.498180333333337 F300
G1 X4.1339815287057755 Y20.55874218324399 F300
G1 X4.170951413623479 Y20.613126131801902 F300
G1 X4.213497627389006 Y20.662267550783206 F300
G1 X4.2622494631001375 Y20.706965814814815 F300
G1 X4.3341024698769175 Y20.75822882918044 F300
G1 X4.421057340406048 Y20.805555682204954 F300
G1 X4.52625067037037 Y20.849649666666668 F300
G1 X4.634670721959175 Y20.885772633113447 F300
G1 X4.763884355469887 Y20.92117822195148 F300
G1 X4.917439524554185 Y20.956651444444446 F300
G1 X5.158342369008363 Y21.004476072376946 F300
G1 X5.45914903223594 Y21.058390703703704 F300
G1 X6.174712200000002 Y21.185287 F300
G1 X6.6763868672000015 Y21.279508672000006 F300
G1 X7.141085881600001 Y21.369730935999996 F300
G1 X7.538048342400001 Y21.449752864 F300
G1 X7.836513348800001 Y21.513373528000002 F300
G1 X8.00572 Y21.554392 F300
G1 X8.035061067100443 Y21.568528687650105 F300
G1 X8.074394131736907 Y21.59980404079876 F300
G1 X8.126264506400002 Y21.654555336000005 F300
G1 X8.199166276746496 Y21.748278125268985 F300
G1 X8.289387907200002 Y21.882675728000002 F300
G1 X8.379506194467547 Y22.0318976635538 F300
G1 X8.480296544799998 Y22.213144552000003 F300
G1 X8.579821265970965 Y22.405313117094217 F300
G1 X8.684196761599999 Y22.620353184000002 F300
G1 X8.785556188568943 Y22.84283018984422 F300
G1 X8.8862949 Y23.078693 F300
G1 X9.4810402 Y24.519205 F300
G1 X8.2636741 Y26.265268 F300
G1 X7.0463079 Y28.011331 F300
G1 X8.686046 Y29.677789 F300
G1 X10.325784 Y31.344245700000002 F300
G1 X12.17647 Y30.112051 F300
G1 X14.027155 Y28.879857 F300
G1 X15.236379000000001 Y29.380976 F300
G1 X15.627387000000006 Y29.546174240800006 F300
G1 X15.986623080000003 Y29.703833366399998 F300
G1 X16.290536760000002 Y29.8431569816 F300
G1 X16.515577560000004 Y29.953348691200006 F300
G1 X16.597825217138713 Y29.99798958912549 F300
G1 X16.638195 Y30.0236121 F300
G1 X16.661508979551098 Y30.047613857637238 F300
G1 X16.69199969032066 Y30.095384157554726 F300
G1 X16.730913687500003 Y30.175894660937498 F300
G1 X16.781866468422866 Y30.306206500993927 F300
G1 X16.840996 Y30.485911812499996 F300
G1 X16.896819471950856 Y30.680691261925467 F300
G1 X16.954662562499998 Y30.908544257812498 F300
G1 X17.00797844279868 Y31.145366672440204 F300
G1 X17.058134 Y31.3986727 F300
G1 X17.139470792 Y31.8316958808 F300
G1 X17.228767855999997 Y32.2931400584 F300
G1 X17.319030823999995 Y32.7477752056 F300
G1 X17.403265328 Y33.16037129520001 F300
G1 X17.474477 Y33.4956983 F300
G1 X17.663472 Y34.3591804 F300
G1 X19.921559 Y34.3591804 F300
G1 X20.699792159122083 Y34.3626883138546 F300
G1 X21.028510986291952 Y34.361994046491056 F300
G1 X21.294434717421122 Y34.35553996268862 F300
G1 X21.465099157697214 Y34.345582748557014 F300
G1 X21.61079128921293 Y34.33084978863584 F300
G1 X21.735216296296297 Y34.31122720740742 F300
G1 X21.857613666916656 Y34.28232760596923 F300
G1 X21.962094686493618 Y34.24639624713014 F300
G1 X22.051866517146774 Y34.203241908916326 F300
G1 X22.114949877484865 Y34.16330952544689 F300
G1 X22.17251888291206 Y34.11745708936404 F300
G1 X22.225350683391778 Y34.06499341864467 F300
G1 X22.27411500137174 Y34.00507592812072 F300
G1 X22.32987633912674 Y33.91877130380405 F300
G1 X22.382196586424485 Y33.814993248876746 F300
G1 X22.43169137037037 Y33.69022112592593 F300
G1 X22.47276749391345 Y33.56235603099242 F300
G1 X22.513386674753434 Y33.41096673607593 F300
G1 X22.554325245541836 Y33.23216936323732 F300
G1 X22.609803393318604 Y32.95206767071507 F300
G1 X22.67174624828532 Y32.604412500960215 F300
G1 X22.813684 Y31.7804424 F300
G1 X23.124067999999998 Y30.019740499999997 F300
G1 X24.554232 Y29.443239 F300
G1 X25.984399 Y28.866739 F300
G1 X27.558683 Y29.992812 F300
G1 X28.068310544000003 Y30.352897909600006 F300
G1 X28.537601912 Y30.6762090128 F300
G1 X28.935707407999995 Y30.9421382712 F300
G1 X29.231777336 Y31.1300786464 F300
G1 X29.34213624175458 Y31.193916032334425 F300
G1 X29.394962 Y31.2194231 F300
G1 X29.41660251845295 Y31.222837039018255 F300
G1 X29.44896618232075 Y31.21808549427461 F300
G1 X29.4959744668147 Y31.20166752536837 F300
G1 X29.561831881 Y31.1691854403 F300
G1 X29.686800902087857 Y31.09222169099214 F300
G1 X29.85706528800001 Y30.970553982400006 F300
G1 X30.03616073781363 Y30.830719758585385 F300
G1 X30.246290566999996 Y30.656677138099994 F300
G1 X30.46185976513721 Y30.470011797682055 F300
G1 X30.695136064000007 Y30.260703319200005 F300
G1 X30.929819808509585 Y30.04356096956524 F300
G1 X31.169230125 Y29.8157809375 F300
G1 X31.40590549374146 Y29.5844299065354 F300
G1 X31.634201096 Y29.3550584048 F300
G1 X31.85542479186155 Y29.126079907752352 F300
G1 X32.055677323 Y28.9116841329 F300
G1 X32.244015803107594 Y28.70154207701319 F300
G1 X32.399287152 Y28.518806533600003 F300
G1 X32.537130132638836 Y28.343661084520708 F300
G1 X32.630658929 Y28.209574018699996 F300
G1 X32.68270363005444 Y28.119495326419788 F300
G1 X32.708364729593534 Y28.057619282652198 F300
G1 X32.715421 Y28.017135 F300
G1 X32.711104267254925 Y27.987662606143964 F300
G1 X32.694528774812454 Y27.93596438502386 F300
G1 X32.659576472000005 Y27.853568208000006 F300
G1 X32.59741813369655 Y27.727459393602448 F300
G1 X32.504258856 Y27.555385224 F300
G1 X32.39852508620042 Y27.37149057645839 F300
G1 X32.267792104 Y27.153711935999997 F300
G1 X32.12738187231572 Y26.927798755841415 F300
G1 X31.968500168000006 Y26.679674231999996 F300
G1 X31.802480141824965 Y26.427433426235126 F300
G1 X31.624707 Y26.164398 F300
G1 X31.28091383200001 Y25.652908304000004 F300
G1 X30.981621896000007 Y25.189401951999997 F300
G1 X30.745155144 Y24.803762447999993 F300
G1 X30.651657809257387 Y24.641328031857824 F300
G1 X30.589837528000004 Y24.525873296 F300
G1 X30.544027334183653 Y24.42549541352474 F300
G1 X30.533993000000002 Y24.385618 F300
G1 X30.539907847178057 Y24.346662816540224 F300
G1 X30.56502624000001 Y24.258799864000007 F300
G1 X30.599579502357695 Y24.157662663098172 F300
G1 X30.651337480000002 Y24.018282832000004 F300
G1 X30.782744 Y23.689541367999997 F300
G1 X30.949063080000002 Y23.298049935999998 F300
G1 X31.140112000000002 Y22.869283 F300
G1 X31.74623 Y21.539243 F300
G1 X33.632184 Y21.21389 F300
G1 X33.94240385747341 Y21.15831363472222 F300
G1 X34.23865490400001 Y21.101364984 F300
G1 X34.527637918233836 Y21.041947794897382 F300
G1 X34.789583952 Y20.984349472 F300
G1 X35.03953500416845 Y20.925305159293433 F300
G1 X35.24934424799999 Y20.871581768 F300
G1 X35.44241799882765 Y20.816963281141977 F300
G1 X35.582308896 Y20.771800176 F300
G1 X35.669819057421975 Y20.738412898047976 F300
G1 X35.72369767683011 Y20.71281191982658 F300
G1 X35.752851 Y20.693742999999998 F300
G1 X35.77301882774253 Y20.671841461501586 F300
G1 X35.79449746798998 Y20.63642337464506 F300
G1 X35.81724832822768 Y20.583784055728735 F300
G1 X35.841004807000004 Y20.509945748 F300
G1 X35.876064367515376 Y20.358584528092607 F300
G1 X35.90985269600001 Y20.150194584 F300
G1 X35.936339648907634 Y19.924828712695952 F300
G1 X35.959336568999994 Y19.658482396 F300
G1 X35.97658388189315 Y19.381035321714833 F300
G1 X35.989398328 Y19.078802072 F300
G1 X35.997103535621605 Y18.771150126489914 F300
G1 X35.999979875 Y18.455146499999998 F300
G1 X35.99792682502726 Y18.13914130686104 F300
G1 X35.991023112 Y17.831508567999997 F300
G1 X35.97899523777521 Y17.52929165776752 F300
G1 X35.962469941 Y17.251881163999997 F300
G1 X35.94016413455678 Y16.985567614528314 F300
G1 X35.914262264 Y16.760257175999996 F300
G1 X35.88101005753876 Y16.551915119188045 F300
G1 X35.846341983 Y16.400629491999997 F300
G1 X35.82276854253053 Y16.32681937933847 F300
G1 X35.800149604685174 Y16.274222662942307 F300
G1 X35.77876172718904 Y16.238850729504072 F300
G1 X35.758651 Y16.216990999999997 F300
G1 X35.73017648323042 Y16.19837245924424 F300
G1 X35.677203573794614 Y16.173157957828735 F300
G1 X35.590795752000005 Y16.140028351999998 F300
G1 X35.452679153220245 Y16.095047853158825 F300
G1 X35.261768456 Y16.040355416 F300
G1 X35.0542383967826 Y15.986354214973101 F300
G1 X34.806823384 Y15.926773903999996 F300
G1 X34.547474348704135 Y15.86845980333258 F300
G1 X34.261214808000005 Y15.808085527999996 F300
G1 X33.967695235686435 Y15.750010897602102 F300
G1 X33.660197000000004 Y15.693091999999996 F300
G1 X31.790584000000003 Y15.359112999999997 F300
G1 X31.169887000000003 Y13.842781999999996 F300
G1 X30.549191000000004 Y12.326452999999997 F300
G1 X31.632270000000005 Y10.715682999999999 F300
G1 X31.808849057902833 Y10.449885783995983 F300
G1 X31.973656712000015 Y10.195772128 F300
G1 X32.13148075111325 Y9.946264263677692 F300
G1 X32.27085361600001 Y9.719854744 F300
G1 X32.40073974396876 Y9.502045426922304 F300
G1 X32.505665064000006 Y9.318994095999999 F300
G1 X32.598268412239264 Y9.148226314709103 F300
G1 X32.659895408000004 Y9.024253431999998 F300
G1 X32.694831128090556 Y8.943335242153573 F300
G1 X32.71116827868058 Y8.893859330760808 F300
G1 X32.715349 Y8.866695999999997 F300
G1 X32.70941518390682 Y8.841062810754401 F300
G1 X32.685678826549754 Y8.793615369970166 F300
G1 X32.633721427000005 Y8.714420674 F300
G1 X32.54429672188437 Y8.595781830235806 F300
G1 X32.41109533600001 Y8.433081472000001 F300
G1 X32.262142287889034 Y8.260163230396866 F300
G1 X32.080855669 Y8.056853157999997 F300
G1 X31.676387368000004 Y7.619910495999998 F300
G1 X31.231075375000003 Y7.1564282499999985 F300
G1 X30.778304632000005 Y6.700581183999999 F300
G1 X30.351460081000006 Y6.286544061999999 F300
G1 X30.15281279967955 Y6.1009356401649395 F300
G1 X29.983926664000006 Y5.948491647999999 F300
G1 X29.824923370714473 Y5.8120869302648135 F300
G1 X29.709089323000004 Y5.720598705999999 F300
G1 X29.631545444985658 Y5.667302328877379 F300
G1 X29.58526142034584 Y5.643069641996557 F300
G1 X29.560333000000004 Y5.637039999999999 F300
G1 X29.52679050095501 Y5.646707067494733 F300
G1 X29.432147040000007 Y5.693457855999999 F300
G1 X29.32220963991789 Y5.755709603885321 F300
G1 X29.164740680000005 Y5.8503700479999985 F300
G1 X28.787357200000002 Y6.089264511999998 F300
G1 X28.329239880000003 Y6.391629183999999 F300
G1 X27.819632000000002 Y6.738951999999998 F300
G1 X26.226886 Y7.840861999999994 F300
G1 X25.38085 Y7.429826999999996 F300
G1 X25.20593299777819 Y7.348646698427953 F300
G1 X25.050351372660664 Y7.283535929288583 F300
G1 X24.913676666666667 Y7.233023111111109 F300
G1 X24.77348981234227 Y7.189608581767222 F300
G1 X24.659977210634842 Y7.163135657692833 F300
G1 X24.570212666666666 Y7.150580555555554 F300
G1 X24.499475498628843 Y7.149306798217449 F300
G1 X24.44808904408157 Y7.157041759196478 F300
G1 X24.411914253674947 Y7.171455919471987 F300
G1 X24.38752 Y7.1913959999999975 F300
G1 X24.36262571007666 Y7.231285265056494 F300
G1 X24.29789169907407 Y7.359347773148146 F300
G1 X24.12011025925926 Y7.7450785185185165 F300
G1 X23.869315874999995 Y8.313796374999997 F300
G1 X23.560648740740742 Y9.03070948148148 F300
G1 X23.209249050925926 Y9.861025976851849 F300
G1 X22.830257 Y10.769953999999998 F300
G1 X21.420285 Y14.175901 F300
G1 X22.598935 Y15.314595999999998 F300
G1 X22.83310373090662 Y15.548131043897504 F300
G1 X23.042700072617265 Y15.772125165183228 F300
G1 X23.229460620523202 Y15.987640633029029 F300
G1 X23.395023264000002 Y16.195653584000002 F300
G1 X23.524005701076206 Y16.372640127023136 F300
G1 X23.63936048554901 Y16.545939398088553 F300
G1 X23.741850297826097 Y16.71609534874481 F300
G1 X23.832180310456085 Y16.883632812570266 F300
G1 X23.910997112 Y17.049062111999998 F300
G1 X23.982257537180516 Y17.221704913221444 F300
G1 X24.042254888437988 Y17.3939714540368 F300
G1 X24.091370905059566 Y17.566438859798303 F300
G1 X24.129917035678474 Y17.73968781532244 F300
G1 X24.158134528 Y17.914306047999997 F300
G1 X24.17610892221601 Y18.089720616500923 F300
G1 X24.184173786703393 Y18.268441285458444 F300
G1 X24.182238419198395 Y18.45110005068159 F300
G1 X24.17015342177276 Y18.63835027374945 F300
G1 X24.147713496 Y18.830869856 F300
G1 X24.116894230187988 Y19.017561290325165 F300
G1 X24.076230030764368 Y19.210953011698457 F300
G1 X24.025320220579783 Y19.41171796574956 F300
G1 X23.96373373785071 Y19.62056410638312 F300
G1 X23.891012 Y19.838237999999997 F300
G1 X23.816302077914763 Y20.033885512669194 F300
G1 X23.732936108329696 Y20.22259114051241 F300
G1 X23.64120387871366 Y20.40449755805387 F300
G1 X23.541342194309237 Y20.579725953966882 F300
G1 X23.433538328000004 Y20.748372264 F300
G1 X23.316761621925565 Y20.91206152152475 F300
G1 X23.192598668022764 Y21.068584876077693 F300
G1 X23.061206529660822 Y21.218001560624096 F300
G1 X22.92270217051587 Y21.360339970497847 F300
G1 X22.777166384 Y21.495594431999997 F300
G1 X22.62509074170042 Y21.62336854471244 F300
G1 X22.466701533161924 Y21.74353580156128 F300
G1 X22.302066348246726 Y21.85605938997699 F300
G1 X22.131225548429583 Y21.960864828550122 F300
G1 X21.954196376 Y22.057837367999994 F300
G1 X21.77345481120939 Y22.145689299721266 F300
G1 X21.587352202533875 Y22.22529600828171 F300
G1 X21.39590079058958 Y22.296518011515104 F300
G1 X21.19909759398338 Y22.35917301941305 F300
G1 X20.996928512 Y22.413033935999998 F300
G1 X20.79410718514699 Y22.45692014332377 F300
G1 X20.586788346744367 Y22.49174564271966 F300
G1 X20.374955166869 Y22.51725992468291 F300
G1 X20.15858692794568 Y22.533165609709428 F300
G1 X19.937663 Y22.539116999999997 F300
G1 X19.72714455544388 Y22.534770262532493 F300
G1 X19.521866998672724 Y22.5204621285221 F300
G1 X19.32168097162891 Y22.496671512402212 F300
G1 X19.12644097843222 Y22.463819921969677 F300
G1 X18.936008652949248 Y22.422274083676264 F300
G1 X18.745956736305136 Y22.371080123049524 F300
G1 X18.56124146226588 Y22.311587858446636 F300
G1 X18.381762147987953 Y22.24412415937703 F300
G1 X18.20743047969273 Y22.16897138762628 F300
G1 X18.03817340877915 Y22.086370410150888 F300
G1 X17.872091141530163 Y21.99545766178572 F300
G1 X17.71168115207311 Y21.897673588949175 F300
G1 X17.556900169666523 Y21.793250140440524 F300
G1 X17.407722606619668 Y21.682386787038208 F300
G1 X17.264142962962968 Y21.56525359259259 F300
G1 X17.091969370440935 Y21.409664395427857 F300
G1 X16.929510954964275 Y21.245508871080208 F300
G1 X16.77679508778905 Y21.073118435102295 F300
G1 X16.63390301097394 Y20.892771244170095 F300
G1 X16.501017832748683 Y20.704764495867582 F300
G1 X16.378897320539053 Y20.51025615486775 F300
G1 X16.26764829183729 Y20.309514550413503 F300
G1 X16.167439248285326 Y20.10277097805212 F300
G1 X16.078755986330417 Y19.89087674297975 F300
G1 X16.001940099470566 Y19.67449851985155 F300
G1 X15.937179982207248 Y19.453844527158314 F300
G1 X15.88473737037037 Y19.2291004074074 F300
G1 X15.85206339306686 Y19.047663529761195 F300
G1 X15.82766747447291 Y18.864521819923525 F300
G1 X15.81169478082215 Y18.6797506791291 F300
G1 X15.804326828669115 Y18.49342185715824 F300
G1 X15.805783072702331 Y18.305607145404657 F300
G1 X15.816113421519718 Y18.119007314525597 F300
G1 X15.83548845553187 Y17.931708342018148 F300
G1 X15.864153453654605 Y17.74375853735649 F300
G1 X15.902398958466812 Y17.555213208815545 F300
G1 X15.95056205075446 Y17.366138805212614 F300
G1 X16.007396938094086 Y17.181479071145212 F300
G1 X16.07424197032932 Y16.996925446559594 F300
G1 X16.151492622360106 Y16.81253100727408 F300
G1 X16.239597691490296 Y16.62837017662085 F300
G1 X16.33906 Y16.444542999999992 F300
G1 X16.432165903586768 Y16.2921560491111 F300
G1 X16.543085984000005 Y16.128878632 F300
G1 X16.663063667633175 Y15.96694529463329 F300
G1 X16.793527632 Y15.803606535999997 F300
G1 X16.929904274631838 Y15.644418285033723 F300
G1 X17.069035888000002 Y15.492810423999995 F300
G1 X17.21143210055983 Y15.348501329840186 F300
G1 X17.348261696 Y15.220574007999996 F300
G1 X17.486146913697855 Y15.103598517763675 F300
G1 X17.609856 Y15.010980999999997 F300
G1 X17.760407241328164 Y14.900365053941647 F300
G1 X17.898901796875 Y14.786709109374998 F300
G1 X18.027810609435527 Y14.668600212943648 F300
G1 X18.135605374999997 Y14.557428624999998 F300
G1 X18.2018915064247 Y14.48057363833224 F300
G1 X18.254918934005758 Y14.411377395310172 F300
G1 X18.295540265625 Y14.350031828124997 F300
G1 X18.33015858701665 Y14.284698411072391 F300
G1 X18.348687151870802 Y14.232475040123656 F300
G1 X18.35428 Y14.191410999999999 F300
G1 X18.349433049221066 Y14.146567932315246 F300
G1 X18.329430933733523 Y14.058661498460976 F300
G1 X18.284350595226886 Y13.905135902327473 F300
G1 X18.201977468749998 Y13.658314515624998 F300
G1 X18.02695591141816 Y13.175270406146613 F300
G1 X17.73980325 Y12.424405375 F300
G1 X17.408372422725442 Y11.584266501574671 F300
G1 X16.95985740625 Y10.469401796874998 F300
G1 X16.467576008128283 Y9.262287710527904 F300
G1 X15.854239999999999 Y7.773021999999997 F300
G1 X15.787277311584475 Y7.61817601700229 F300
G1 X15.726301079587621 Y7.4927781664237205 F300
G1 X15.669415720000002 Y7.392567799999999 F300
G1 X15.619912376841063 Y7.319817808054219 F300
G1 X15.571085740223994 Y7.2612665421989115 F300
G1 X15.522143429481964 Y7.214964052719678 F300
G1 X15.472317840000002 Y7.179275519999997 F300
G1 X15.417335819313667 Y7.151479122709224 F300
G1 X15.357965162269577 Y7.132854975290527 F300
G1 X15.292600073169513 Y7.123389508872991 F300
G1 X15.219378199999998 Y7.123545639999998 F300
G1 X15.148841140224047 Y7.131985689483633 F300
G1 X15.068027568111159 Y7.149252852529924 F300
G1 X14.974880546585341 Y7.176692796972516 F300
G1 X14.86702864 Y7.215778639999998 F300
G1 X14.729729529199034 Y7.273390496862692 F300
G1 X14.566332856489517 Y7.349426681743733 F300
G1 X14.371700999999998 Y7.446374999999996 F300
G1 X13.675749999999997 Y7.801421999999995 F300
G1 X12.100029999999997 Y6.719231999999998 F300
G1 X11.596097039999998 Y6.3781245439999985 F300
G1 X11.143468399999996 Y6.081170991999998 F300
G1 X10.771008639999994 Y5.846551967999998 F300
G1 X10.615761020297919 Y5.753566741690703 F300
G1 X10.507582319999997 Y5.692448095999999 F300
G1 X10.414578397723885 Y5.646485180319608 F300
G1 X10.382053999999997 Y5.637039999999999 F300
G1 X10.365758019368998 Y5.6421670019623615 F300
G1 X10.32807925000382 Y5.665295886890153 F300
G1 X10.255255656 Y5.720783872 F300
G1 X10.146026459056692 Y5.812852632644651 F300
G1 X9.988292607999997 Y5.953696575999999 F300
G1 X9.610444831999995 Y6.308299743999999 F300
G1 X9.150992303999997 Y6.7571150079999995 F300
G1 X8.639214999999997 Y7.272663999999999 F300
G1 X8.6392473 Y7.272663999999999 F300
G0 X12.073967999999999 Y7.267164000000001
G1 X12.382632048748691 Y7.4738302816226865 F300
G1 X12.637281510204081 Y7.640062650145774 F300
G1 X12.877577759694075 Y7.78994876069993 F300
G1 X13.07516881632653 Y7.9043356909621 F300
G1 X13.205022937254034 Y7.972725485070635 F300
G1 X13.319575908697962 Y8.026788092501947 F300
G1 X13.421445795918366 Y8.068484615160349 F300
G1 X13.525860192265526 Y8.103448439845279 F300
G1 X13.621320856828943 Y8.12714778768726 F300
G1 X13.709928326530612 Y8.141010915451895 F300
G1 X13.799367113354561 Y8.146297532160933 F300
G1 X13.886976918002373 Y8.14264617936226 F300
G1 X13.974432285714286 Y8.130416084548106 F300
G1 X14.060677388942043 Y8.110548369511841 F300
G1 X14.151546245878059 Y8.082279447675042 F300
G1 X14.248773551020406 Y8.045201615160352 F300
G1 X14.395519493014366 Y7.979508012042288 F300
G1 X14.566768 Y7.893869000000002 F300
G1 X14.682984922005508 Y7.838492618397598 F300
G1 X14.794451999999998 Y7.793965359375001 F300
G1 X14.905017040133707 Y7.758319435277035 F300
G1 X15.002471 Y7.734958375000002 F300
G1 X15.09572614747288 Y7.721884218955264 F300
G1 X15.167830749999998 Y7.721321703125003 F300
G1 X15.212778164531144 Y7.728455671817315 F300
G1 X15.245249072047713 Y7.740819701860188 F300
G1 X15.267536999999999 Y7.757529000000005 F300
G1 X15.291145206649656 Y7.79313214872017 F300
G1 X15.350786574074077 Y7.907831032407414 F300
G1 X15.512488925925929 Y8.254370925925933 F300
G1 X15.7389995 Y8.765849375000005 F300
G1 X16.016673740740742 Y9.41096707407408 F300
G1 X16.331867092592592 Y10.158424717592597 F300
G1 X16.670934999999997 Y10.976923000000006 F300
G1 X17.930779 Y14.044510000000006 F300
G1 X16.885208000000002 Y15.067101000000005 F300
G1 X16.679945450606297 Y15.271195871384224 F300
G1 X16.506889074074078 Y15.450606537037045 F300
G1 X16.34673373735139 Y15.626399747799441 F300
G1 X16.211798259259265 Y15.785999296296305 F300
G1 X16.088653357313976 Y15.945897447821364 F300
G1 X15.983335000000002 Y16.098946000000005 F300
G1 X15.888708470407257 Y16.25536434607819 F300
G1 X15.804898740740745 Y16.415113370370378 F300
G1 X15.729963625921112 Y16.580733244078317 F300
G1 X15.659888925925928 Y16.760168129629633 F300
G1 X15.59595062317744 Y16.947741721000284 F300
G1 X15.531705000000002 Y17.159777000000005 F300
G1 X15.468662757133746 Y17.40187243988821 F300
G1 X15.41935706358386 Y17.640581975255778 F300
G1 X15.383106731453154 Y17.87595339577665 F300
G1 X15.359308550246842 Y18.108049761929074 F300
G1 X15.347434934156379 Y18.336944164609058 F300
G1 X15.347173808694336 Y18.56869197323597 F300
G1 X15.358533006107601 Y18.79650531793941 F300
G1 X15.381056218212947 Y19.020422363330084 F300
G1 X15.414350776236647 Y19.24048029698609 F300
G1 X15.458084547325104 Y19.456710390946505 F300
G1 X15.512721799981048 Y19.67177206297596 F300
G1 X15.57728088811838 Y19.882127730849803 F300
G1 X15.651456179856352 Y20.087770603761573 F300
G1 X15.734990663955768 Y20.288681337533113 F300
G1 X15.827672555555559 Y20.484823777777784 F300
G1 X15.929737560663677 Y20.676863111367243 F300
G1 X16.04022382778175 Y20.863171039955308 F300
G1 X16.158914065917276 Y21.04369059988211 F300
G1 X16.285627746487393 Y21.218344693604298 F300
G1 X16.42021767489712 Y21.38703242386832 F300
G1 X16.562455546232727 Y21.549504549078087 F300
G1 X16.711673100247598 Y21.705059058537103 F300
G1 X16.8677099012185 Y21.853596281752854 F300
G1 X17.03043403970403 Y21.994990064371517 F300
G1 X17.199738621399177 Y22.129084427983546 F300
G1 X17.374865092756682 Y22.255228611552262 F300
G1 X17.555576919807542 Y22.373225398274876 F300
G1 X17.741766404580538 Y22.4829319873531 F300
G1 X17.933347925598344 Y22.584171129360488 F300
G1 X18.130254111111114 Y22.676727888888895 F300
G1 X18.330787754558234 Y22.759711527048097 F300
G1 X18.53564723320902 Y22.83333529906057 F300
G1 X18.744785946341636 Y22.897388826195545 F300
G1 X18.958171812426897 Y22.951615819013817 F300
G1 X19.175782860082307 Y22.995710905349803 F300
G1 X19.39402200008223 Y23.02886378915887 F300
G1 X19.615582183132773 Y23.051411246731917 F300
G1 X19.840477909497412 Y23.06301990717656 F300
G1 X20.068726611736665 Y23.063295814210782 F300
G1 X20.300343584362146 Y23.05178157613169 F300
G1 X20.528547713645775 Y23.02881424861946 F300
G1 X20.759371665628965 Y22.993788609810768 F300
G1 X20.992862058887546 Y22.946174897840248 F300
G1 X21.22905185031901 Y22.88536852772266 F300
G1 X21.467955000000007 Y22.810688000000003 F300
G1 X21.69075847807215 Y22.7279043986319 F300
G1 X21.906970166635187 Y22.63394700447744 F300
G1 X22.116611588317653 Y22.52921940629245 F300
G1 X22.319676532407414 Y22.414058546296303 F300
G1 X22.51676805657008 Y22.288307310621363 F300
G1 X22.706314645560678 Y22.153162554442922 F300
G1 X22.88826366500077 Y22.00894136613306 F300
G1 X23.062527925925934 Y21.855912037037047 F300
G1 X23.229036946221747 Y21.69424284948916 F300
G1 X23.386863474273813 Y21.524957760932868 F300
G1 X23.535900445623856 Y21.348324183386797 F300
G1 X23.676000875000003 Y21.164572750000005 F300
G1 X23.80687940078223 Y20.97404768867086 F300
G1 X23.927877638595437 Y20.77769374606181 F300
G1 X24.038845825400614 Y20.575734393769974 F300
G1 X24.13958707407408 Y20.368364962962968 F300
G1 X24.229688622686133 Y20.156175344691377 F300
G1 X24.30873310754967 Y19.93987792713534 F300
G1 X24.376517047706656 Y19.719640853522986 F300
G1 X24.432778217592595 Y19.49561295370371 F300
G1 X24.476990030638415 Y19.26913312281308 F300
G1 X24.50898922517597 Y19.040077231507297 F300
G1 X24.528473867552478 Y18.80854776600142 F300
G1 X24.535066000000004 Y18.574641000000007 F300
G1 X24.531831419213525 Y18.305511242518016 F300
G1 X24.522122502904445 Y18.058978018826448 F300
G1 X24.505982805555565 Y17.832415337962974 F300
G1 X24.481302574240893 Y17.606313954527163 F300
G1 X24.44897154442786 Y17.39605496399966 F300
G1 X24.40894811111112 Y17.199449703703714 F300
G1 X24.358541889906977 Y17.0052976536426 F300
G1 X24.29879438376287 Y16.81977396229945 F300
G1 X24.229284250000003 Y16.641139625000008 F300
G1 X24.14917002314231 Y16.466998833071685 F300
G1 X24.057173385524948 Y16.294749732797754 F300
G1 X23.952313555555563 Y16.12288062962964 F300
G1 X23.8385064319434 Y15.95675347258404 F300
G1 X23.709377467826275 Y15.786337867314288 F300
G1 X23.563358361111113 Y15.610068245370377 F300
G1 X23.41110598883707 Y15.439581806286721 F300
G1 X23.239878206581334 Y15.259530170740499 F300
G1 X23.047741000000006 Y15.068098000000006 F300
G1 X21.997810000000005 Y14.046505000000007 F300
G1 X23.298455000000004 Y10.887026000000006 F300
G1 X23.64537900925927 Y10.046818805555565 F300
G1 X23.961973407407417 Y9.28489311111112 F300
G1 X24.234998250000004 Y8.632724750000008 F300
G1 X24.451213592592598 Y8.121789555555562 F300
G1 X24.597379490740742 Y7.783563361111117 F300
G1 X24.64716652517884 Y7.674092458296021 F300
G1 X24.660256000000004 Y7.649522000000005 F300
G1 X24.67083995306257 Y7.642794590706687 F300
G1 X24.693351249958656 Y7.6397451490371795 F300
G1 X24.734514953125 Y7.643314531250005 F300
G1 X24.799167682531735 Y7.657023096229914 F300
G1 X24.89149112500001 Y7.684087250000005 F300
G1 X24.990385771067846 Y7.718496558031094 F300
G1 X25.10817348437501 Y7.764385343750004 F300
G1 X25.2296538204658 Y7.816114819431908 F300
G1 X25.361551000000006 Y7.876754000000005 F300
G1 X25.495861704150595 Y7.938038103568494 F300
G1 X25.632535171875006 Y7.995279578125005 F300
G1 X25.769360495759084 Y8.04778827957788 F300
G1 X25.897153625000005 Y8.092342125000005 F300
G1 X26.02129165557123 Y8.130755811786429 F300
G1 X26.125074015625003 Y8.157925109375004 F300
G1 X26.22146340577947 Y8.176617154138853 F300
G1 X26.285964000000007 Y8.182012000000004 F300
G1 X26.31781207855357 Y8.177852444765076 F300
G1 X26.369715939241846 Y8.162426607400418 F300
G1 X26.44820862400001 Y8.130821104000006 F300
G1 X26.568077274953975 Y8.073641880399112 F300
G1 X26.728244912000005 Y7.9884464320000035 F300
G1 X26.898267302093963 Y7.891380561835362 F300
G1 X27.097461888000005 Y7.771685008000004 F300
G1 X27.303121386024674 Y7.642860018035494 F300
G1 X27.527248576000005 Y7.4973338560000045 F300
G1 X27.7541329905512 Y7.345026593840021 F300
G1 X27.988994000000005 Y7.182190000000006 F300
G1 X28.444307464000016 Y6.867046632000009 F300
G1 X28.856205312000007 Y6.592695776000007 F300
G1 X29.198187128000004 Y6.375934504000007 F300
G1 X29.34196981071097 Y6.290178194991233 F300
G1 X29.443752496000005 Y6.233559888000009 F300
G1 X29.53213328802886 Y6.191463036767088 F300
G1 X29.566401000000006 Y6.182369000000008 F300
G1 X29.584155246725615 Y6.186949636859642 F300
G1 X29.620053871953132 Y6.206224751603911 F300
G1 X29.683801816000017 Y6.25021457600001 F300
G1 X29.779552290554747 Y6.3250674025229365 F300
G1 X29.91477312800001 Y6.43891008800001 F300
G1 X30.05984187532578 Y6.566894322844033 F300
G1 X30.234536232000004 Y6.726193712000009 F300
G1 X30.61831242400001 Y7.089803624000009 F300
G1 X31.041323000000006 Y7.507478000000006 F300
G1 X32.35758800000001 Y8.832587000000007 F300
G1 X31.264005000000008 Y10.435191000000007 F300
G1 X31.08573468136329 Y10.699766961390042 F300
G1 X30.919307504000017 Y10.95307049600001 F300
G1 X30.759976712563873 Y11.202008006021146 F300
G1 X30.619228312000015 Y11.428254808000007 F300
G1 X30.48811288457587 Y11.646128401873922 F300
G1 X30.382139568000007 Y11.829640272000006 F300
G1 X30.28868120950731 Y12.001096112302703 F300
G1 X30.226413416000014 Y12.126123224000008 F300
G1 X30.19124538009068 Y12.207787055839711 F300
G1 X30.17469290547402 Y12.258336683561389 F300
G1 X30.17042200000001 Y12.286600000000007 F300
G1 X30.17823432548307 Y12.358016032546029 F300
G1 X30.20782201371743 Y12.487791850480114 F300
G1 X30.249382633960014 Y12.63296254099993 F300
G1 X30.309535443072715 Y12.820944655692738 F300
G1 X30.377895571372736 Y13.020027739825654 F300
G1 X30.459832370370385 Y13.247139296296305 F300
G1 X30.642982877914964 Y13.72745665294925 F300
G1 X30.843257048010987 Y14.222977606310021 F300
G1 X31.044924962962973 Y14.694783037037041 F300
G1 X31.143516065152266 Y14.914326415096085 F300
G1 X31.232256705075457 Y15.103953825788757 F300
G1 X31.319154220928553 Y15.279776585074465 F300
G1 X31.38952235665296 Y15.4115708532236 F300
G1 X31.45781941844225 Y15.52383550874898 F300
G1 X31.50099200000001 Y15.578715000000006 F300
G1 X31.52816425564028 Y15.599885798218505 F300
G1 X31.578887699223138 Y15.62800625697063 F300
G1 X31.66171098400002 Y15.66441260000001 F300
G1 X31.79494221543651 Y15.713490326197295 F300
G1 X31.979462352000017 Y15.77257228000001 F300
G1 X32.18034142258868 Y15.83042829429483 F300
G1 X32.42010072800001 Y15.893799960000004 F300
G1 X32.67160366850876 Y15.955379979323926 F300
G1 X32.94948073600001 Y16.018701560000007 F300
G1 X33.2345472046954 Y16.079138553015987 F300
G1 X33.53345700000001 Y16.137883000000006 F300
G1 X35.351315000000014 Y16.480883000000006 F300
G1 X35.351315000000014 Y18.462383000000006 F300
G1 X35.351315000000014 Y20.443882000000006 F300
G1 X33.359141000000015 Y20.811811000000006 F300
G1 X31.366968000000014 Y21.179714000000004 F300
G1 X30.653181000000014 Y22.850260000000006 F300
G1 X29.939394000000014 Y24.520805000000006 F300
G1 X31.147708000000016 Y26.297815000000007 F300
G1 X32.35601900000002 Y28.074824000000007 F300
G1 X31.04053700000002 Y29.399147000000006 F300
G1 X30.617894920000015 Y29.81657260160001 F300
G1 X30.234669480000004 Y30.179965860800003 F300
G1 X30.06030384107673 Y30.339179089052067 F300
G1 X29.91558668 Y30.467078259199997 F300
G1 X29.780745489708885 Y30.58086612975602 F300
G1 X29.68537252 Y30.655661278400004 F300
G1 X29.621875808368028 Y30.69966974313018 F300
G1 X29.58626036867725 Y30.718908617289152 F300
G1 X29.568753 Y30.7234664 F300
G1 X29.53392678135417 Y30.713769529777732 F300
G1 X29.438765032000006 Y30.667621849600007 F300
G1 X29.328525416264565 Y30.605950153755693 F300
G1 X29.171372936000004 Y30.512304172799997 F300
G1 X28.795688423999998 Y30.275837331199995 F300
G1 X28.340823208000003 Y29.9765452864 F300
G1 X27.835889 Y29.632752 F300
G1 X27.574508149856783 Y29.455247384938744 F300
G1 X27.320412000000008 Y29.288909160000006 F300
G1 X27.068679945336417 Y29.130214470700686 F300
G1 X26.836223800000006 Y28.989478079999998 F300
G1 X26.610343939714287 Y28.85894256655242 F300
G1 X26.415896 Y28.75279932 F300
G1 X26.23191565646001 Y28.659916253009136 F300
G1 X26.092000200000005 Y28.597213440000004 F300
G1 X26.000357810143434 Y28.56296530669015 F300
G1 X25.937532760756167 Y28.545849331146883 F300
G1 X25.897108000000003 Y28.541061 F300
G1 X25.828689762607414 Y28.547017603665676 F300
G1 X25.711402240000005 Y28.569526864000004 F300
G1 X25.580840911141113 Y28.601884948004738 F300
G1 X25.413055120000003 Y28.649294792000003 F300
G1 X25.23537370168151 Y28.704038252976996 F300
G1 X25.031624080000004 Y28.770937487999998 F300
G1 X24.821709741778207 Y28.84355245040591 F300
G1 X24.596666560000006 Y28.925027656 F300
G1 X24.369286185977003 Y29.01093421295415 F300
G1 X24.137740000000004 Y29.102138 F300
G1 X22.740594 Y29.664192 F300
G1 X22.565307 Y30.5119544 F300
G1 X22.498327984000007 Y30.846647829600006 F300
G1 X22.417607192000002 Y31.2669492688 F300
G1 X22.329938208 Y31.7364748232 F300
G1 X22.242114616000002 Y32.2188405984 F300
G1 X22.16093 Y32.6776627 F300
G1 X21.931839 Y33.995609 F300
G1 X19.961311 Y33.995609 F300
G1 X19.340199752 Y33.99275065600001 F300
G1 X18.799486296 Y33.98480080800001 F300
G1 X18.372275463999998 Y33.972697232 F300
G1 X18.091672088 Y33.95737770400001 F300
G1 X18.00349697533907 Y33.94611925504129 F300
G1 X17.990781 Y33.93978 F300
G1 X17.985885050437272 Y33.84231285487797 F300
G1 X17.968451415 Y33.6856123748 F300
G1 X17.943304903610727 Y33.511870067906386 F300
G1 X17.90714136 Y33.29336086240001 F300
G1 X17.815368884999994 Y32.8007410476 F300
G1 X17.70165204 Y32.2454685152 F300
G1 X17.574508875 Y31.66525885 F300
G1 X17.44245744 Y31.0978276368 F300
G1 X17.314015785 Y30.5808904604 F300
G1 X17.197701959999996 Y30.1521629056 F300
G1 X17.14404046611393 Y29.974086251645918 F300
G1 X17.102034014999997 Y29.849360557199997 F300
G1 X17.07116749851341 Y29.771295490484214 F300
G1 X17.0497456568379 Y29.728871293885916 F300
G1 X17.035529999999998 Y29.710199 F300
G1 X16.98040726273968 Y29.666601054135047 F300
G1 X16.890264046874996 Y29.607596093749997 F300
G1 X16.788256967947984 Y29.548282662844567 F300
G1 X16.662067874999995 Y29.480856499999994 F300
G1 X16.528563656608654 Y29.414391520530103 F300
G1 X16.382228015624996 Y29.34608515625 F300
G1 X16.232611307986915 Y29.280674985748938 F300
G1 X16.082030999999997 Y29.219386999999998 F300
G1 X15.746559999999999 Y29.086384203124993 F300
G1 X15.370675999999998 Y28.934446624999996 F300
G1 X15.000334499999997 Y28.782300734375 F300
G1 X14.681490999999998 Y28.648672999999995 F300
G1 X14.008090999999997 Y28.362306999999994 F300
G1 X12.242373999999996 Y29.542886999999993 F300
G1 X11.680165567999998 Y29.915005753600003 F300
G1 X11.179927103999997 Y30.238956756799997 F300
G1 X10.773177855999997 Y30.49490632319999 F300
G1 X10.491437071999997 Y30.663020766399995 F300
G1 X10.394592926666014 Y30.71389093994363 F300
G1 X10.366223999999995 Y30.723466399999992 F300
G1 X10.341131487840405 Y30.71243709311913 F300
G1 X10.263129362399997 Y30.654722120000002 F300
G1 X10.17325486815655 Y30.579187111213738 F300
G1 X10.042907539199996 Y30.463527103999997 F300
G1 X9.729819664799995 Y30.172438087999986 F300
G1 X9.348126873599997 Y29.80401180799999 F300
G1 X8.922090299999995 Y29.38080499999999 F300
G1 X7.588389799999995 Y28.03814299999999 F300
G1 X8.785380999999996 Y26.27283399999999 F300
G1 X9.982371999999996 Y24.507525999999988 F300
G1 X9.697882099999996 Y23.84344199999999 F300
G1 X9.589255833599998 Y23.585506223999996 F300
G1 X9.458472488799996 Y23.268066671999993 F300
G1 X9.316531227199995 Y22.91823220799999 F300
G1 X9.174431210399996 Y22.563111695999993 F300
G1 X9.043171599999996 Y22.22981399999999 F300
G1 X8.905702016406245 Y21.882175414062488 F300
G1 X8.841824240220557 Y21.73711964764897 F300
G1 X8.780902224999997 Y21.61878681249999 F300
G1 X8.735853444323599 Y21.5453844331006 F300
G1 X8.688379280409348 Y21.48014785997656 F300
G1 X8.637345702343746 Y21.42184230468749 F300
G1 X8.580984240013523 Y21.368809648547252 F300
G1 X8.517033240066075 Y21.31959041857757 F300
G1 X8.443605924999996 Y21.27353599999999 F300
G1 X8.366491373585804 Y21.233731199612293 F300
G1 X8.275681845831905 Y21.19470760916749 F300
G1 X8.168256369531246 Y21.156062007812494 F300
G1 X7.997657711689566 Y21.105339653844794 F300
G1 X7.779870512499995 Y21.051614437499993 F300
G1 X7.543012399808713 Y21.00066225011473 F300
G1 X7.247021830468745 Y20.94238739843749 F300
G1 X6.538283799999995 Y20.81057499999999 F300
G1 X5.754295256835932 Y20.670180904296863 F300
G1 X5.432546391318228 Y20.61049920790399 F300
G1 X5.183182948437494 Y20.55788067187499 F300
G1 X5.025547879853403 Y20.518016829136677 F300
G1 X4.896636770031465 Y20.478202727269764 F300
G1 X4.7915530439453065 Y20.437582884765614 F300
G1 X4.7144129550105625 Y20.40022065699389 F300
G1 X4.648894111455399 Y20.360661036242952 F300
G1 X4.593255316883196 Y20.3184733141535 F300
G1 X4.546011712499995 Y20.273196124999988 F300
G1 X4.504422785013063 Y20.22221712942355 F300
G1 X4.468732218086367 Y20.165294850674602 F300
G1 X4.438436710340133 Y20.101231387282365 F300
G1 X4.413165123242182 Y20.02862897460936 F300
G1 X4.389410156545667 Y19.929675340849254 F300
G1 X4.371575726085126 Y19.8108545335001 F300
G1 X4.359619445312495 Y19.667790015624988 F300
G1 X4.352283111838743 Y19.442942825706712 F300
G1 X4.351980847851557 Y19.154587830078114 F300
G1 X4.356855499999995 Y18.45293099999999 F300
G1 X4.3520302790123395 Y17.8173047722908 F300
G1 X4.350711402500875 Y17.549888038773226 F300
G1 X4.354226472839501 Y17.334617400548687 F300
G1 X4.361317161201698 Y17.196571044128337 F300
G1 X4.372678546017529 Y17.07915409240868 F300
G1 X4.388451866666662 Y16.979204851851847 F300
G1 X4.41231423353871 Y16.881167931456087 F300
G1 X4.442637731052524 Y16.79745770824168 F300
G1 X4.479714245679007 Y16.72540309327845 F300
G1 X4.526538039277544 Y16.659659111326864 F300
G1 X4.583652968823402 Y16.600811708837025 F300
G1 X4.653021395061724 Y16.54754809190671 F300
G1 X4.728859966438585 Y16.503017846966298 F300
G1 X4.821159710341553 Y16.460656172422166 F300
G1 X4.933381099999995 Y16.419975814814805 F300
G1 X5.113047339827583 Y16.369134419603807 F300
G1 X5.345801145679008 Y16.317022229080923 F300
G1 X5.599177871364131 Y16.268601819397986 F300
G1 X5.915289317283945 Y16.213023301783252 F300
G1 X6.666853399999996 Y16.082314999999987 F300
G1 X6.941804238309758 Y16.03058130032481 F300
G1 X7.202625827199996 Y15.976954399999991 F300
G1 X7.456391724921915 Y15.920206206568672 F300
G1 X7.684728873599995 Y15.86471011999999 F300
G1 X7.901879560383394 Y15.807053795125057 F300
G1 X8.082350446399994 Y15.754149439999987 F300
G1 X8.247415674918921 Y15.699481518400546 F300
G1 X8.364678452799996 Y15.653839639999989 F300
G1 X8.436898395188638 Y15.619338716769121 F300
G1 X8.4794763494183 Y15.59261487918669 F300
G1 X8.500900799999995 Y15.572347999999987 F300
G1 X8.536205340144736 Y15.516741632055004 F300
G1 X8.597414294101503 Y15.39990716460904 F300
G1 X8.662583834911544 Y15.26359839356193 F300
G1 X8.745344175034287 Y15.081285983539084 F300
G1 X8.927915340740736 Y14.658517444444435 F300
G1 X9.128352689163233 Y14.17363453497941 F300
G1 X9.329881118244165 Y13.668670242798344 F300
G1 X9.515725525925921 Y13.185657555555542 F300
G1 X9.669110810150887 Y12.766629460905339 F300
G1 X9.73108994588672 Y12.586121346167246 F300
G1 X9.773261868861448 Y12.453618946502045 F300
G1 X9.804220573381897 Y12.338509790062773 F300
G1 X9.811403599999995 Y12.288658999999988 F300
G1 X9.801310858388982 Y12.252033903384627 F300
G1 X9.754090735999997 Y12.15331735999999 F300
G1 X9.69097980801601 Y12.039040676585762 F300
G1 X9.595286071999995 Y11.876477719999988 F300
G1 X9.353708599999994 Y11.488225999999987 F300
G1 X9.048077311999995 Y11.01864811999999 F300
G1 X8.697111199999995 Y10.49782999999999 F300
G1 X7.583795999999995 Y8.872344999999989 F300
G1 X8.922494299999995 Y7.5246509999999915 F300
G1 X9.144299885820445 Y7.305625275292426 F300
G1 X9.356152019199998 Y7.104348279999993 F300
G1 X9.565904355789662 Y6.912969823390214 F300
G1 X9.756030933599995 Y6.747028279999991 F300
G1 X9.940749197533808 Y6.594045317291391 F300
G1 X10.095801958399996 Y6.473859239999991 F300
G1 X10.242711869836553 Y6.370302183469732 F300
G1 X10.349136008799995 Y6.30600939999999 F300
G1 X10.419980989408645 Y6.273241605997829 F300
G1 X10.463991473096042 Y6.262180635774027 F300
G1 X10.489703999999994 Y6.264646999999989 F300
G1 X10.535779606869585 Y6.286309844580127 F300
G1 X10.631145695999995 Y6.33912734399999 F300
G1 X10.886908607999995 Y6.493463991999989 F300
G1 X11.230377071999994 Y6.710814367999989 F300
G1 X11.634935423999995 Y6.974335895999989 F300
G1 X12.073967999999994 Y7.267185999999988 F300
G1 X12.073967999999999 Y7.267164000000001 F300
G0 X9.3043061 Y7.869632000000003
G1 X9.111457257002408 Y8.068483498881564 F300
G1 X8.936151125 Y8.255903234375 F300
G1 X8.770972244041287 Y8.439476331183082 F300
G1 X8.6346641 Y8.597902625 F300
G1 X8.512954400978632 Y8.74799600543636 F300
G1 X8.430956675000001 Y8.858518953125001 F300
G1 X8.383362926712069 Y8.932463258126472 F300
G1 X8.361588232251819 Y8.976806631303084 F300
G1 X8.3561405 Y9.000641000000002 F300
G1 X8.365557675771765 Y9.037445121253537 F300
G1 X8.408833228000002 Y9.131293568000006 F300
G1 X8.467141128099573 Y9.239364012434674 F300
G1 X8.555384868 Y9.391740584 F300
G1 X8.778505604 Y9.753916016000002 F300
G1 X9.06090562 Y10.189753832000001 F300
G1 X9.3852951 Y10.671188 F300
G1 X10.414449 Y12.170815999999999 F300
G1 X9.8539363 Y13.403125 F300
G1 X9.666020300000003 Y13.830223072000003 F300
G1 X9.480947484000001 Y14.275933576 F300
G1 X9.311823387999999 Y14.706863343999999 F300
G1 X9.171753548000002 Y15.089619208 F300
G1 X9.114642995245658 Y15.258858764788418 F300
G1 X9.0738435 Y15.390808 F300
G1 X8.8542633 Y16.146184 F300
G1 X7.1054703 Y16.448273 F300
G1 X6.542616414400001 Y16.547229192000003 F300
G1 X6.030389607200001 Y16.640516776 F300
G1 X5.6019871727999995 Y16.721834264 F300
G1 X5.2906064056 Y16.784880168 F300
G1 X5.1294446 Y16.823353 F300
G1 X5.103643133972894 Y16.836096331325322 F300
G1 X5.078025520894155 Y16.858954385902397 F300
G1 X5.052136243732418 Y16.895142401005675 F300
G1 X5.026043341340947 Y16.949078166070823 F300
G1 X5.000212955555556 Y17.02624270370371 F300
G1 X4.97254730232521 Y17.148150791493883 F300
G1 X4.947243967415744 Y17.31971185246053 F300
G1 X4.925964777777779 Y17.554554629629628 F300
G1 X4.913402371947054 Y17.789605371717947 F300
G1 X4.90516905047836 Y18.0815453550575 F300
G1 X4.9022126 Y18.440219 F300
G1 X4.9022126 Y19.984097 F300
G1 X5.5839093 Y20.147537 F300
G1 X5.867796956800002 Y20.211984944000005 F300
G1 X6.246807970400001 Y20.292801032 F300
G1 X6.6868436256 Y20.382995648 F300
G1 X7.153805207200001 Y20.475579176000004 F300
G1 X7.613594 Y20.563562 F300
G1 X8.9615827 Y20.816146 F300
G1 X9.268794499999998 Y21.725074 F300
G1 X9.32326684754639 Y21.88024998374747 F300
G1 X9.390530888 Y22.060690176 F300
G1 X9.54409226 Y22.446720128000003 F300
G1 X9.716146087999999 Y22.851775791999998 F300
G1 X9.893359843999999 Y23.244469104000004 F300
G1 X10.062400999999998 Y23.593412 F300
G1 X10.548796999999997 Y24.552822 F300
G1 X9.452468699999997 Y26.124117 F300
G1 X9.106906055200001 Y26.629746384000008 F300
G1 X8.8060735976 Y27.089715912000006 F300
G1 X8.674482636752678 Y27.29926270628114 F300
G1 X8.5683896424 Y27.474229248 F300
G1 X8.474491398405187 Y27.636928778800787 F300
G1 X8.4122725048 Y27.753490056000004 F300
G1 X8.376524887028644 Y27.829677746423137 F300
G1 X8.360198737792548 Y27.87446612648771 F300
G1 X8.3561405 Y27.897702000000002 F300
G1 X8.361544030310158 Y27.928611474843425 F300
G1 X8.381101962273377 Y27.975653147545966 F300
G1 X8.42056678600823 Y28.04379581207133 F300
G1 X8.491389272167236 Y28.145019010009175 F300
G1 X8.594942862139918 Y28.27605190397805 F300
G1 X8.711253405677287 Y28.412176733825845 F300
G1 X8.850914555555557 Y28.566874259259265 F300
G1 X8.998866639456885 Y28.72378059620673 F300
G1 X9.160127693415639 Y28.888666861454055 F300
G1 X9.32582162148759 Y29.05253621448903 F300
G1 X9.49422810288066 Y29.21383369410151 F300
G1 X9.663604827625916 Y29.370746719162227 F300
G1 X9.824861611111112 Y29.514778740740745 F300
G1 X9.983756103540617 Y29.65066115637427 F300
G1 X10.123674045267492 Y29.763905984910842 F300
G1 X10.258216428724236 Y29.864626521403117 F300
G1 X10.36231123251029 Y29.933619410150897 F300
G1 X10.432153390201965 Y29.971946800910544 F300
G1 X10.480543382061036 Y29.991030292161675 F300
G1 X10.512419000000001 Y29.996323000000004 F300
G1 X10.539316643418983 Y29.99210100938732 F300
G1 X10.588397767075385 Y29.97557569593265 F300
G1 X10.668805560000004 Y29.940181392000014 F300
G1 X10.791905725277774 Y29.87780386118395 F300
G1 X10.961566600000001 Y29.784037496000003 F300
G1 X11.143408944658061 Y29.677820908333494 F300
G1 X11.359839560000001 Y29.546312704 F300
G1 X11.584800627560067 Y29.40522024882742 F300
G1 X11.832761880000001 Y29.245428408000006 F300
G1 X12.08528701631257 Y29.078585967830467 F300
G1 X12.349471000000001 Y28.899806000000005 F300
G1 X13.950429000000002 Y27.803289000000007 F300
G1 X14.812588000000002 Y28.261703000000004 F300
G1 X14.96078472806154 Y28.337900492951167 F300
G1 X15.133324648000006 Y28.42163621600001 F300
G1 X15.313108613006436 Y28.5047854866969 F300
G1 X15.506138704000001 Y28.59037032800001 F300
G1 X15.900472936000003 Y28.755137432000005 F300
G1 X16.098035901949252 Y28.832763780425132 F300
G1 X16.285770112000005 Y28.903169624000007 F300
G1 X16.469245808584223 Y28.968211121405325 F300
G1 X16.631473000000003 Y29.021699000000005 F300
G1 X17.588201 Y29.32328 F300
G1 X17.88737 Y30.8868554 F300
G1 X17.986781168000007 Y31.405640153600007 F300
G1 X18.083092784 Y31.906847148800004 F300
G1 X18.169601215999997 Y32.355694827200004 F300
G1 X18.239602832000003 Y32.717401630400005 F300
G1 X18.286394 Y32.957186 F300
G1 X18.386244 Y33.4639416 F300
G1 X19.960923 Y33.4116496 F300
G1 X21.535599 Y33.35935859999999 F300
G1 X21.930625000000003 Y31.45060879999999 F300
G1 X22.05585352800001 Y30.842349003199992 F300
G1 X22.166241224000004 Y30.300171065599994 F300
G1 X22.254916456000004 Y29.85831484639999 F300
G1 X22.315007592 Y29.55102020479999 F300
G1 X22.339643000000002 Y29.41252699999999 F300
G1 X22.34606109734657 Y29.396700222257103 F300
G1 X22.365796431207375 Y29.37517275773359 F300
G1 X22.405677875000006 Y29.345992765624988 F300
G1 X22.474101809472973 Y29.30742853036873 F300
G1 X22.57512725 Y29.260438624999992 F300
G1 X22.68693328890477 Y29.21537223191033 F300
G1 X22.82233325 Y29.16689492187499 F300
G1 X22.96485849649426 Y29.121246325762694 F300
G1 X23.121638 Y29.07639199999999 F300
G1 X23.25428784432248 Y29.037631408784943 F300
G1 X23.417808704000002 Y28.983900495999997 F300
G1 X23.588765025179082 Y28.923060354015313 F300
G1 X23.779005392000002 Y28.851203807999994 F300
G1 X23.97284366271086 Y28.774299415780774 F300
G1 X24.174574928000002 Y28.69073667199999 F300
G1 X24.376071080390226 Y28.603798666732956 F300
G1 X24.573864176 Y28.514933823999993 F300
G1 X24.767622679126546 Y28.424064707655827 F300
G1 X24.94622 Y28.336229999999993 F300
G1 X26.002801 Y27.802870999999993 F300
G1 X27.588050000000003 Y28.899596999999993 F300
G1 X27.8500767722387 Y29.07830968633809 F300
G1 X28.101930152000012 Y29.245285304000003 F300
G1 X28.35000886815759 Y29.40500186351711 F300
G1 X28.576444016000004 Y29.546226951999998 F300
G1 X28.795055746223323 Y29.677629519489066 F300
G1 X28.980296504000005 Y29.783997047999993 F300
G1 X29.154008679276878 Y29.87759816500788 F300
G1 X29.282192528000007 Y29.940170695999996 F300
G1 X29.36600271122103 Y29.975154411660718 F300
G1 X29.419534519162013 Y29.99190750176579 F300
G1 X29.450837000000003 Y29.996322999999993 F300
G1 X29.48190912606523 Y29.991129875040432 F300
G1 X29.529739155164634 Y29.9722935772526 F300
G1 X29.599457272976682 Y29.934290417009596 F300
G1 X29.703544798483424 Y29.866073209317854 F300
G1 X29.838600294924557 Y29.76645966941015 F300
G1 X29.979338690057496 Y29.65451569323144 F300
G1 X30.139426370370376 Y29.52023125925926 F300
G1 X30.302094633762593 Y29.377940639580977 F300
G1 X30.473095803840884 Y29.22300568861454 F300
G1 X30.643266518634846 Y29.063801085336753 F300
G1 X30.810768899862826 Y28.902183459533603 F300
G1 X30.973909457848357 Y28.73964702128839 F300
G1 X31.123605962962966 Y28.58516507407407 F300
G1 X31.26502763604843 Y28.43297342616709 F300
G1 X31.382767297668046 Y28.29935103429355 F300
G1 X31.487735772367937 Y28.17087652719274 F300
G1 X31.559413208504807 Y28.07214184224965 F300
G1 X31.599577192686215 Y28.005588801862878 F300
G1 X31.619305595150315 Y27.960248216099163 F300
G1 X31.624704000000005 Y27.930937999999994 F300
G1 X31.61497374575445 Y27.89760378473049 F300
G1 X31.567459664000012 Y27.801591536 F300
G1 X31.504326488335856 Y27.689837651042318 F300
G1 X31.40824883200001 Y27.529293487999993 F300
G1 X31.165854768000003 Y27.143907871999993 F300
G1 X30.859060736000007 Y26.675298703999992 F300
G1 X30.506650000000004 Y26.153329999999993 F300
G1 X29.388595000000002 Y24.520926999999993 F300
G1 X29.790595000000003 Y23.805663999999993 F300
G1 X29.8582603118254 Y23.680170789230523 F300
G1 X29.93803776000001 Y23.521992071999996 F300
G1 X30.106008440000004 Y23.163796975999993 F300
G1 X30.28095064 Y22.762198743999996 F300
G1 X30.449307960000006 Y22.348317407999993 F300
G1 X30.527710045983056 Y22.144019722446167 F300
G1 X30.597524000000003 Y21.953272999999992 F300
G1 X31.002454000000004 Y20.816145999999993 F300
G1 X32.81331 Y20.45257399999999 F300
G1 X33.39572720000001 Y20.330446135999996 F300
G1 X33.92498464 Y20.20973964799999 F300
G1 X34.366842479999995 Y20.09903319199999 F300
G1 X34.55256811008724 Y20.047726733107694 F300
G1 X34.687060880000004 Y20.006905423999992 F300
G1 X34.80114968867063 Y19.96635633050782 F300
G1 X34.8514 Y19.94193499999999 F300
G1 X34.881107890221564 Y19.91453377515964 F300
G1 X34.911934116882115 Y19.866929856203132 F300
G1 X34.943714370370365 Y19.793338699588464 F300
G1 X34.96779071340589 Y19.717168252207312 F300
G1 X34.99102120952836 Y19.622475351099535 F300
G1 X35.01295014814815 Y19.508022374485588 F300
G1 X35.038331078691655 Y19.33113345592018 F300
G1 X35.059107333333344 Y19.12504888888888 F300
G1 X35.07340058823922 Y18.91165325221808 F300
G1 X35.08218592592592 Y18.683481106995877 F300
G1 X35.08507075 Y18.452931499999988 F300
G1 X35.08218592592592 Y18.222381893004105 F300
G1 X35.07340058823921 Y17.9942097477819 F300
G1 X35.05910733333333 Y17.7808141111111 F300
G1 X35.038331078691655 Y17.5747295440798 F300
G1 X35.01295014814815 Y17.397840625514394 F300
G1 X34.991021209528355 Y17.28338764890044 F300
G1 X34.96779071340589 Y17.188694747792667 F300
G1 X34.943714370370365 Y17.11252430041151 F300
G1 X34.911934116882115 Y17.03893314379685 F300
G1 X34.88110789022157 Y16.99132922484034 F300
G1 X34.8514 Y16.96392799999999 F300
G1 X34.801174140735085 Y16.93950110265455 F300
G1 X34.687246808000005 Y16.898956327999993 F300
G1 X34.55295640434122 Y16.858133234600576 F300
G1 X34.367545584 Y16.80682822399999 F300
G1 X33.926475255999996 Y16.696122055999986 F300
G1 X33.398214752 Y16.575416191999988 F300
G1 X32.816942999999995 Y16.453288999999987 F300
G1 X31.009715999999994 Y16.089716999999986 F300
G1 X30.779429999999994 Y15.182102999999987 F300
G1 X30.736723565167047 Y15.026901400689054 F300
G1 X30.67979536 Y14.843577439999988 F300
G1 X30.615667702969763 Y14.654080392678255 F300
G1 X30.541375999999996 Y14.448662919999988 F300
G1 X30.461948180570044 Y14.241077560289236 F300
G1 X30.37691615999999 Y14.029816079999986 F300
G1 X30.28837770266616 Y13.820346510030227 F300
G1 X30.199160079999995 Y13.619493559999988 F300
G1 X30.107770458940706 Y13.424547338397572 F300
G1 X30.020851999999994 Y13.250151999999986 F300
G1 X29.492558999999993 Y12.225812999999984 F300
G1 X30.48440099999999 Y10.794728999999986 F300
G1 X30.802110751999997 Y10.331278407999989 F300
G1 X31.088401096 Y9.904176583999988 F300
G1 X31.32494246399999 Y9.541525655999985 F300
G1 X31.493405287999998 Y9.271427751999987 F300
G1 X31.55137727095336 Y9.170701823886976 F300
G1 X31.575459999999993 Y9.121984999999984 F300
G1 X31.580704237396812 Y9.09846470467299 F300
G1 X31.579117929870215 Y9.06674410954485 F300
G1 X31.568794209869637 Y9.02452911225577 F300
G1 X31.547219991769534 Y8.969423525377213 F300
G1 X31.513400883837683 Y8.90236645323653 F300
G1 X31.465347244715364 Y8.821320798428042 F300
G1 X31.40150208230452 Y8.725357721536337 F300
G1 X31.296637847690537 Y8.582413074710175 F300
G1 X31.166370444444443 Y8.419002518518505 F300
G1 X31.025994466820244 Y8.253828433552517 F300
G1 X30.8698892510288 Y8.07957284636487 F300
G1 X30.707649106494046 Y7.906830936676726 F300
G1 X30.540122674897116 Y7.736283635116585 F300
G1 X30.369895200068264 Y7.570772091577898 F300
G1 X30.205134888888878 Y7.4183498148148015 F300
G1 X30.04085336211518 Y7.274983531480184 F300
G1 X29.89299006584362 Y7.154986315500673 F300
G1 X29.748408491127915 Y7.048884138788301 F300
G1 X29.631752378600815 Y6.9754080672153504 F300
G1 X29.552969996254994 Y6.935771202594401 F300
G1 X29.493376311547674 Y6.914991415229679 F300
G1 X29.449485999999993 Y6.908829999999988 F300
G1 X29.418130117463217 Y6.912916851507436 F300
G1 X29.366059193786388 Y6.928352107839053 F300
G1 X29.28626108 Y6.960253303999989 F300
G1 X29.164225220071124 Y7.017789695726715 F300
G1 X29.000252639999996 Y7.103673791999989 F300
G1 X28.825817446716993 Y7.201470739998254 F300
G1 X28.620859959999994 Y7.322163927999989 F300
G1 X28.408931230859196 Y7.452025602998339 F300
G1 X28.177482319999996 Y7.598796175999988 F300
G1 X27.942873607206558 Y7.752371331279402 F300
G1 X27.69951899999999 Y7.916642999999986 F300
G1 X26.22844 Y8.925161 F300
G1 X25.662316 Y8.600249999999999 F300
G1 X25.513788088559515 Y8.520507608523282 F300
G1 X25.38795674200536 Y8.46332551891708 F300
G1 X25.281988764046552 Y8.425083210132167 F300
G1 X25.1931945 Y8.402542 F300
G1 X25.114821414173658 Y8.392666118810263 F300
G1 X25.050178525341963 Y8.394620783906902 F300
G1 X24.996763104453315 Y8.406411933983348 F300
G1 X24.95243754398345 Y8.426910693780917 F300
G1 X24.915578 Y8.455952 F300
G1 X24.887661592948593 Y8.493817655017603 F300
G1 X24.82825095833334 Y8.597614101851853 F300
G1 X24.763207133129058 Y8.72333188247007 F300
G1 X24.673907666666672 Y8.905147148148151 F300
G1 X24.464994875000002 Y9.351381250000001 F300
G1 X24.213959333333335 Y9.909146518518519 F300
G1 X23.933247791666666 Y10.551273064814815 F300
G1 X23.635307 Y11.250591 F300
G1 X22.53565 Y13.864615 F300
G1 X23.331578 Y14.613595 F300
G1 X23.52055734585121 Y14.798750597793909 F300
G1 X23.69717331164488 Y14.986654183256018 F300
G1 X23.861822490039867 Y15.177321473039097 F300
G1 X24.01486794992224 Y15.370791648410139 F300
G1 X24.156637783036906 Y15.567126798952525 F300
G1 X24.287423697360165 Y15.76641123461522 F300
G1 X24.407479679698014 Y15.968750665199572 F300
G1 X24.51702075 Y16.17427125 F300
G1 X24.617993632934688 Y16.38708877363356 F300
G1 X24.70831270746862 Y16.60337588396008 F300
G1 X24.788096194667542 Y16.8233148826019 F300
G1 X24.857416885305 Y17.04710560095062 F300
G1 X24.916301496955224 Y17.274963859262662 F300
G1 X24.96473022894301 Y17.507119863491063 F300
G1 X25.002636518975745 Y17.743816563902307 F300
G1 X25.029907 Y17.985308 F300
G1 X25.047993988695357 Y18.255600790581056 F300
G1 X25.053443614262008 Y18.51935780307909 F300
G1 X25.046689230400474 Y18.776778468924817 F300
G1 X25.028103645479966 Y19.028062410601805 F300
G1 X24.99799916895455 Y19.273405786555493 F300
G1 X24.956627874999995 Y19.512997531249997 F300
G1 X24.90254090182872 Y19.753548086429955 F300
G1 X24.83706443240649 Y19.98781095594941 F300
G1 X24.76036769196401 Y20.21596787055256 F300
G1 X24.67255651910098 Y20.438182036558278 F300
G1 X24.573674720353328 Y20.654593903249307 F300
G1 X24.46370575 Y20.865317 F300
G1 X24.342956368706908 Y21.069824538323832 F300
G1 X24.21132382795723 Y21.26832009424877 F300
G1 X24.06870197723329 Y21.460865601958126 F300
G1 X23.91493051761099 Y21.647486406668623 F300
G1 X23.749797701789433 Y21.82816774557034 F300
G1 X23.573043249999998 Y22.002851468750002 F300
G1 X23.390681571763814 Y22.166054087619003 F300
G1 X23.197270583165064 Y22.323073842302342 F300
G1 X22.992507477367596 Y22.473788758831024 F300
G1 X22.77605262996129 Y22.618031108204676 F300
G1 X22.547532575611854 Y22.755585300080977 F300
G1 X22.306543 Y22.886186 F300
G1 X22.091689890744327 Y22.991356825527532 F300
G1 X21.87763261369004 Y23.08604410572394 F300
G1 X21.664412561707476 Y23.170555717442383 F300
G1 X21.45205672703928 Y23.245170291917375 F300
G1 X21.24057956289782 Y23.3101367227333 F300
G1 X21.029984912000007 Y23.365673728000004 F300
G1 X20.814167405819695 Y23.413182134537717 F300
G1 X20.599770357899754 Y23.45099568565616 F300
G1 X20.3867858456653 Y23.479314982983112 F300
G1 X20.17519891777394 Y23.498307371834922 F300
G1 X19.964989878785584 Y23.508106713943192 F300
G1 X19.756136616 Y23.508813264 F300
G1 X19.546116022528942 Y23.500338014702177 F300
G1 X19.337960410778543 Y23.482706727938627 F300
G1 X19.131644143191508 Y23.455987529692596 F300
G1 X18.92714417362911 Y23.42021359958213 F300
G1 X18.72444254343719 Y23.375383416962656 F300
G1 X18.523528864 Y23.321461135999996 F300
G1 X18.325749295327096 Y23.258836705972314 F300
G1 X18.130214834323272 Y23.187257842275883 F300
G1 X17.936923476227875 Y23.10665299264325 F300
G1 X17.745885908954044 Y23.01691741941099 F300
G1 X17.557127866042006 Y22.91791395648619 F300
G1 X17.370692408 Y22.809473871999998 F300
G1 X17.191229831634217 Y22.694479778828367 F300
G1 X17.01448132769447 Y22.57038661737482 F300
G1 X16.84050708787702 Y22.43699951041117 F300
G1 X16.669388287648545 Y22.294095299391348 F300
G1 X16.501228997783073 Y22.14142361576895 F300
G1 X16.336158 Y21.978707999999997 F300
G1 X16.166596089717405 Y21.796137022269086 F300
G1 X16.00848982429766 Y21.6088082944903 F300
G1 X15.861494263898214 Y21.416991390484622 F300
G1 X15.72530629309715 Y21.22091739738068 F300
G1 X15.599665728862977 Y21.020783612244898 F300
G1 X15.482701348080948 Y20.813663518110598 F300
G1 X15.376547389320082 Y20.603410521068692 F300
G1 X15.28098138035088 Y20.39022444451687 F300
G1 X15.19582184490108 Y20.17428156519549 F300
G1 X15.12092889212828 Y19.95573926530612 F300
G1 X15.055809908394796 Y19.733269865253742 F300
G1 X15.001125056168245 Y19.509296280756534 F300
G1 X14.956748406345003 Y19.28398606769487 F300
G1 X14.922593539593576 Y19.05749535277186 F300
G1 X14.89861374052478 Y18.829973326530606 F300
G1 X14.884793358181469 Y18.601338762686854 F300
G1 X14.88118827979948 Y18.37285931131747 F300
G1 X14.887751233195896 Y18.144688419103172 F300
G1 X14.904473844405988 Y17.91697825968149 F300
G1 X14.931386524781342 Y17.689884163265305 F300
G1 X14.968406297507997 Y17.46437993441084 F300
G1 X15.01551816286904 Y17.24067242487251 F300
G1 X15.072753045207666 Y17.01891067404151 F300
G1 X15.140181542811145 Y16.79925272257629 F300
G1 X15.217913495626824 Y16.58187014285714 F300
G1 X15.30524123071003 Y16.36891037767206 F300
G1 X15.402652603873836 Y16.15930416410807 F300
G1 X15.510274319513409 Y15.95321255680328 F300
G1 X15.628274315959423 Y15.750818118770491 F300
G1 X15.756860903790088 Y15.552329632653061 F300
G1 X15.893764123322095 Y15.361328053948942 F300
G1 X16.040948696684552 Y15.175132382001289 F300
G1 X16.198664261771313 Y14.993951587814507 F300
G1 X16.36720235686953 Y14.818031790802337 F300
G1 X16.546895000000003 Y14.647661000000001 F300
G1 X16.692391482578234 Y14.512185363541269 F300
G1 X16.825191859375003 Y14.380991921875001 F300
G1 X16.949795230733038 Y14.250025029880925 F300
G1 X17.053093125000004 Y14.133591374999998 F300
G1 X17.14468663898888 Y14.020657327149435 F300
G1 X17.207080578125 Y13.933045390625 F300
G1 X17.24184107375919 Y13.873847172807231 F300
G1 X17.25894461730681 Y13.833269175834346 F300
G1 X17.263636 Y13.80694 F300
G1 X17.25513510379096 Y13.75600745880255 F300
G1 X17.2169555432006 Y13.62519545229151 F300
G1 X17.16548559134032 Y13.47256618728517 F300
G1 X17.088328610067617 Y13.257720296018029 F300
G1 X16.894876856498875 Y12.746169443275734 F300
G1 X16.653721938392188 Y12.132197806160782 F300
G1 X16.38198551164538 Y11.457460296769346 F300
G1 X16.096789232156276 Y10.763611827197597 F300
G1 X15.815254755822691 Y10.092307309541699 F300
G1 X15.55450373854245 Y9.485201655897821 F300
G1 X15.331657836213374 Y8.983949778362135 F300
G1 X15.235046338680554 Y8.776023616873514 F300
G1 X15.163838704733283 Y8.630206589030804 F300
G1 X15.098554449455662 Y8.509189104825856 F300
G1 X15.068168000000002 Y8.465627000000001 F300
G1 X15.041073635518298 Y8.443865187853739 F300
G1 X15.0056972881421 Y8.427102966063677 F300
G1 X14.9605079311252 Y8.41575065029153 F300
G1 X14.90363066666667 Y8.410836592592595 F300
G1 X14.829273426964852 Y8.414279338209653 F300
G1 X14.738687820964072 Y8.428492508307198 F300
G1 X14.630018000000003 Y8.455693740740742 F300
G1 X14.524156576050354 Y8.490182568049141 F300
G1 X14.404955872780416 Y8.536544828922064 F300
G1 X14.272034000000001 Y8.596146000000001 F300
G1 X13.640005000000002 Y8.897537 F300
G1 X12.197019000000003 Y7.9035379999999975 F300
G1 X11.958527578412431 Y7.741562551699014 F300
G1 X11.729349488000006 Y7.590229688 F300
G1 X11.503644459063498 Y7.445470821889723 F300
G1 X11.297682664000003 Y7.317476383999999 F300
G1 X11.098874847299601 Y7.198378400465257 F300
G1 X10.930473696000004 Y7.101977335999997 F300
G1 X10.772596994344553 Y7.017138419675507 F300
G1 X10.656177752000005 Y6.960431791999996 F300
G1 X10.580075584689661 Y6.928712073988082 F300
G1 X10.53155158676466 Y6.913534819675775 F300
G1 X10.503250000000003 Y6.909538999999995 F300
G1 X10.475853098775639 Y6.91368106678758 F300
G1 X10.434685655877605 Y6.928620236683305 F300
G1 X10.375657461600003 Y6.958695679999996 F300
G1 X10.287249709779156 Y7.013612961029115 F300
G1 X10.171824108800001 Y7.095412759999996 F300
G1 X10.051323681250565 Y7.188596154036237 F300
G1 X9.911892335200001 Y7.303560799999994 F300
G1 X9.769611533635697 Y7.4272210370397005 F300
G1 X9.616004534400004 Y7.567010359999995 F300
G1 X9.462099288360516 Y7.713241612829137 F300
G1 X9.304303100000004 Y7.869631999999996 F300
G1 X9.3043061 Y7.869632000000003 F300
G0 X14.183202 Y9.023133000000001
G1 X14.38467834375 Y8.908304171875 F300
G1 X14.563161749999999 Y8.814269375 F300
G1 X14.69927803125 Y8.750732390625 F300
G1 X14.750499273035656 Y8.731876725516102 F300
G1 X14.773653 Y8.727397 F300
G1 X14.781350917635617 Y8.732422206502513 F300
G1 X14.800435016024577 Y8.758384670194761 F300
G1 X14.840077323000001 Y8.827368517 F300
G1 X14.896167489229239 Y8.936178219318178 F300
G1 X14.977431264000003 Y9.103318936000003 F300
G1 X15.170173280999999 Y9.519302059 F300
G1 X15.402761832000001 Y10.039371688 F300
G1 X15.659655375 Y10.627581624999998 F300
G1 X15.925312368 Y11.247985671999999 F300
G1 X16.184191269 Y11.864637630999999 F300
G1 X16.420750536 Y12.441591304 F300
G1 X16.619448627 Y12.942900493 F300
G1 X16.764744 Y13.332619000000001 F300
G1 X16.808897218970827 Y13.467001678305849 F300
G1 X16.835738064000004 Y13.573557272000004 F300
G1 X16.846027374391706 Y13.642642821483776 F300
G1 X16.848121726582807 Y13.704655571164222 F300
G1 X16.842277632 Y13.761780696000002 F300
G1 X16.828089499218972 Y13.817270851183672 F300
G1 X16.80436948632256 Y13.873432611190129 F300
G1 X16.769466768 Y13.932142984 F300
G1 X16.728202833590256 Y13.987084929309312 F300
G1 X16.673488584959067 Y14.048802177682 F300
G1 X16.602409536000003 Y14.119497848000002 F300
G1 X16.4850878762478 Y14.22507859789032 F300
G1 X16.32621 Y14.358699000000001 F300
G1 X16.164582638108172 Y14.498937184141262 F300
G1 X16.010982096982715 Y14.646282638578642 F300
G1 X15.86521114262331 Y14.800499160010759 F300
G1 X15.72710608174458 Y14.961385824871895 F300
G1 X15.596537791015624 Y15.1287721171875 F300
G1 X15.473798488823837 Y15.30194148594354 F300
G1 X15.358796184893778 Y15.480649538714363 F300
G1 X15.251445328491135 Y15.664699134741433 F300
G1 X15.151688672361564 Y15.85391039951578 F300
G1 X15.059497703124999 Y16.048116750000002 F300
G1 X14.975530795842182 Y16.245522559446908 F300
G1 X14.899316655016845 Y16.44675268197126 F300
G1 X14.830828127926123 Y16.651601260999666 F300
G1 X14.770061447970491 Y16.859869868885934 F300
G1 X14.717036419921874 Y17.0713643203125 F300
G1 X14.662100767840819 Y17.337827387937722 F300
G1 X14.619454289899029 Y17.607231541637567 F300
G1 X14.589102343049113 Y17.87914665470383 F300
G1 X14.571100625 Y18.153146250000002 F300
G1 X14.565552236711165 Y18.42755525587438 F300
G1 X14.572437978243187 Y18.701806865563274 F300
G1 X14.591776745236148 Y18.975465694144674 F300
G1 X14.623637001953126 Y19.248093960937503 F300
G1 X14.658204839005553 Y19.465077705787813 F300
G1 X14.700758913558504 Y19.680052343803567 F300
G1 X14.751313308542382 Y19.892811390620043 F300
G1 X14.809904667202128 Y20.103145381248495 F300
G1 X14.876592234375002 Y20.310838875 F300
G1 X14.951549984525014 Y20.515904656681116 F300
G1 X15.034495146608315 Y20.71714133849497 F300
G1 X15.125479840508898 Y20.914367917596294 F300
G1 X15.224583547186672 Y21.10739325106178 F300
G1 X15.331913005859374 Y21.296012414062503 F300
G1 X15.44736436660982 Y21.479643182100762 F300
G1 X15.57089916349551 Y21.65786856396251 F300
G1 X15.702654805726423 Y21.83051440533316 F300
G1 X15.842802352215157 Y21.99738247385907 F300
G1 X15.991546 Y22.158246000000002 F300
G1 X16.149067455066156 Y22.31598062098656 F300
G1 X16.304486769711342 Y22.462478390687426 F300
G1 X16.45829465758779 Y22.598376411016194 F300
G1 X16.610955488000005 Y22.72427714400001 F300
G1 X16.769715305891374 Y22.845759915754975 F300
G1 X16.928999648254646 Y22.95810882517578 F300
G1 X17.089306633194422 Y23.061776293276274 F300
G1 X17.251128624 Y23.157182832000004 F300
G1 X17.41727670569419 Y23.24589487110413 F300
G1 X17.58679734741405 Y23.32724955513255 F300
G1 X17.7602569372255 Y23.401489813616806 F300
G1 X17.938237216 Y23.468833848000003 F300
G1 X18.118009090611 Y23.528448049855612 F300
G1 X18.30417409995827 Y23.58199432619015 F300
G1 X18.497416097332902 Y23.629530452213746 F300
G1 X18.698453072000003 Y23.671100976000005 F300
G1 X18.967016042352473 Y23.7154655568476 F300
G1 X19.25285267989091 Y23.7504320620342 F300
G1 X19.557948 Y23.775855000000004 F300
G1 X19.870574161455146 Y23.790613636942567 F300
G1 X20.167078076310183 Y23.79323022620089 F300
G1 X20.448878541986495 Y23.784131987655698 F300
G1 X20.717308656249998 Y23.763711625000003 F300
G1 X20.934693280101694 Y23.737885364649753 F300
G1 X21.145034555115338 Y23.704250132617325 F300
G1 X21.348949321085563 Y23.662866608400325 F300
G1 X21.547028406300782 Y23.613769429397344 F300
G1 X21.73983875 Y23.556965750000003 F300
G1 X21.930972520783214 Y23.491311368302142 F300
G1 X22.11850459907571 Y23.417313044842754 F300
G1 X22.302920183128524 Y23.33478883023499 F300
G1 X22.48469276982427 Y23.243523838005775 F300
G1 X22.66428646875 Y23.14326975 F300
G1 X22.837664491160123 Y23.036639490961882 F300
G1 X23.01047108266009 Y22.92045770987771 F300
G1 X23.183097105365963 Y22.794307396770467 F300
G1 X23.355938701262087 Y22.657740105491087 F300
G1 X23.5294 Y22.510276000000005 F300
G1 X23.726323453219717 Y22.329050377711745 F300
G1 X23.91125905960741 Y22.143038041760477 F300
G1 X24.08457056790256 Y21.95251621993893 F300
G1 X24.246585532023104 Y21.757722703929275 F300
G1 X24.397593839650153 Y21.55885952478135 F300
G1 X24.54084596481021 Y21.351542624742418 F300
G1 X24.67271356260987 Y21.140922427378083 F300
G1 X24.793453392183526 Y20.927186896165992 F300
G1 X24.903282733867634 Y20.71049599398608 F300
G1 X25.002378268221573 Y20.490985708454815 F300
G1 X25.09191011149702 Y20.265990105049966 F300
G1 X25.170436376418735 Y20.03906756528542 F300
G1 X25.23810750606261 Y19.810348239204057 F300
G1 X25.29503236111882 Y19.579945831182386 F300
G1 X25.341277507288627 Y19.347961822157433 F300
G1 X25.376978189412963 Y19.113626004159368 F300
G1 X25.401858637853753 Y18.878675164746287 F300
G1 X25.41596414756597 Y18.643207633035598 F300
G1 X25.41929692087092 Y18.40731673795899 F300
G1 X25.411815778425655 Y18.171095137026242 F300
G1 X25.393547809630476 Y17.935748009971327 F300
G1 X25.36447024965937 Y17.701040488587317 F300
G1 X25.324518932917695 Y17.46706247831954 F300
G1 X25.273585449580395 Y17.233910673397695 F300
G1 X25.211517303206996 Y17.001692924198256 F300
G1 X25.139188922361875 Y16.773655321114425 F300
G1 X25.055869680803077 Y16.54745477909784 F300
G1 X24.96137578608998 Y16.3231998812593 F300
G1 X24.855478806261463 Y16.10101857443281 F300
G1 X24.737906303206994 Y15.8810624548105 F300
G1 X24.611517284080904 Y15.668577848893849 F300
G1 X24.47371777740144 Y15.459101549045993 F300
G1 X24.324194451802214 Y15.252795812791833 F300
G1 X24.16259055576305 Y15.04985528725641 F300
G1 X23.988507000000002 Y14.850511000000004 F300
G1 X23.80394169339677 Y14.644872911345658 F300
G1 X23.636053984374996 Y14.450935812500003 F300
G1 X23.47797888143225 Y14.261124288722044 F300
G1 X23.347425124999997 Y14.097186750000004 F300
G1 X23.230982519621982 Y13.942055571843445 F300
G1 X23.152405453124995 Y13.827648062500007 F300
G1 X23.106980935713164 Y13.751447229830596 F300
G1 X23.086051862328155 Y13.705501906807026 F300
G1 X23.080779999999997 Y13.680704000000006 F300
G1 X23.088419954601044 Y13.636426075344243 F300
G1 X23.123208634109687 Y13.519441705484605 F300
G1 X23.240098593538686 Y13.189230883546209 F300
G1 X23.415855963936885 Y12.727896990232916 F300
G1 X23.634886830954166 Y12.173265481592795 F300
G1 X23.881597280240417 Y11.563161813673934 F300
G1 X24.14039339744552 Y10.935411442524423 F300
G1 X24.395681268219377 Y10.327839824192342 F300
G1 X24.63186697821187 Y9.778272414725777 F300
G1 X24.833356613072873 Y9.324534670172806 F300
G1 X24.984556258452287 Y9.004452046581523 F300
G1 X25.04305162682791 Y8.894971563462258 F300
G1 X25.069871999999997 Y8.855850000000004 F300
G1 X25.090969406380314 Y8.840323839087354 F300
G1 X25.12201894161635 Y8.829552891091703 F300
G1 X25.16548596875 Y8.824546859375003 F300
G1 X25.235026979350167 Y8.828489450357965 F300
G1 X25.325729499999998 Y8.845934875000005 F300
G1 X25.42036052703854 Y8.873736759874557 F300
G1 X25.528262531249997 Y8.914490203125004 F300
G1 X25.636946606782814 Y8.964008627089335 F300
G1 X25.750744999999995 Y9.024689000000002 F300
G1 X26.296225999999994 Y9.337751 F300
G1 X27.761092999999995 Y8.305430000000001 F300
G1 X28.231058696 Y7.980043224000004 F300
G1 X28.655935688 Y7.696774912000002 F300
G1 X29.008410631999997 Y7.472968088 F300
G1 X29.15649227366297 Y7.384409754751706 F300
G1 X29.261170183999994 Y7.325965776000001 F300
G1 X29.35199136696306 Y7.282467221556109 F300
G1 X29.386900999999995 Y7.273111 F300
G1 X29.4092283866028 Y7.278159161618738 F300
G1 X29.449909484753434 Y7.298156569483152 F300
G1 X29.51684135937499 Y7.341590062500001 F300
G1 X29.616693204296357 Y7.416673640633243 F300
G1 X29.75166387499999 Y7.528043000000001 F300
G1 X29.89378227050329 Y7.652823353452982 F300
G1 X30.058040703124995 Y7.803993437500001 F300
G1 X30.225429005586896 Y7.964464072367633 F300
G1 X30.402643999999995 Y8.140965000000001 F300
G1 X31.257447999999997 Y9.008819000000003 F300
G1 X30.259471999999995 Y10.499438000000001 F300
G1 X30.0969216266628 Y10.746003264528618 F300
G1 X29.944909296000002 Y10.983750664000002 F300
G1 X29.799640368437082 Y11.218252863021505 F300
G1 X29.671064127999998 Y11.433019392000004 F300
G1 X29.55157162749453 Y11.640676343034851 F300
G1 X29.45470251199999 Y11.817454088000002 F300
G1 X29.369635874361947 Y11.983572225943728 F300
G1 X29.312590463999996 Y12.107264656000003 F300
G1 X29.28096185961629 Y12.188066929778245 F300
G1 X29.265605678666923 Y12.240851467818908 F300
G1 X29.261493999999995 Y12.272661000000003 F300
G1 X29.2651405638198 Y12.312780416359113 F300
G1 X29.278181679232254 Y12.375496229195358 F300
G1 X29.303908249999996 Y12.466413296875002 F300
G1 X29.35110308457622 Y12.605927777389287 F300
G1 X29.419392749999997 Y12.785046875000004 F300
G1 X29.497237261298217 Y12.973197768826891 F300
G1 X29.590310124999995 Y13.184348765625003 F300
G1 X29.6903148717587 Y13.39890916360309 F300
G1 X29.799022999999995 Y13.620106000000003 F300
G1 X29.887432121102627 Y13.800713037847977 F300
G1 X29.979465528 Y13.999479344000008 F300
G1 X30.06926251326332 Y14.203297549922627 F300
G1 X30.157593303999995 Y14.413310592000006 F300
G1 X30.242339831645904 Y14.624353082797203 F300
G1 X30.320762215999995 Y14.829359968000002 F300
G1 X30.393935567057042 Y15.03141595863956 F300
G1 X30.456328151999998 Y15.215387696000004 F300
G1 X30.51137361668559 Y15.392387362643149 F300
G1 X30.551646999999996 Y15.539154000000003 F300
G1 X30.599523144621482 Y15.713898969081978 F300
G1 X30.651081515624995 Y15.875814515625004 F300
G1 X30.707705265908473 Y16.03038639711159 F300
G1 X30.762819124999996 Y16.161006375000003 F300
G1 X30.82179917813884 Y16.27998848610539 F300
G1 X30.873181421874996 Y16.364626546875005 F300
G1 X30.911843630281815 Y16.414275796301425 F300
G1 X30.94320010228521 Y16.44316914965557 F300
G1 X30.968489999999996 Y16.456572000000005 F300
G1 X31.122829936000006 Y16.49218246400001 F300
G1 X31.430582287999997 Y16.55315123200001 F300
G1 X31.858581071999993 Y16.633270368000005 F300
G1 X32.373660304 Y16.72633193600001 F300
G1 X32.942654 Y16.826128000000004 F300
G1 X34.715064 Y17.132471000000002 F300
G1 X34.715064 Y18.443965 F300
G1 X34.715064 Y19.75546 F300
G1 X32.851760999999996 Y20.08849 F300
G1 X32.253935144 Y20.201445112000005 F300
G1 X31.713406552000002 Y20.315034736 F300
G1 X31.468972737010528 Y20.37104215286785 F300
G1 X31.264928087999994 Y20.421044104 F300
G1 X31.077499712079742 Y20.471047652237868 F300
G1 X30.943252616 Y20.511258448000003 F300
G1 X30.830296699936657 Y20.552317155000328 F300
G1 X30.783132999999996 Y20.577463 F300
G1 X30.742253526768685 Y20.61697117748616 F300
G1 X30.694719156249995 Y20.681467875 F300
G1 X30.651033629533327 Y20.75630080936421 F300
G1 X30.605769249999994 Y20.84936975 F300
G1 X30.564836698835965 Y20.948698175398583 F300
G1 X30.526634968749995 Y21.057982000000003 F300
G1 X30.49397358188161 Y21.170346960994056 F300
G1 X30.467667999999996 Y21.284118000000003 F300
G1 X30.44352413949178 Y21.382545893739223 F300
G1 X30.400238272000003 Y21.522883208000007 F300
G1 X30.34747735578525 Y21.67406344169043 F300
G1 X30.279034336000002 Y21.855283264000004 F300
G1 X30.203560491610922 Y22.043706472403443 F300
G1 X30.116640063999995 Y22.250678616000002 F300
G1 X30.02459138444785 Y22.46094071648385 F300
G1 X29.925639328 Y22.678429712000003 F300
G1 X29.823124118452476 Y22.89532011839822 F300
G1 X29.718615999999997 Y23.107897 F300
G1 X29.517232352 Y23.517998056000003 F300
G1 X29.341916016 Y23.891886808000002 F300
G1 X29.203400704 Y24.205278231999998 F300
G1 X29.14880077691748 Y24.337983068833132 F300
G1 X29.112420128 Y24.433887304000002 F300
G1 X29.08587669890626 Y24.51721697489707 F300
G1 X29.079707999999997 Y24.553429 F300
G1 X29.08963257342508 Y24.590927580352187 F300
G1 X29.135766648 Y24.688655888000007 F300
G1 X29.197756006052472 Y24.80138241259011 F300
G1 X29.291679744 Y24.960894504000002 F300
G1 X29.529053015999995 Y25.340711776 F300
G1 X29.829492192 Y25.798674632 F300
G1 X30.174602999999998 Y26.30535 F300
G1 X31.2695 Y27.884807000000002 F300
G1 X30.408671 Y28.75878 F300
G1 X30.230365510806838 Y28.93656065410002 F300
G1 X30.062373484374994 Y29.098127109375003 F300
G1 X29.897801297636047 Y29.250403688414718 F300
G1 X29.755838625 Y29.376022875000004 F300
G1 X29.621302820918903 Y29.488239339498417 F300
G1 X29.522324703125 Y29.563790203125002 F300
G1 X29.455994325748524 Y29.60772227703516 F300
G1 X29.41633895587028 Y29.627756504458812 F300
G1 X29.39509 Y29.632752000000004 F300
G1 X29.36072776846636 Y29.622978141210144 F300
G1 X29.265091376000004 Y29.576029328000008 F300
G1 X29.154134321500237 Y29.513419214678358 F300
G1 X28.995523728000002 Y29.418269344000002 F300
G1 X28.615811391999998 Y29.178084096 F300
G1 X28.155378704000004 Y28.874085632000003 F300
G1 X27.64365 Y28.524886000000002 F300
G1 X26.044959 Y27.41702 F300
G1 X25.062781 Y27.91881 F300
G1 X24.894654746660333 Y28.002179669218854 F300
G1 X24.702007456000004 Y28.092875520000007 F300
G1 X24.502263645281975 Y28.18287023636103 F300
G1 X24.290122888000003 Y28.274791680000003 F300
G1 X23.860424992 Y28.45091088 F300
G1 X23.646954419835723 Y28.5334195701955 F300
G1 X23.446211464 Y28.60758552 F300
G1 X23.250907507209362 Y28.67585733126924 F300
G1 X23.08078 Y28.731168 F300
G1 X22.080959 Y29.041733999999998 F300
G1 X21.703719 Y30.939256399999998 F300
G1 X21.577982584000008 Y31.548406478400008 F300
G1 X21.455471912 Y32.099822627200005 F300
G1 X21.344765447999997 Y32.558000316800005 F300
G1 X21.29410584795132 Y32.749817547954315 F300
G1 X21.254441656000004 Y32.8874350176 F300
G1 X21.21545580144686 Y33.003763421172955 F300
G1 X21.193079 Y33.0526222 F300
G1 X21.170155898543474 Y33.077766211147676 F300
G1 X21.128237462716257 Y33.104531123837674 F300
G1 X21.06137930859375 Y33.132814849999995 F300
G1 X20.95161712369463 Y33.16484088435739 F300
G1 X20.80225721875 Y33.195378562500004 F300
G1 X20.64151515143494 Y33.21912475748665 F300
G1 X20.45543833203125 Y33.23904173125 F300
G1 X20.26333166469305 Y33.253282606574494 F300
G1 X20.06064825 Y33.26253275 F300
G1 X19.856938885796716 Y33.266320126595275 F300
G1 X19.65761257421875 Y33.264580012500005 F300
G1 X19.462130797866262 Y33.25698232706736 F300
G1 X19.286056906250003 Y33.2439119125 F300
G1 X19.118921906397794 Y33.22383212882967 F300
G1 X18.98570684765625 Y33.19925684375 F300
G1 X18.90126289072184 Y33.17661911349445 F300
G1 X18.839239667107524 Y33.15310794511525 F300
G1 X18.796288 Y33.1293432 F300
G1 X18.777995896670554 Y33.110128044294754 F300
G1 X18.752253926164656 Y33.066295497582466 F300
G1 X18.717066648000007 Y32.985441639200005 F300
G1 X18.670853978303978 Y32.85456808445346 F300
G1 X18.613758224000005 Y32.6656493056 F300
G1 X18.55779489838112 Y32.458162742843825 F300
G1 X18.495524776 Y32.20561464239999 F300
G1 X18.434803809780718 Y31.939284207719535 F300
G1 X18.371528352000002 Y31.6409860928 F300
G1 X18.31081606531208 Y31.33365325751781 F300
G1 X18.250931 Y31.0074121 F300
G1 X17.899888 Y29.019036999999997 F300
G1 X17.263639 Y28.860606999999998 F300
G1 X17.15027941469018 Y28.828894833684647 F300
G1 X16.992319944000002 Y28.777820840000008 F300
G1 X16.822414286848694 Y28.718031106598062 F300
G1 X16.620895832 Y28.64297964 F300
G1 X16.183277848 Y28.469525319999995 F300
G1 X15.713377176000002 Y28.270899799999995 F300
G1 X15.476017338890724 Y28.165943933685984 F300
G1 X15.245105000000002 Y28.060544999999998 F300
G1 X13.862821000000002 Y27.418912999999996 F300
G1 X12.196786000000003 Y28.565706999999996 F300
G1 X10.530753000000002 Y29.712500999999996 F300
G1 X9.603596000000003 Y28.785343999999995 F300
G1 X8.676439500000003 Y27.858185999999996 F300
G1 X9.818939400000003 Y26.209516999999998 F300
G1 X10.961440000000003 Y24.560847 F300
G1 X10.408152000000003 Y23.506532 F300
G1 X10.31630881379398 Y23.32683491538529 F300
G1 X10.217688562400006 Y23.124684208000005 F300
G1 X10.119969572656167 Y22.916185899194037 F300
G1 X10.021179443200005 Y22.697631024 F300
G1 X9.924912913497776 Y22.47707328026434 F300
G1 X9.833192032800003 Y22.259336335999997 F300
G1 X9.745828498317938 Y22.043770077385197 F300
G1 X9.668293721600005 Y21.843764032000003 F300
G1 X9.59730347123782 Y21.650170550260487 F300
G1 X9.541051900000003 Y21.484878000000002 F300
G1 X9.472978619608702 Y21.287066947045663 F300
G1 X9.402766510937502 Y21.10409215625 F300
G1 X9.328335598895265 Y20.929576262378582 F300
G1 X9.258228062500002 Y20.782387 F300
G1 X9.185546974679152 Y20.648448743797726 F300
G1 X9.124568982812502 Y20.553660093750004 F300
G1 X9.079729046502523 Y20.49766832913894 F300
G1 X9.045163831121865 Y20.46592388201406 F300
G1 X9.018921700000003 Y20.451809 F300
G1 X8.862512835200006 Y20.415406752000006 F300
G1 X8.552959437600004 Y20.353747336 F300
G1 X8.123537742400003 Y20.273081744 F300
G1 X7.607523984800004 Y20.179660968 F300
G1 X7.038194400000004 Y20.079736 F300
G1 X5.265784200000004 Y19.773393000000002 F300
G1 X5.265784200000004 Y18.450332000000003 F300
G1 X5.265784200000004 Y17.127272000000005 F300
G1 X7.067937400000004 Y16.810714000000004 F300
G1 X7.644014428800007 Y16.70523506400001 F300
G1 X8.160881446400007 Y16.602518912000004 F300
G1 X8.585624809600004 Y16.509753928000002 F300
G1 X8.761676404313947 Y16.467196951976902 F300
G1 X8.885330875200006 Y16.434128496000007 F300
G1 X8.98863193604188 Y16.401053548289653 F300
G1 X9.027086000000004 Y16.382831000000003 F300
G1 X9.046690337855365 Y16.36361466197457 F300
G1 X9.075076161575115 Y16.323367643693096 F300
G1 X9.114484865625004 Y16.253540343750004 F300
G1 X9.16901792327474 Y16.14064536216862 F300
G1 X9.236395375000004 Y15.983808250000004 F300
G1 X9.303482864086076 Y15.813258395981173 F300
G1 X9.376671396875004 Y15.613077031250004 F300
G1 X9.44787141993979 Y15.404523857363916 F300
G1 X9.519166800000004 Y15.180789000000004 F300
G1 X9.577890450477312 Y14.996630453349688 F300
G1 X9.646932056000006 Y14.793094904000009 F300
G1 X9.720770677006245 Y14.585983271805219 F300
G1 X9.800474680000006 Y14.371703512000005 F300
G1 X9.966898296000005 Y13.949343768000006 F300
G1 X10.052064421146412 Y13.745319782883737 F300
G1 X10.133306528000006 Y13.558744616000006 F300
G1 X10.214626558449394 Y13.381012246778692 F300
G1 X10.286803000000004 Y13.232635000000005 F300
G1 X10.374369353317105 Y13.054791467305993 F300
G1 X10.454754578125002 Y12.883485640625006 F300
G1 X10.529719316753003 Y12.715384130588339 F300
G1 X10.592292625000004 Y12.566676375000004 F300
G1 X10.64733085492026 Y12.42562255412927 F300
G1 X10.685223859375004 Y12.317087921875007 F300
G1 X10.712400094917447 Y12.220098783955319 F300
G1 X10.719355000000004 Y12.169601000000007 F300
G1 X10.715534318140532 Y12.146192514106138 F300
G1 X10.700503519709171 Y12.10313500044949 F300
G1 X10.668164103200006 Y12.032157384000012 F300
G1 X10.611319737586317 Y11.923619072179276 F300
G1 X10.525789425600003 Y11.773711672000006 F300
G1 X10.428963188520205 Y11.613014996767584 F300
G1 X10.309027986400004 Y11.421552968000004 F300
G1 X10.034676804800004 Y11.002970376000007 F300
G1 X9.719532900000004 Y10.545253000000006 F300
G1 X9.404389552800005 Y10.090492264000009 F300
G1 X9.130038746400004 Y9.680131672000007 F300
G1 X8.913277533600004 Y9.340490248000005 F300
G1 X8.827465636432658 Y9.19811575997112 F300
G1 X8.770902967200005 Y9.097887016000007 F300
G1 X8.72867735181567 Y9.011132029042772 F300
G1 X8.719712100000004 Y8.978641000000007 F300
G1 X8.724519097151767 Y8.957981884236823 F300
G1 X8.74385284920888 Y8.919061394631361 F300
G1 X8.786312351562504 Y8.853609281250007 F300
G1 X8.859276754384748 Y8.75575331511319 F300
G1 X8.967649637500005 Y8.622488000000008 F300
G1 X9.088970205121104 Y8.481666569942742 F300
G1 X9.236028754687503 Y8.318245468750007 F300
G1 X9.392067703615318 Y8.151253108798494 F300
G1 X9.563754500000003 Y7.973850000000006 F300
G1 X10.407797000000004 Y7.116923000000007 F300
G1 X12.045179000000005 Y8.217895000000006 F300
G1 X12.64744000583091 Y8.62064066763849 F300
G1 X12.8958203050498 Y8.78259682351632 F300
G1 X13.090511373177845 Y8.904791892128285 F300
G1 X13.271229339415584 Y9.010889326906629 F300
G1 X13.410541055393589 Y9.083963005830908 F300
G1 X13.501541930090019 Y9.124955426705899 F300
G1 X13.578224840069092 Y9.15340370147561 F300
G1 X13.643677005830908 Y9.171768341107878 F300
G1 X13.7104571319275 Y9.18332701632136 F300
G1 X13.77052251849547 Y9.18624326695661 F300
G1 X13.826067177842571 Y9.181822230320705 F300
G1 X13.880813719629433 Y9.17052327487837 F300
G1 X13.936195320551105 Y9.152481477369111 F300
G1 X13.993859524781344 Y9.12773900583091 F300
G1 X14.08048683775615 Y9.082628167155105 F300
G1 X14.183202000000005 Y9.023133000000005 F300
G1 X14.183202 Y9.023133000000001 F300
M2
