G21
G90;svg#svg5 > g#layer1 > path#path141
G0 X29.715667 Y0.02643799999999885
G1 X30.05380166155115 Y0.05765938283748555 F300
G1 X30.389199869888383 Y0.09974691117422292 F300
G1 X30.72193116608071 Y0.1526433568135805 F300
G1 X31.05206206661939 Y0.2163143913117112 F300
G1 X31.379655083572196 Y0.2907484209039817 F300
G1 X31.70476775 Y0.37595637499999945 F300
G1 X32.02655073356658 Y0.47168723496505216 F300
G1 X32.34564591432311 Y0.578107881790958 F300
G1 X32.66210016966964 Y0.6952630646924228 F300
G1 X32.97595306289382 Y0.8232190602414361 F300
G1 X33.28723593196 Y0.9620633068650544 F300
G1 X33.595971 Y1.1119039999999956 F300
G1 X33.75214571712788 Y1.1930907799551351 F300
G1 X33.91480543055555 Y1.281919342592589 F300
G1 X34.234968444444455 Y1.4678177407407365 F300
G1 X34.530016124999996 Y1.6523842499999954 F300
G1 X34.6633857392651 Y1.741195014983358 F300
G1 X34.77350455555556 Y1.8184039259259213 F300
G1 X34.872529594671086 Y1.8929271812399802 F300
G1 X34.938989819444444 Y1.9486618240740703 F300
G1 X34.97800358062479 Y1.9875632789477589 F300
G1 X34.995613597715405 Y2.011778895946741 F300
G1 X35.000028 Y2.0259429999999976 F300
G1 X34.99173517895061 Y2.0424604971882134 F300
G1 X34.94683381481482 Y2.1017108518518492 F300
G1 X34.807378518518526 Y2.264709814814812 F300
G1 X34.611853 Y2.479652999999999 F300
G1 X34.34410671469891 Y2.7643229099548514 F300
G1 X34.076388328000014 Y3.043731535999999 F300
G1 X33.808107149740266 Y3.318623729515694 F300
G1 X33.547115944000005 Y3.581104407999998 F300
G1 X33.28801232756957 Y3.8366416090755378 F300
G1 X33.043359495999994 Y4.0729065119999985 F300
G1 X32.80301939256648 Y4.2996118467059805 F300
G1 X32.584442632000005 Y4.500272744 F300
G1 X32.37241781555906 Y4.688619476519202 F300
G1 X32.189689 Y4.8443380000000005 F300
G1 X31.893889 Y5.090229999999998 F300
G1 X32.135213 Y5.18515 F300
G1 X32.33199583153719 Y5.266765254250968 F300
G1 X32.513086499770495 Y5.350385611890133 F300
G1 X32.67957207151401 Y5.436078629774178 F300
G1 X32.83247533418467 Y5.523912549131655 F300
G1 X32.972755515625 Y5.613961984375002 F300
G1 X33.11233807949719 Y5.714746029253228 F300
G1 X33.239677050197606 Y5.818939582581117 F300
G1 X33.35560520380041 Y5.926782768948756 F300
G1 X33.4608703932187 Y6.038553518984038 F300
G1 X33.556135125 Y6.154572625000002 F300
G1 X33.643664725057974 Y6.277768113702309 F300
G1 X33.722224666712215 Y6.406804633019639 F300
G1 X33.79211869112782 Y6.542247205815572 F300
G1 X33.85356623618823 Y6.6847180272247515 F300
G1 X33.906705921875 Y6.834897953125001 F300
G1 X33.94944530924465 Y6.9849666390650675 F300
G1 X33.984907264769525 Y7.143970203414183 F300
G1 X34.012932605304684 Y7.312708646317329 F300
G1 X34.033318017218186 Y7.492034350512676 F300
G1 X34.045822 Y7.682853999999999 F300
G1 X34.04896005536965 Y7.8660203342519885 F300
G1 X34.04262926976594 Y8.043736719851035 F300
G1 X34.027182855922334 Y8.216257216421441 F300
G1 X34.00291423887717 Y8.38382887659647 F300
G1 X33.97005735481655 Y8.546688597369535 F300
G1 X33.928787248000006 Y8.705059872000001 F300
G1 X33.878003054594416 Y8.862590866400188 F300
G1 X33.818741827379114 Y9.01552206251579 F300
G1 X33.751069972977355 Y9.16403732415965 F300
G1 X33.67499753301915 Y9.308296943229614 F300
G1 X33.59048023839368 Y9.448434481780186 F300
G1 X33.497421904 Y9.584553776 F300
G1 X33.3978048149727 Y9.714113102990876 F300
G1 X33.28991314210705 Y9.839645108780815 F300
G1 X33.17357991973998 Y9.961180035357447 F300
G1 X33.04859949237218 Y10.078715303695512 F300
G1 X32.91473039599914 Y10.192213757731482 F300
G1 X32.771698336 Y10.301602143999999 F300
G1 X32.5973116624239 Y10.420995997421311 F300
G1 X32.41060154134299 Y10.53444241118573 F300
G1 X32.21109288907466 Y10.641711740295825 F300
G1 X31.99827135107258 Y10.742508784589608 F300
G1 X31.771588912 Y10.836471408 F300
G1 X31.546904291025026 Y10.917659188922375 F300
G1 X31.309590803946215 Y10.991980189702499 F300
G1 X31.059174502434022 Y11.059029735800918 F300
G1 X30.7951664064006 Y11.118349698626117 F300
G1 X30.517066 Y11.169428 F300
G1 X30.412018068291164 Y11.183601885701197 F300
G1 X30.26906401851852 Y11.197057351851853 F300
G1 X29.937319148148156 Y11.216019481481483 F300
G1 X29.558197500000002 Y11.2258405 F300
G1 X29.168065185185185 Y11.226046518518519 F300
G1 X28.803288314814814 Y11.216163648148147 F300
G1 X28.63687691168361 Y11.20696036489129 F300
G1 X28.500233 Y11.195718 F300
G1 X28.243953921704602 Y11.166529435003284 F300
G1 X27.981995749999996 Y11.129529624999998 F300
G1 X27.720581616515645 Y11.085757509345617 F300
G1 X27.463762250000002 Y11.036093 F300
G1 X27.210970527124104 Y10.980398451828552 F300
G1 X26.973249125000002 Y10.921135874999997 F300
G1 X26.743108131421515 Y10.856192285520734 F300
G1 X26.538173 Y10.790385999999998 F300
G1 X26.360256 Y10.729277 F300
G1 X25.91273 Y11.144079999999999 F300
G1 X25.519814592954088 Y11.501301531843675 F300
G1 X25.122898695313836 Y11.848418314903263 F300
G1 X24.722116946445574 Y12.185466259928466 F300
G1 X24.317597222523954 Y12.512476348522473 F300
G1 X23.909460988719825 Y12.82947436403417 F300
G1 X23.49782365625 Y13.136480625 F300
G1 X23.077492504558972 Y13.437225035526515 F300
G1 X22.65426500551463 Y13.727427907878049 F300
G1 X22.228257430841136 Y14.007124153265794 F300
G1 X21.799579679377786 Y14.27634268257165 F300
G1 X21.368335671697693 Y14.535106116587077 F300
G1 X20.93462375 Y14.7834305 F300
G1 X20.49306795808605 Y15.024234520922626 F300
G1 X20.0496779920282 Y15.254091316903986 F300
G1 X19.60454849599631 Y15.473031881602935 F300
G1 X19.157768261629606 Y15.681079734943175 F300
G1 X18.709420683233503 Y15.87825060656813 F300
G1 X18.25958421875 Y16.064552125 F300
G1 X17.80307959429235 Y16.241958740807615 F300
G1 X17.34572702911386 Y16.408046255536938 F300
G1 X16.887596204066547 Y16.56283500387083 F300
G1 X16.42875178599963 Y16.706335857923534 F300
G1 X15.969253965389099 Y16.83854988262836 F300
G1 X15.509159 Y16.959468 F300
G1 X15.063748612228064 Y17.06545554371561 F300
G1 X14.61668500502296 Y17.16087297611119 F300
G1 X14.168315037616457 Y17.24573980161264 F300
G1 X13.71898209375 Y17.320064765625 F300
G1 X13.267616198044491 Y17.384029105356046 F300
G1 X12.81684960432318 Y17.437276287393466 F300
G1 X12.367024243068043 Y17.479844259823714 F300
G1 X11.9184775 Y17.511760125 F300
G1 X11.46848403437507 Y17.533149275033274 F300
G1 X11.021359751747186 Y17.54375063975428 F300
G1 X10.577425152481352 Y17.543622474081346 F300
G1 X10.13699515625 Y17.532811171874997 F300
G1 X9.695775002531867 Y17.511066744892847 F300
G1 X9.25966297502395 Y17.478547571661153 F300
G1 X8.828940994502332 Y17.435329656557933 F300
G1 X8.403885 Y17.381475 F300
G1 X8.028629093704298 Y17.324578439982417 F300
G1 X7.650517854414504 Y17.258659100660097 F300
G1 X7.269802786958634 Y17.183742412933114 F300
G1 X6.886742779008292 Y17.099848195843315 F300
G1 X6.501605078125001 Y17.006991078124997 F300
G1 X6.025191190680922 Y16.88042784468618 F300
G1 X5.548007420858819 Y16.740749288035634 F300
G1 X5.070613070389683 Y16.588070882852453 F300
G1 X4.593581375000001 Y16.422497125 F300
G1 X4.121483786896419 Y16.245669447215377 F300
G1 X3.6522557536174047 Y16.056895932800707 F300
G1 X3.1864740777350287 Y15.856351134511911 F300
G1 X2.724723984375 Y15.644198109374999 F300
G1 X2.2682660293536854 Y15.42092451876103 F300
G1 X1.8182807898162032 Y15.187041536982509 F300
G1 X1.3753209315033135 Y14.94276554503528 F300
G1 X0.939943 Y14.688299 F300
G1 X0.6797336880000001 Y14.526906088000004 F300
G1 X0.426487064 Y14.361625704000003 F300
G1 X0.2094214959999999 Y14.212527176 F300
G1 X0.057755351999999975 Y14.099679832000003 F300
G1 X0.00970234158509508 Y14.057073015685653 F300
G1 X0.000707 Y14.043153 F300
G1 X0.004178851376332283 Y14.027634863905808 F300
G1 X0.016484796875 Y14.019886171875001 F300
G1 X0.03705186303585652 Y14.0198363272074 F300
G1 X0.082266875 Y14.030590875000001 F300
G1 X0.22572626562499998 Y14.083704890625 F300
G1 X0.474536 Y14.187666 F300
G1 X0.7395709724623587 Y14.29537908415343 F300
G1 X1.031735065934596 Y14.404117119325386 F300
G1 X1.3512870880000003 Y14.513381400000002 F300
G1 X1.6725180064105014 Y14.614789109586532 F300
G1 X2.01507166984885 Y14.715012637366371 F300
G1 X2.3783742240000003 Y14.81353608 F300
G1 X2.7427725500242435 Y14.905214777461264 F300
G1 X3.1222649335924673 Y14.993798860995545 F300
G1 X3.5157892160000004 Y15.078799559999998 F300
G1 X3.910272715775808 Y15.157422925949962 F300
G1 X4.313295617017468 Y15.231246253797405 F300
G1 X4.723523872 Y15.299841360000002 F300
G1 X5.134694405485677 Y15.362065138991634 F300
G1 X5.547853569310503 Y15.418009982122772 F300
G1 X5.96157 Y15.467331000000001 F300
G1 X6.4667232848325185 Y15.518858986822151 F300
G1 X6.973364727047187 Y15.561512238754494 F300
G1 X7.4812784905534055 Y15.595309719882524 F300
G1 X7.990248798120013 Y15.620265183779715 F300
G1 X8.500059453125 Y15.636387203125002 F300
G1 X9.010036338970853 Y15.643676624176516 F300
G1 X9.519714961134024 Y15.642158302638721 F300
G1 X10.028876255400208 Y15.631861866527329 F300
G1 X10.537301704295531 Y15.6128118816713 F300
G1 X11.044772875000001 Y15.585027875000002 F300
G1 X11.552293950515566 Y15.54842550707462 F300
G1 X12.057713033034505 Y15.503140060944917 F300
G1 X12.560817064700657 Y15.449212264387008 F300
G1 X13.061394057271517 Y15.386677557143976 F300
G1 X13.559232609375 Y15.315566109375002 F300
G1 X14.0569589867919 Y15.235419940437833 F300
G1 X14.55079203953462 Y15.146774419524926 F300
G1 X15.040534085633878 Y15.04967982100469 F300
G1 X15.525988865695838 Y14.944180518528203 F300
G1 X16.006961 Y14.830315000000002 F300
G1 X16.539847632446868 Y14.693049534731214 F300
G1 X17.068571841467243 Y14.545145954679311 F300
G1 X17.59310024967096 Y14.386681132617815 F300
G1 X18.113397373674744 Y14.217722771340433 F300
G1 X18.62942521873628 Y14.038329579246147 F300
G1 X19.141142875 Y13.848551453125001 F300
G1 X19.649395533641602 Y13.648068223806094 F300
G1 X20.152781415954074 Y13.437431150796389 F300
G1 X20.65125961799468 Y13.216692913149535 F300
G1 X21.144785953879282 Y12.98589763670243 F300
G1 X21.63331255966098 Y12.745081088015164 F300
G1 X22.1167875 Y12.494270875000002 F300
G1 X22.595060650925483 Y12.23353900755214 F300
G1 X23.067744364319868 Y11.963096324035149 F300
G1 X23.534788199932336 Y11.682972874845344 F300
G1 X23.996137261663613 Y11.393190736416967 F300
G1 X24.451731809438115 Y11.093764223800797 F300
G1 X24.901506875 Y10.784700109375002 F300
G1 X25.34444090885237 Y10.466695595549961 F300
G1 X25.78105082411141 Y10.139380533011742 F300
G1 X26.21127417453118 Y9.802762968061579 F300
G1 X26.63504284090496 Y9.456843538861406 F300
G1 X27.052282650239825 Y9.101615707907683 F300
G1 X27.462913 Y8.737066000000002 F300
G1 X27.600038370370374 Y8.617531851851856 F300
G1 X27.707885296296297 Y8.53227614814815 F300
G1 X27.748602358929706 Y8.505377056593984 F300
G1 X27.763106 Y8.499756000000001 F300
G1 X27.814781814814822 Y8.513538703703706 F300
G1 X27.91332851851852 Y8.549670962962965 F300
G1 X28.037415 Y8.600329000000002 F300
G1 X28.234784863672513 Y8.678494557864768 F300
G1 X28.431546750817514 Y8.74470525351936 F300
G1 X28.62748908398527 Y8.799214258796129 F300
G1 X28.82242975 Y8.842215875000003 F300
G1 X29.02056085697582 Y8.874425115929085 F300
G1 X29.216406346348762 Y8.894745573453584 F300
G1 X29.40984996450772 Y8.903341647352665 F300
G1 X29.600789 Y8.900301000000002 F300
G1 X29.77608344444445 Y8.887473222222226 F300
G1 X29.941166555555554 Y8.867638777777781 F300
G1 X30.060299 Y8.845071 F300
G1 X30.189110453285817 Y8.805664571292807 F300
G1 X30.305546237213058 Y8.760337687106079 F300
G1 X30.41023246001287 Y8.70987964613607 F300
G1 X30.503760407407412 Y8.65491151851852 F300
G1 X30.5937622907395 Y8.590282197214492 F300
G1 X30.670820852554403 Y8.522059081291756 F300
G1 X30.735716458682415 Y8.450626646760488 F300
G1 X30.789050259259263 Y8.37616114814815 F300
G1 X30.832910437893553 Y8.29492480410692 F300
G1 X30.864322548511407 Y8.21112982691443 F300
G1 X30.883443936451933 Y8.124448674405619 F300
G1 X30.889969 Y8.034419 F300
G1 X30.885933295123465 Y7.943599285943362 F300
G1 X30.874083074074075 Y7.870558259259261 F300
G1 X30.852177057688802 Y7.803348514108705 F300
G1 X30.819521592592594 Y7.742571740740742 F300
G1 X30.776056167622443 Y7.686185316394485 F300
G1 X30.715929 Y7.626165 F300
G1 X30.660235201730202 Y7.579719601543324 F300
G1 X30.594489017242083 Y7.533002275872534 F300
G1 X30.515919976000003 Y7.485550536000003 F300
G1 X30.434570540522103 Y7.443241241490798 F300
G1 X30.33624540384389 Y7.398579344096146 F300
G1 X30.217050248 Y7.351021368000002 F300
G1 X30.0271407427843 Y7.28494871163485 F300
G1 X29.779029431999994 Y7.209566232000002 F300
G1 X29.5070455338453 Y7.135262175792175 F300
G1 X29.161567143999996 Y7.0481738640000025 F300
G1 X28.78743283017406 Y6.95929586122525 F300
G1 X28.324372999999998 Y6.853833000000002 F300
G1 X27.914894083962857 Y6.759130306288831 F300
G1 X27.565740687499996 Y6.672221578125002 F300
G1 X27.235333081991513 Y6.5823871998771715 F300
G1 X26.948010500000002 Y6.495949125000003 F300
G1 X26.673694186559032 Y6.403867385812831 F300
G1 X26.4249280625 Y6.310343109375003 F300
G1 X26.183845333955098 Y6.209198442163954 F300
G1 X25.950238999999996 Y6.100731000000003 F300
G1 X25.78848269411924 Y6.018101806625862 F300
G1 X25.634608654733814 Y5.931624078893409 F300
G1 X25.48881649407035 Y5.841814518698296 F300
G1 X25.351292851851852 Y5.749144370370375 F300
G1 X25.216079477071368 Y5.649302188720728 F300
G1 X25.09147527362414 Y5.548174467454215 F300
G1 X24.977438852658434 Y5.446228713947859 F300
G1 X24.873917148148145 Y5.343866629629632 F300
G1 X24.77434459741587 Y5.233809607183202 F300
G1 X24.687633946897442 Y5.125151428174469 F300
G1 X24.613390568688455 Y5.018165013787835 F300
G1 X24.551250999999997 Y4.913032000000001 F300
G1 X24.531544174993563 Y4.878368166726845 F300
G1 X24.522301000000002 Y4.868005555555559 F300
G1 X24.516528511080228 Y4.8705475868645784 F300
G1 X24.51110433333333 Y4.904720444444448 F300
G1 X24.508440999999998 Y5.053438 F300
G1 X24.50206517065034 Y5.222359244406114 F300
G1 X24.48476675 Y5.412114390625 F300
G1 X24.45836937063165 Y5.605695568313132 F300
G1 X24.42273075 Y5.807245375000001 F300
G1 X24.379317987118355 Y6.008258954557885 F300
G1 X24.329063124999998 Y6.204594671875002 F300
G1 X24.27165329073465 Y6.395921806717611 F300
G1 X24.210493999999997 Y6.569926000000002 F300
G1 X24.129905287767755 Y6.768031511954772 F300
G1 X24.041634372009796 Y6.960013042164046 F300
G1 X23.945866984546246 Y7.14595138767991 F300
G1 X23.842753535218712 Y7.3259126693490755 F300
G1 X23.732410921875 Y7.499945828125002 F300
G1 X23.613901005584523 Y7.669476414339676 F300
G1 X23.48854073960422 Y7.832571204496665 F300
G1 X23.356420640941742 Y7.989259670296486 F300
G1 X23.21760176214714 Y8.139549219478962 F300
G1 X23.072117875 Y8.283422875000003 F300
G1 X22.920332759130464 Y8.420530669848018 F300
G1 X22.76235598006456 Y8.550784049910265 F300
G1 X22.598200293360158 Y8.674142452704691 F300
G1 X22.427855949940817 Y8.79053674870354 F300
G1 X22.251293140624995 Y8.899867234375002 F300
G1 X22.070814629432217 Y9.000756412523579 F300
G1 X21.884660056004982 Y9.09423680874659 F300
G1 X21.692784096823708 Y9.180181889294142 F300
G1 X21.495126570891102 Y9.258431249248655 F300
G1 X21.291614999999997 Y9.328789 F300
G1 X21.074552303074803 Y9.394745984122515 F300
G1 X20.87337684375 Y9.447920921875 F300
G1 X20.673487921044956 Y9.491773779017036 F300
G1 X20.474515499999995 Y9.525866125 F300
G1 X20.27257781325203 Y9.55093735956872 F300
G1 X20.056530656249997 Y9.568298265625002 F300
G1 X19.833205434189527 Y9.577841473487748 F300
G1 X19.580921999999997 Y9.580891000000001 F300
G1 X19.34609126472741 Y9.577405470966283 F300
G1 X19.124486052030136 Y9.567478687519106 F300
G1 X18.914740599891527 Y9.551302017173722 F300
G1 X18.715587370370372 Y9.529062037037042 F300
G1 X18.514650762375307 Y9.499051759472902 F300
G1 X18.32129653589767 Y9.46226398169101 F300
G1 X18.134455401191758 Y9.418695497452113 F300
G1 X17.953108296296296 Y9.368323962962965 F300
G1 X17.773554759113686 Y9.31015961017857 F300
G1 X17.596290618746607 Y9.244314447883045 F300
G1 X17.420429600761885 Y9.170520323230825 F300
G1 X17.245081 Y9.088481000000002 F300
G1 X17.03667961374654 Y8.979439222207311 F300
G1 X16.840367212005845 Y8.863429592646758 F300
G1 X16.655336380517824 Y8.740246364906165 F300
G1 X16.480840370370373 Y8.609642074074078 F300
G1 X16.31346621309745 Y8.46889634185881 F300
G1 X16.155109316259146 Y8.319302005016038 F300
G1 X16.005257221001575 Y8.160355181768931 F300
G1 X15.86345262962963 Y7.991492259259262 F300
G1 X15.731942246538404 Y7.815841352781581 F300
G1 X15.607044526036539 Y7.628811128922095 F300
G1 X15.488541236894925 Y7.429600268936513 F300
G1 X15.376249999999999 Y7.217344000000004 F300
G1 X15.232859999999999 Y6.929769000000007 F300
G1 X15.19958 Y7.092819000000006 F300
G1 X15.173336084415055 Y7.210477879495993 F300
G1 X15.145362666666667 Y7.314059259259268 F300
G1 X15.112463569783742 Y7.4145832982843825 F300
G1 X15.072844 Y7.516354407407414 F300
G1 X15.02674667369159 Y7.619651866655555 F300
G1 X14.967913999999999 Y7.739056000000005 F300
G1 X14.880579049583496 Y7.895958546817152 F300
G1 X14.781879659155903 Y8.047530324483885 F300
G1 X14.671770907028627 Y8.193877356585078 F300
G1 X14.550119697625965 Y8.335044682891887 F300
G1 X14.416714148148147 Y8.471010037037042 F300
G1 X14.277084593132345 Y8.596760163814421 F300
G1 X14.1266528163501 Y8.716988068380711 F300
G1 X13.965193918242688 Y8.831552735970964 F300
G1 X13.792441338278705 Y8.940250546128414 F300
G1 X13.608094518518516 Y9.042812296296301 F300
G1 X13.422577718640945 Y9.133956330646974 F300
G1 X13.226806084905117 Y9.218660633142743 F300
G1 X13.02054986457241 Y9.296612881872495 F300
G1 X12.80356611639844 Y9.36744646547291 F300
G1 X12.575603999999998 Y9.430739000000006 F300
G1 X12.405237065037305 Y9.472659718823792 F300
G1 X12.255478392 Y9.50634840000001 F300
G1 X12.10968815675567 Y9.535059079107405 F300
G1 X11.970313295999999 Y9.557808040000008 F300
G1 X11.830153219498547 Y9.57564802627225 F300
G1 X11.681609303999998 Y9.589320080000006 F300
G1 X11.527673286728447 Y9.598729050965533 F300
G1 X11.350867007999998 Y9.605086680000007 F300
G1 X10.939586999999998 Y9.609310000000008 F300
G1 X10.691377129645545 Y9.607426933282452 F300
G1 X10.474579736 Y9.60183178400001 F300
G1 X10.265872795937199 Y9.591446326704864 F300
G1 X10.073724087999997 Y9.576230112000008 F300
G1 X9.884730682280729 Y9.554993978341283 F300
G1 X9.696678071999997 Y9.527266648000007 F300
G1 X9.507179430498196 Y9.492920086419243 F300
G1 X9.303099703999997 Y9.449703056000008 F300
G1 X9.092489877171264 Y9.399793409952492 F300
G1 X8.852646999999997 Y9.338301000000008 F300
G1 X8.552688999999997 Y9.25905100000001 F300
G1 X8.552688999999997 Y8.241195000000012 F300
G1 X8.553463319999999 Y7.795812192000012 F300
G1 X8.556531559999996 Y7.500943416000013 F300
G1 X8.563011639999997 Y7.326980544000013 F300
G1 X8.568533412722648 Y7.271432982000217 F300
G1 X8.574021479999999 Y7.244315448000015 F300
G1 X8.582664693249292 Y7.226784052729015 F300
G1 X8.590678999999998 Y7.2233400000000145 F300
G1 X8.639107555555555 Y7.23546333333335 F300
G1 X8.72954211111111 Y7.267246666666683 F300
G1 X8.842405999999999 Y7.3118100000000155 F300
G1 X9.052890326177886 Y7.392134882375792 F300
G1 X9.280104960000001 Y7.465799792000017 F300
G1 X9.513360226213088 Y7.5297592658450165 F300
G1 X9.753612879999999 Y7.584767776000016 F300
G1 X9.995961932348678 Y7.629827460161801 F300
G1 X10.235545519999999 Y7.664200464000013 F300
G1 X10.473446997715861 Y7.687858901055838 F300
G1 X10.698518639999998 Y7.699584368000013 F300
G1 X10.847418359249556 Y7.700770788629283 F300
G1 X10.986422271188824 Y7.6962964609893465 F300
G1 X11.115147999999998 Y7.686406000000012 F300
G1 X11.316431903176387 Y7.660176644313451 F300
G1 X11.49936255271876 Y7.625070217874561 F300
G1 X11.664495851851854 Y7.582259740740755 F300
G1 X11.787946089923086 Y7.541783191577338 F300
G1 X11.899165074146314 Y7.497566192603628 F300
G1 X11.998730545545412 Y7.450098565770172 F300
G1 X12.087215481481481 Y7.399771925925939 F300
G1 X12.173386504262005 Y7.340714841560324 F300
G1 X12.246549951802827 Y7.279328797389894 F300
G1 X12.307601816415648 Y7.215808875887924 F300
G1 X12.357281999999998 Y7.150179000000016 F300
G1 X12.385383201800591 Y7.1049945024301175 F300
G1 X12.404490148148149 Y7.067504333333348 F300
G1 X12.418353973279741 Y7.029586563743582 F300
G1 X12.427147185185184 Y6.989023000000015 F300
G1 X12.431556536189273 Y6.945240565221262 F300
G1 X12.432981999999997 Y6.887979000000016 F300
G1 X12.431761539207454 Y6.827721913029802 F300
G1 X12.427768666666667 Y6.786086518518534 F300
G1 X12.418987114263492 Y6.7492124059123295 F300
G1 X12.404608666666665 Y6.717309814814833 F300
G1 X12.384126925257984 Y6.6866327151863665 F300
G1 X12.352221999999998 Y6.648098000000019 F300
G1 X12.304218865346405 Y6.60058033287397 F300
G1 X12.239700000928455 Y6.551245853300943 F300
G1 X12.153829796874998 Y6.49950165625002 F300
G1 X12.063974570456313 Y6.455111522398416 F300
G1 X11.950101840836535 Y6.407474136006489 F300
G1 X11.806689624999997 Y6.3560347500000205 F300
G1 X11.57770255157746 Y6.285742735672384 F300
G1 X11.273848890624997 Y6.205344968750021 F300
G1 X10.940593300304077 Y6.126667501827747 F300
G1 X10.518354999999998 Y6.035080000000022 F300
G1 X10.01306882258699 Y5.924201405459026 F300
G1 X9.585151687999998 Y5.819963048000022 F300
G1 X9.309308938068936 Y5.74557187072842 F300
G1 X9.063823839821001 Y5.672926333161552 F300
G1 X8.845197383999999 Y5.601615504000022 F300
G1 X8.628629561328852 Y5.523053774915203 F300
G1 X8.435994376542261 Y5.444667826699125 F300
G1 X8.264228535999997 Y5.366150536000021 F300
G1 X8.096142380634557 Y5.279348276031225 F300
G1 X7.9448550370437365 Y5.1906445388386135 F300
G1 X7.807981591999998 Y5.099681312000023 F300
G1 X7.676715212610798 Y5.000783683830143 F300
G1 X7.555342293675648 Y4.897187230988547 F300
G1 X7.442192999999998 Y4.788321000000025 F300
G1 X7.237967999999998 Y4.580123000000022 F300
G1 X7.235867999999997 Y4.989091000000023 F300
G1 X7.230210875830752 Y5.193830465372068 F300
G1 X7.2154590926606845 Y5.392567937800331 F300
G1 X7.191712080627285 Y5.585955446305523 F300
G1 X7.1590294814814825 Y5.774619185185194 F300
G1 X7.116727082907335 Y5.961942018912466 F300
G1 X7.065009709084944 Y6.146263907807692 F300
G1 X7.003704382978386 Y6.328144868466292 F300
G1 X6.9325891851851855 Y6.508132481481482 F300
G1 X6.852941533657087 Y6.683565569367438 F300
G1 X6.762945320543567 Y6.858787579829492 F300
G1 X6.662150701638232 Y7.034283461433552 F300
G1 X6.55006 Y7.210541999999997 F300
G1 X6.413903935749339 Y7.4037350180569215 F300
G1 X6.26817537897319 Y7.5895146172946 F300
G1 X6.112885194049853 Y7.768010678589024 F300
G1 X5.947998365084451 Y7.939315821632859 F300
G1 X5.77343746875 Y8.103483109374999 F300
G1 X5.592076183395125 Y8.258098031028629 F300
G1 X5.401497275422155 Y8.405478370564017 F300
G1 X5.2015863540511225 Y8.545597935048717 F300
G1 X4.9922004634842265 Y8.678391068436632 F300
G1 X4.773171500000001 Y8.803751375 F300
G1 X4.5513754559818995 Y8.918082431244208 F300
G1 X4.320614207282801 Y9.024904179029456 F300
G1 X4.080726562042045 Y9.12405683609984 F300
G1 X3.8315373552607728 Y9.215343877139958 F300
G1 X3.5728602812500005 Y9.298531453125 F300
G1 X3.315086307752251 Y9.370607322501344 F300
G1 X3.048680438319197 Y9.434565520897074 F300
G1 X2.7734874731428825 Y9.490149542230904 F300
G1 X2.4893482870287746 Y9.537070723721492 F300
G1 X2.196102 Y9.575008 F300
G1 X2.059457137353114 Y9.587175181166627 F300
G1 X1.8838435138888896 Y9.59690827777778 F300
G1 X1.6979865832940502 Y9.602892223568874 F300
G1 X1.4907411111111115 Y9.605940222222225 F300
G1 X1.0642053750000002 Y9.603050500000002 F300
G1 X0.6516468888888892 Y9.58918577777778 F300
G1 X0.4602244404352726 Y9.578079522997813 F300
G1 X0.30047623611111146 Y9.565292722222221 F300
G1 X0.15463591088787496 Y9.548773346248755 F300
G1 X0.05810400000000027 Y9.532318 F300
G1 X0.0006540000000001545 Y9.519908000000001 F300
G1 X0.0006540000000001545 Y8.556701 F300
G1 X0.0006540000000001545 Y7.593494 F300
G1 X0.6580090000000002 Y7.593494 F300
G1 X1.0244651760000005 Y7.590670848000002 F300
G1 X1.1732151629153853 Y7.585829367153263 F300
G1 X1.2950532080000001 Y7.578252784 F300
G1 X1.4105630701165273 Y7.566408466778883 F300
G1 X1.5167865520000003 Y7.550316895999998 F300
G1 X1.622330828902824 Y7.529060063234592 F300
G1 X1.7366786640000003 Y7.5009402719999985 F300
G1 X2.0017430000000003 Y7.424199999999999 F300
G1 X2.2068928381316137 Y7.355454388120194 F300
G1 X2.402788806970416 Y7.277446716589754 F300
G1 X2.58947907091161 Y7.190732123669489 F300
G1 X2.7669935000000003 Y7.095781718749998 F300
G1 X2.939969295108953 Y6.989965805909826 F300
G1 X3.10224652540745 Y6.876917180268068 F300
G1 X3.253900063565116 Y6.757059305753888 F300
G1 X3.394964 Y6.630733499999998 F300
G1 X3.528508737430382 Y6.49485604889924 F300
G1 X3.6500878055328685 Y6.353603530721936 F300
G1 X3.7597637465327525 Y6.207222910541731 F300
G1 X3.8575205 Y6.055883031249999 F300
G1 X3.928077531442225 Y5.929383422459859 F300
G1 X3.9903094020017633 Y5.800345854404522 F300
G1 X4.044191199330038 Y5.6687886816806845 F300
G1 X4.089643855528648 Y5.534702949961446 F300
G1 X4.126529 Y5.398057999999999 F300
G1 X4.14449596226565 Y5.303120156398967 F300
G1 X4.158272999999999 Y5.186543890624998 F300
G1 X4.166207525803392 Y5.065099313021573 F300
G1 X4.1689735 Y4.936833124999998 F300
G1 X4.166365684068397 Y4.808748706111433 F300
G1 X4.15859825 Y4.688769546874998 F300
G1 X4.144924401965985 Y4.574051278138599 F300
G1 X4.127115 Y4.482196999999999 F300
G1 X4.089360454310218 Y4.347369980381621 F300
G1 X4.0418963601788365 Y4.212955122920526 F300
G1 X3.9847751820231094 Y4.0791415118085155 F300
G1 X3.917988777777779 Y3.9461560370370363 F300
G1 X3.843847379818385 Y3.81810215939228 F300
G1 X3.7610593605668514 Y3.6922697196928356 F300
G1 X3.6696734928760533 Y3.5689547441652207 F300
G1 X3.5697032222222225 Y3.448495296296296 F300
G1 X3.463947846605647 Y3.334161676819868 F300
G1 X3.3507509285745822 Y3.224032067464308 F300
G1 X3.2301833495733714 Y3.1184596430200764 F300
G1 X3.102291 Y3.017840999999997 F300
G1 X3.016440732833417 Y2.9577360639815957 F300
G1 X2.9085723125 Y2.8894118593749973 F300
G1 X2.7939113119278165 Y2.8222819961223706 F300
G1 X2.6689015000000005 Y2.7538733749999986 F300
G1 X2.5413468440473803 Y2.6884966253882383 F300
G1 X2.4156804375000003 Y2.6283847031249996 F300
G1 X2.2913438703429962 Y2.573609313328293 F300
G1 X2.181311 Y2.530104999999999 F300
G1 X2.0519662534377576 Y2.485719497952078 F300
G1 X1.913468262452024 Y2.444606490353317 F300
G1 X1.766614671875 Y2.4071157187500005 F300
G1 X1.5430643154551837 Y2.3604174347608895 F300
G1 X1.311923375 Y2.323891250000001 F300
G1 X1.0792676276644082 Y2.2985277332991627 F300
G1 X0.851117890625 Y2.2849531562500007 F300
G1 X0.6994403970912506 Y2.2826047554198174 F300
G1 X0.5548050198708576 Y2.285936317391646 F300
G1 X0.4180790000000001 Y2.294823000000001 F300
G1 X0.2577453333333335 Y2.3082315185185216 F300
G1 X0.12829033333333345 Y2.3178644814814833 F300
G1 X0.05774000000000007 Y2.3216329999999985 F300
G1 X0 Y2.3218889999999988 F300
G1 X0.0067 Y1.3326659999999961 F300
G1 X0.0134 Y0.3434439999999981 F300
G1 X0.217626 Y0.31298400000000015 F300
G1 X0.33569139062500003 Y0.2986246249999992 F300
G1 X0.506186375 Y0.28204149999999917 F300
G1 X0.706288171875 Y0.2652896250000002 F300
G1 X0.913174 Y0.2504240000000024 F300
G1 X1.116281608145968 Y0.24013176088997704 F300
G1 X1.3241623252906438 Y0.2354665835929709 F300
G1 X1.536026828125 Y0.23645454687500256 F300
G1 X1.854047911169487 Y0.24830005995776666 F300
G1 X2.172946375 Y0.2723408750000029 F300
G1 X2.489874658149314 Y0.30837801731735864 F300
G1 X2.7987604843750002 Y0.3557050156250028 F300
G1 X3.002730742978997 Y0.39407547608047777 F300
G1 X3.1994636507558627 Y0.4369724588340973 F300
G1 X3.388297 Y0.4841690000000014 F300
G1 X3.6096251872075156 Y0.5475917680161768 F300
G1 X3.8262414599926347 Y0.6183283599364695 F300
G1 X4.038030655508935 Y0.6961214497621281 F300
G1 X4.244875280954313 Y0.7807379042782128 F300
G1 X4.446653125 Y0.8719674062500006 F300
G1 X4.646322046939522 Y0.9712268571725009 F300
G1 X4.839709337153458 Y1.0764997500785505 F300
G1 X5.026722789553704 Y1.1875513294092654 F300
G1 X5.207264700750966 Y1.3041711436266654 F300
G1 X5.3812292500000005 Y1.4261714999999997 F300
G1 X5.551699920065919 Y1.5559218194119642 F300
G1 X5.714395681980985 Y1.6903515066773411 F300
G1 X5.86926063974735 Y1.8292653208254732 F300
G1 X6.016227032409471 Y1.9724941128462654 F300
G1 X6.155212000000001 Y2.1198928437499993 F300
G1 X6.288751206340791 Y2.274531622722985 F300
G1 X6.413222643750267 Y2.432592567347157 F300
G1 X6.528595256452175 Y2.5939556244823865 F300
G1 X6.634812480601857 Y2.7585283484259433 F300
G1 X6.731788 Y2.9262429999999995 F300
G1 X6.838344 Y3.1216190000000026 F300
G1 X6.854044 Y3.0217190000000045 F300
G1 X6.879765931627544 Y2.8668654800436717 F300
G1 X6.9039681250000005 Y2.7397259531250038 F300
G1 X6.930861710922599 Y2.620305118038003 F300
G1 X6.9591520000000004 Y2.5159746250000037 F300
G1 X6.991864525879052 Y2.415342402486203 F300
G1 X7.029655375 Y2.316594734375004 F300
G1 X7.072805218358625 Y2.2176140051397 F300
G1 X7.125538 Y2.1077160000000035 F300
G1 X7.21099324142743 Y1.9491752172689827 F300
G1 X7.307231354111143 Y1.7951308639046504 F300
G1 X7.414198163045514 Y1.6455297990020705 F300
G1 X7.531906627012897 Y1.5003652163277907 F300
G1 X7.660428281249999 Y1.3596818750000033 F300
G1 X7.795149003921652 Y1.2279579637502434 F300
G1 X7.939545400366912 Y1.1012497181382397 F300
G1 X8.093656550272723 Y0.9796824832108991 F300
G1 X8.257550903117194 Y0.8634275028876512 F300
G1 X8.43131975 Y0.7527047500000039 F300
G1 X8.607541491190059 Y0.6518593653491723 F300
G1 X8.792225570164874 Y0.5570582460772805 F300
G1 X8.985389598686401 Y0.4685382552288066 F300
G1 X9.18706041028078 Y0.38657683613828603 F300
G1 X9.39726934375 Y0.31149375000000534 F300
G1 X9.607254812185317 Y0.24618665994059638 F300
G1 X9.824285417936277 Y0.18814087094020593 F300
G1 X10.04833040448904 Y0.1376567526955956 F300
G1 X10.279358444456085 Y0.09507102204564047 F300
G1 X10.517334 Y0.06075800000000697 F300
G1 X10.737558576318971 Y0.039303239586609515 F300
G1 X10.98793040625 Y0.02654331250000863 F300
G1 X11.245777435846527 Y0.02339885449936062 F300
G1 X11.520294750000001 Y0.02937300000000942 F300
G1 X11.797663467710827 Y0.04420801971544906 F300
G1 X12.077942718749998 Y0.0678651875000097 F300
G1 X12.356414789369577 Y0.10026144928950179 F300
G1 X12.62439 Y0.1406380000000098 F300
G1 X12.808176338313205 Y0.17489857596431369 F300
G1 X13.017807232000003 Y0.2200764720000105 F300
G1 X13.232730918872662 Y0.2715060701448519 F300
G1 X13.459306976 Y0.33037625600001075 F300
G1 X13.686479105528122 Y0.3937520965658047 F300
G1 X13.910877504000002 Y0.4605777040000109 F300
G1 X14.131240337098099 Y0.5305967954976339 F300
G1 X14.334507088 Y0.5997211680000112 F300
G1 X14.528802065151336 Y0.6710758079700804 F300
G1 X14.692184000000001 Y0.7368470000000116 F300
G1 X14.870928000000001 Y0.8127070000000103 F300
G1 X14.877628000000001 Y1.9757540000000091 F300
G1 X14.879846080000005 Y2.4917528080000086 F300
G1 X14.878740640000004 Y2.8295687040000077 F300
G1 X14.873292160000002 Y3.0256898960000074 F300
G1 X14.86795111126655 Y3.0873232102094095 F300
G1 X14.862481120000004 Y3.116604592000008 F300
G1 X14.853588403288342 Y3.135279019300979 F300
G1 X14.845288000000002 Y3.138801000000008 F300
G1 X14.829782121363587 Y3.135334779882363 F300
G1 X14.787242962962967 Y3.1195366666666753 F300
G1 X14.672541037037043 Y3.069033000000008 F300
G1 X14.526012000000001 Y2.9982240000000075 F300
G1 X14.273541540479785 Y2.878372907583161 F300
G1 X14.008308268447498 Y2.765599301706879 F300
G1 X13.731608125000001 Y2.6604851875000084 F300
G1 X13.451169317403764 Y2.565689389827891 F300
G1 X13.16514881063038 Y2.4802472272445755 F300
G1 X12.875138750000001 Y2.4045995000000078 F300
G1 X12.58265565703871 Y2.3391983772063516 F300
G1 X12.292063881478779 Y2.2850156511549344 F300
G1 X12.00494775 Y2.2422763125000076 F300
G1 X11.71637735767416 Y2.210643344780306 F300
G1 X11.43743475772158 Y2.191652679291569 F300
G1 X11.169379000000001 Y2.1852250000000097 F300
G1 X10.940209515625002 Y2.187267000000009 F300
G1 X10.774323625 Y2.1955040000000086 F300
G1 X10.70445117949939 Y2.2028845591555113 F300
G1 X10.640834171875001 Y2.212526500000009 F300
G1 X10.508854000000001 Y2.2409250000000114 F300
G1 X10.377600933289763 Y2.278048921937331 F300
G1 X10.258425747619183 Y2.3208406131967227 F300
G1 X10.150870035813512 Y2.3684506619383137 F300
G1 X10.054477888888892 Y2.4201891481481588 F300
G1 X9.960502318722504 Y2.4814656701206204 F300
G1 X9.880204243749725 Y2.54562231326698 F300
G1 X9.812736273837581 Y2.6121307133486367 F300
G1 X9.757387111111113 Y2.680682851851863 F300
G1 X9.718916920489558 Y2.74147102706224 F300
G1 X9.689222249100034 Y2.802986720794712 F300
G1 X9.66797314863853 Y2.8653448642625765 F300
G1 X9.655052532903118 Y2.9287502817481355 F300
G1 X9.650587000000002 Y2.9934670000000096 F300
G1 X9.654098766659882 Y3.070116427963652 F300
G1 X9.665123516982828 Y3.141277113941743 F300
G1 X9.683998322693116 Y3.2079467552802305 F300
G1 X9.711255832000004 Y3.27101967200001 F300
G1 X9.746240730946301 Y3.3292349892029582 F300
G1 X9.791566428210356 Y3.386440632129229 F300
G1 X9.849115039527902 Y3.4431919359232626 F300
G1 X9.921197176000003 Y3.4999571760000103 F300
G1 X9.994970256040215 Y3.5479485837172664 F300
G1 X10.084209413738478 Y3.5971905708175353 F300
G1 X10.19163603030616 Y3.647896001958244 F300
G1 X10.320333304000002 Y3.70032714400001 F300
G1 X10.49038178107497 Y3.7603217099033497 F300
G1 X10.69756648025816 Y3.8240029713301267 F300
G1 X10.948586488000004 Y3.892177208000011 F300
G1 X11.343997392334614 Y3.9872946890824155 F300
G1 X11.845879000000002 Y4.095555000000012 F300
G1 X12.314065990673459 Y4.1963409730822185 F300
G1 X12.713559928000006 Y4.2906982080000144 F300
G1 X13.090025835446713 Y4.389899029338083 F300
G1 X13.407898984000003 Y4.484894184000014 F300
G1 X13.612257244093113 Y4.553534059521995 F300
G1 X13.793924704533184 Y4.621170897332814 F300
G1 X13.955591176000002 Y4.688044656000013 F300
G1 X14.114729726673007 Y4.761693910528412 F300
G1 X14.256556277056568 Y4.835621805477405 F300
G1 X14.383331512000003 Y4.910051352000012 F300
G1 X14.505934458756888 Y4.991413762815717 F300
G1 X14.61687378412989 Y5.074892887216721 F300
G1 X14.717815000000002 Y5.160816000000011 F300
G1 X14.845488000000001 Y5.2762790000000095 F300
G1 X14.845488000000001 Y4.686191000000008 F300
G1 X14.848011703703706 Y4.382840888888898 F300
G1 X14.854610962962965 Y4.154796777777786 F300
G1 X14.85994921785391 Y4.074381063817291 F300
G1 X14.863828000000002 Y4.0514300000000105 F300
G1 X14.868706877808307 Y4.04483189392194 F300
G1 X14.883997740234376 Y4.037385527343759 F300
G1 X14.906642161826953 Y4.0322801472535605 F300
G1 X14.954049734375001 Y4.026632968750009 F300
G1 X15.107816892578125 Y4.018734863281259 F300
G1 X15.379132125000002 Y4.013253750000009 F300
G1 X15.801828341796877 Y4.0097521679687596 F300
G1 X16.409738453125 Y4.00779265625001 F300
G1 X17.236695369140627 Y4.006937753906261 F300
G1 X18.316532000000002 Y4.006750000000011 F300
G1 X19.226796745370372 Y4.005976712962974 F300
G1 X20.0464322962963 Y4.003797037037049 F300
G1 X20.742049125 Y4.00042125000001 F300
G1 X21.280257703703704 Y3.9960596296296402 F300
G1 X21.627668504629632 Y3.9909224537037145 F300
G1 X21.73862467398493 Y3.9870397309809227 F300
G1 X21.750892 Y3.9852200000000124 F300
G1 X21.747578875495357 Y3.9633999589653413 F300
G1 X21.734480375000008 Y3.916572750000012 F300
G1 X21.693286500000003 Y3.7993645000000127 F300
G1 X21.639371875000002 Y3.665445500000012 F300
G1 X21.584798 Y3.546666000000009 F300
G1 X21.509866028005607 Y3.409548865325073 F300
G1 X21.428293523858517 Y3.280901376896016 F300
G1 X21.340156738060188 Y3.160335421286754 F300
G1 X21.24546257135506 Y3.0475151637336286 F300
G1 X21.14415079430276 Y2.942161284064983 F300
G1 X21.03609691693989 Y2.84405489884036 F300
G1 X20.921115666883075 Y2.753041045726536 F300
G1 X20.798965 Y2.6690316250000095 F300
G1 X20.65594683265202 Y2.584680621828921 F300
G1 X20.503802750974565 Y2.509026336490819 F300
G1 X20.342056165537024 Y2.4421757606536008 F300
G1 X20.1701706089692 Y2.3843411513024613 F300
G1 X19.98755780179993 Y2.3358402096742297 F300
G1 X19.793585507418186 Y2.297095317182748 F300
G1 X19.587585 Y2.268632000000011 F300
G1 X19.419133376434473 Y2.2540798720455757 F300
G1 X19.250036644824537 Y2.2472772346589416 F300
G1 X19.078672481481487 Y2.248408555555568 F300
G1 X18.907553846607083 Y2.2573809884917644 F300
G1 X18.728819395003566 Y2.274638543863854 F300
G1 X18.54056351851852 Y2.3007777777777902 F300
G1 X18.353651964849526 Y2.3339138093570124 F300
G1 X18.15239560785413 Y2.3765224006995025 F300
G1 X17.934409000000002 Y2.4295190000000133 F300
G1 X17.769609259259266 Y2.4695945555555694 F300
G1 X17.632039740740744 Y2.4988234444444566 F300
G1 X17.551484000000002 Y2.51087900000001 F300
G1 X17.474894000000003 Y2.5133790000000076 F300
G1 X17.468194000000004 Y1.5275290000000084 F300
G1 X17.46645428125 Y1.0477209531250082 F300
G1 X17.469582250000006 Y0.7407426250000082 F300
G1 X17.473647409591138 Y0.634330404119811 F300
G1 X17.478398593750004 Y0.5742364843750078 F300
G1 X17.486764496747988 Y0.5282858953973362 F300
G1 X17.493724000000004 Y0.5158450000000059 F300
G1 X17.521147040392513 Y0.501358642989159 F300
G1 X17.588682296296305 Y0.4785492453703772 F300
G1 X17.77814270370371 Y0.43133996296296995 F300
G1 X18.033148500000003 Y0.37964412500000666 F300
G1 X18.32474296296297 Y0.32888870370370954 F300
G1 X18.623969370370375 Y0.2845006712963008 F300
G1 X18.901871000000003 Y0.25190700000000277 F300
G1 X19.005892732566203 Y0.2439296801644885 F300
G1 X19.137517620370378 Y0.2377816296296331 F300
G1 X19.4315412962963 Y0.23279737037037396 F300
G1 X19.752561750000005 Y0.23623700000000358 F300
G1 X20.06919870370371 Y0.24738329629630007 F300
G1 X20.35007187962963 Y0.2655190370370414 F300
G1 X20.472330538526446 Y0.2775608225507563 F300
G1 X20.563801000000005 Y0.28992700000000576 F300
G1 X20.80707304256449 Y0.33394926025117627 F300
G1 X21.040494621971217 Y0.3859784594555352 F300
G1 X21.264621474289168 Y0.44586706764031964 F300
G1 X21.479983209720256 Y0.5134986997644341 F300
G1 X21.68708347009528 Y0.5887895347371874 F300
G1 X21.886400032611803 Y0.6716896141033571 F300
G1 X22.078384875000005 Y0.7621840000000066 F300
G1 X22.268614373390108 Y0.8631865670115153 F300
G1 X22.452379115148844 Y0.9725594499178276 F300
G1 X22.630036208276437 Y1.090458861374397 F300
G1 X22.80191525219512 Y1.2170807588007646 F300
G1 X22.968318748390484 Y1.3526608957795374 F300
G1 X23.129522640809466 Y1.4974747008213913 F300
G1 X23.285777000000007 Y1.6518370000000075 F300
G1 X23.409045256981308 Y1.7854546800091673 F300
G1 X23.528275565341968 Y1.9268799625216118 F300
G1 X23.642966555555567 Y2.075522777777787 F300
G1 X23.75130362339598 Y2.228901759339698 F300
G1 X23.853352876707937 Y2.3869224636841855 F300
G1 X23.948659444444452 Y2.5488858888888974 F300
G1 X24.037041874680803 Y2.7146915501311666 F300
G1 X24.117054140895966 Y2.8817888006042303 F300
G1 X24.188357000000007 Y3.04947700000001 F300
G1 X24.195953796358506 Y3.061222748766706 F300
G1 X24.202211887438963 Y3.0599825536654803 F300
G1 X24.211990750000005 Y3.040485625000011 F300
G1 X24.224302177291072 Y2.9927446243582034 F300
G1 X24.243537000000007 Y2.8870060000000137 F300
G1 X24.274864029568825 Y2.724954778248139 F300
G1 X24.3153141411234 Y2.566038570275399 F300
G1 X24.364727653504428 Y2.4102339543860665 F300
G1 X24.423004399465043 Y2.257532653849655 F300
G1 X24.49010062962964 Y2.107947222222234 F300
G1 X24.565376259745584 Y1.9626875405764137 F300
G1 X24.649015865399473 Y1.8212034529038337 F300
G1 X24.741012949285825 Y1.6835466255867726 F300
G1 X24.84140610311169 Y1.549797996471792 F300
G1 X24.950275370370377 Y1.4200724444444557 F300
G1 X25.06500312226283 Y1.2972976065731174 F300
G1 X25.18757060225931 Y1.1791651167257142 F300
G1 X25.318069269203086 Y1.0658230128440018 F300
G1 X25.45662191687547 Y0.9574579827001684 F300
G1 X25.603379000000007 Y0.8542990000000117 F300
G1 X25.748722191012504 Y0.7626068045090472 F300
G1 X25.90353616244372 Y0.6748544317482931 F300
G1 X26.06789778699873 Y0.5911849902439994 F300
G1 X26.24188571141729 Y0.5117743586285199 F300
G1 X26.425574562500003 Y0.4368314218750129 F300
G1 X26.6547564852658 Y0.35452252781702165 F300
G1 X26.89618502400476 Y0.279627316853619 F300
G1 X27.14973325074855 Y0.21251788979249728 F300
G1 X27.415247000000008 Y0.15361712500001268 F300
G1 X27.67996583320602 Y0.1054393070556356 F300
G1 X27.95374347766136 Y0.06583491068931517 F300
G1 X28.236234656320082 Y0.03515389584680454 F300
G1 X28.52706668750001 Y0.013781265625012473 F300
G1 X28.816334452696246 Y0.0023507514062127022 F300
G1 X29.111184994249577 Y0.00044709720261952926 F300
G1 X29.411140921774997 Y0.008370648751702441 F300
G1 X29.71570400000001 Y0.02644900000001371 F300
G1 X29.715667 Y0.02643799999999885 F300
G0 X28.286081 Y0.10092799999999613
G1 X27.959199367224635 Y0.13424454346830553 F300
G1 X27.66247246875 Y0.17546609374999544 F300
G1 X27.468369819268847 Y0.2092982100937305 F300
G1 X27.28366502175462 Y0.2473343415422093 F300
G1 X27.1070605 Y0.2896369999999955 F300
G1 X26.931948503855843 Y0.33784759623805416 F300
G1 X26.76145169337378 Y0.3912209165099449 F300
G1 X26.59448628125 Y0.4499606562499965 F300
G1 X26.429635109319968 Y0.51442735143385 F300
G1 X26.264943391285676 Y0.5852994690582386 F300
G1 X26.099391 Y0.6629569999999987 F300
G1 X25.925629693273365 Y0.752784426952283 F300
G1 X25.761693917624637 Y0.8475690134075479 F300
G1 X25.607250614507407 Y0.9470864000217363 F300
G1 X25.461990871783083 Y1.05115453785327 F300
G1 X25.325633032241267 Y1.1596322333837727 F300
G1 X25.19792581481482 Y1.2724174814814815 F300
G1 X25.07405505353573 Y1.3942124257661632 F300
G1 X24.959431138180474 Y1.5201813100502892 F300
G1 X24.85382431067441 Y1.6502832726201795 F300
G1 X24.757050030008216 Y1.7845174824734682 F300
G1 X24.668972426891937 Y1.922920083260256 F300
G1 X24.58950751851852 Y2.065560851851851 F300
G1 X24.51847974387414 Y2.2128676480029945 F300
G1 X24.45626750743852 Y2.3642184765430816 F300
G1 X24.402877376253915 Y2.519744471316365 F300
G1 X24.358378303858593 Y2.6796016686275306 F300
G1 X24.322903688537366 Y2.8439666301245357 F300
G1 X24.296653 Y3.0130319999999955 F300
G1 X24.27481909801526 Y3.1588728031605817 F300
G1 X24.256685814814816 Y3.2330837407407356 F300
G1 X24.24331908310189 Y3.2622549639793363 F300
G1 X24.231866549932132 Y3.2731687787064456 F300
G1 X24.220888557179563 Y3.2739297188390255 F300
G1 X24.20742885185185 Y3.2648259259259205 F300
G1 X24.190639866504075 Y3.2420407582526565 F300
G1 X24.167404437322297 Y3.1963931712068216 F300
G1 X24.135239 Y3.1170469999999924 F300
G1 X24.090332818144365 Y3.0067900107002203 F300
G1 X24.030423687499997 Y2.875951109374994 F300
G1 X23.96390331523603 Y2.742313190629669 F300
G1 X23.889643999999997 Y2.602768624999995 F300
G1 X23.811718857172774 Y2.4650595648900495 F300
G1 X23.7341163125 Y2.336150328124995 F300
G1 X23.65518970052316 Y2.2140206943129304 F300
G1 X23.585057 Y2.114746999999994 F300
G1 X23.44390361616385 Y1.9353048206065477 F300
G1 X23.29575064717341 Y1.7656096324341652 F300
G1 X23.14061657690803 Y1.6053947032346172 F300
G1 X22.978476104594293 Y1.4544348671266554 F300
G1 X22.809262362749813 Y1.3125487264751232 F300
G1 X22.632869370370376 Y1.1796006666666632 F300
G1 X22.45029796620563 Y1.0562329730385287 F300
G1 X22.260632041334933 Y0.9417462534547137 F300
G1 X22.063702753426615 Y0.8361076929827477 F300
G1 X21.859311973162157 Y0.7393326188903815 F300
G1 X21.64723521524359 Y0.6514854401665148 F300
G1 X21.42722462962963 Y0.572680333333329 F300
G1 X21.20774551373462 Y0.5055299026511028 F300
G1 X20.980744684012404 Y0.4471737328151598 F300
G1 X20.74597104734017 Y0.39780328619838773 F300
G1 X20.503160856591755 Y0.3576533608604832 F300
G1 X20.25204013036063 Y0.32700195516249836 F300
G1 X19.992327 Y0.3061699999999945 F300
G1 X19.771791739204634 Y0.2973624419116467 F300
G1 X19.533502040000005 Y0.2963939759999952 F300
G1 X19.29130454066541 Y0.3030734327305825 F300
G1 X19.04145172 Y0.317179407999995 F300
G1 X18.79108972831195 Y0.33823814447106276 F300
G1 X18.54302028 Y0.3659005519999945 F300
G1 X18.297862556943265 Y0.4002166089849782 F300
G1 X18.06505196 Y0.43993166399999445 F300
G1 X17.83860596042141 Y0.4864093975281887 F300
G1 X17.634391 Y0.536646999999995 F300
G1 X17.538661 Y0.5624269999999925 F300
G1 X17.538661 Y1.5059889999999925 F300
G1 X17.54016959375 Y1.872332218749992 F300
G1 X17.54427975 Y2.1722882499999914 F300
G1 X17.550368031250002 Y2.3749066562499905 F300
G1 X17.55522800886189 Y2.4406921788061413 F300
G1 X17.557811 Y2.4492369999999895 F300
G1 X17.598939777777783 Y2.440315074074064 F300
G1 X17.68835988888889 Y2.417341592592582 F300
G1 X17.806712 Y2.3852369999999894 F300
G1 X18.026667309040178 Y2.3284823261261907 F300
G1 X18.240751658074974 Y2.2815146223630047 F300
G1 X18.448957198180143 Y2.243955836320784 F300
G1 X18.651293435958433 Y2.215457294533938 F300
G1 X18.847784111111114 Y2.1957006296296186 F300
G1 X19.049661769000334 Y2.1839857978764323 F300
G1 X19.244355055333834 Y2.1814557896256144 F300
G1 X19.43197343661806 Y2.1877514719574567 F300
G1 X19.612635562869315 Y2.202558641604678 F300
G1 X19.78646422222222 Y2.225609370370359 F300
G1 X19.962439585769378 Y2.258590899154859 F300
G1 X20.13044929315102 Y2.300109534809258 F300
G1 X20.290702869675705 Y2.349929507542174 F300
G1 X20.443395352585313 Y2.407884163273674 F300
G1 X20.588699000000002 Y2.4738769999999874 F300
G1 X20.734721251873015 Y2.5508317143659833 F300
G1 X20.867423390440884 Y2.630649305239984 F300
G1 X20.988425037037043 Y2.713914148148136 F300
G1 X21.103595808070153 Y2.8049091193512274 F300
G1 X21.210354799739093 Y2.9020410163870887 F300
G1 X21.309811962962964 Y3.006191518518507 F300
G1 X21.401960608394102 Y3.1169636472998867 F300
G1 X21.489812174967824 Y3.2377971582794913 F300
G1 X21.574116000000004 Y3.3700379999999868 F300
G1 X21.61536559972579 Y3.444368884551788 F300
G1 X21.660251765625006 Y3.5355969218749865 F300
G1 X21.70276619451545 Y3.630843037273201 F300
G1 X21.742152375000007 Y3.7273206249999866 F300
G1 X21.77731594800575 Y3.8225039925368725 F300
G1 X21.803361046875004 Y3.902963015624986 F300
G1 X21.82218549539398 Y3.977109333206551 F300
G1 X21.827421000000005 Y4.020277999999983 F300
G1 X21.827421000000005 Y4.083357999999983 F300
G1 X18.382663000000004 Y4.083357999999983 F300
G1 X14.937903000000004 Y4.083357999999983 F300
G1 X14.920763000000004 Y4.19770399999998 F300
G1 X14.914855812500004 Y4.286459999999981 F300
G1 X14.911410500000004 Y4.443594249999982 F300
G1 X14.910691437500006 Y4.646908624999981 F300
G1 X14.912963000000005 Y4.874204999999982 F300
G1 X14.915690407407414 Y5.205811925925911 F300
G1 X14.91332252802723 Y5.320695861795345 F300
G1 X14.909182259259266 Y5.383546407407392 F300
G1 X14.903071611366325 Y5.420658284371976 F300
G1 X14.89733711213033 Y5.433629855949132 F300
G1 X14.892403000000005 Y5.436357999999984 F300
G1 X14.877771132767844 Y5.430505901649319 F300
G1 X14.847674125000005 Y5.406571499999983 F300
G1 X14.816852580896056 Y5.37557428003964 F300
G1 X14.782162000000005 Y5.334955999999984 F300
G1 X14.714503037037046 Y5.263379666666651 F300
G1 X14.614324962962968 Y5.173205333333316 F300
G1 X14.503316000000005 Y5.083954999999982 F300
G1 X14.403667084815678 Y5.012736406986121 F300
G1 X14.29514251240121 Y4.943147831161905 F300
G1 X14.176098560000009 Y4.874898727999985 F300
G1 X14.054219977297889 Y4.812289546004777 F300
G1 X13.918352197572185 Y4.749561046366988 F300
G1 X13.766291360000007 Y4.6864642639999845 F300
G1 X13.5286092053409 Y4.599368814258388 F300
G1 X13.245410480000004 Y4.508944135999984 F300
G1 X12.943394180316194 Y4.423642449905727 F300
G1 X12.584972000000004 Y4.332630871999983 F300
G1 X12.204303791214913 Y4.244299909173382 F300
G1 X11.756492000000005 Y4.147816999999982 F300
G1 X11.335086205546 Y4.056507365919198 F300
G1 X10.991546776000007 Y3.9750259839999833 F300
G1 X10.674219394091338 Y3.8904482912293874 F300
G1 X10.424384448000005 Y3.8134020719999824 F300
G1 X10.266401796570841 Y3.756974812743349 F300
G1 X10.135643252693287 Y3.7032647632062408 F300
G1 X10.027889432000006 Y3.6519003679999815 F300
G1 X9.923810749580475 Y3.5929800237152287 F300
G1 X9.840778966661107 Y3.5356373711071756 F300
G1 X9.774946144000005 Y3.479475975999982 F300
G1 X9.716503952238998 Y3.41599612681802 F300
G1 X9.6717665279708 Y3.351471758146312 F300
G1 X9.638439000000005 Y3.2850839999999835 F300
G1 X9.619195202999252 Y3.227165849509406 F300
G1 X9.604914468750005 Y3.1567894999999826 F300
G1 X9.597007450790146 Y3.082927626430445 F300
G1 X9.594852750000006 Y3.0048947499999823 F300
G1 X9.598598398472632 Y2.9269246485309814 F300
G1 X9.608009156250004 Y2.8532583749999825 F300
G1 X9.623721587697835 Y2.7832123631749175 F300
G1 X9.644139000000004 Y2.725738999999983 F300
G1 X9.67616328845311 Y2.6639423837708445 F300
G1 X9.717094705417326 Y2.6033901100001575 F300
G1 X9.767211094135352 Y2.5440810994021965 F300
G1 X9.82692096296297 Y2.486134962962947 F300
G1 X9.91320585520911 Y2.417871212339767 F300
G1 X10.013894593007208 Y2.3536471853201775 F300
G1 X10.129503370370376 Y2.2942827037036877 F300
G1 X10.249713183523108 Y2.2448287489425507 F300
G1 X10.381707117842819 Y2.202035491927301 F300
G1 X10.525484000000004 Y2.1669219999999854 F300
G1 X10.61111555650676 Y2.1511301089645958 F300
G1 X10.701263000000004 Y2.1385612592592436 F300
G1 X10.794811787639796 Y2.1294693993440656 F300
G1 X10.902947333333337 Y2.122929407407391 F300
G1 X11.156699000000003 Y2.118001999999983 F300
G1 X11.363968991523981 Y2.121476301416935 F300
G1 X11.577436937388622 Y2.132256658466257 F300
G1 X11.7965997695334 Y2.150373095113251 F300
G1 X12.020915687500002 Y2.175862640624982 F300
G1 X12.31740124092047 Y2.2197807647114924 F300
G1 X12.61735796855194 Y2.2756107620680655 F300
G1 X12.919238250000003 Y2.343140874999982 F300
G1 X13.218539567199603 Y2.421363352947676 F300
G1 X13.513998408768295 Y2.509888361228005 F300
G1 X13.804052937500003 Y2.6082931718749824 F300
G1 X14.090196463728079 Y2.717414861946514 F300
G1 X14.365192669613105 Y2.8347630550351064 F300
G1 X14.627746000000004 Y2.9597759999999838 F300
G1 X14.832621000000003 Y3.062784999999984 F300
G1 X14.832621000000003 Y1.9667929999999814 F300
G1 X14.832621000000003 Y0.8708009999999788 F300
G1 X14.507134000000002 Y0.7435739999999811 F300
G1 X14.227889557108819 Y0.6390678142696808 F300
G1 X13.948809781142913 Y0.5437484632696842 F300
G1 X13.670336429168522 Y0.4575459210471992 F300
G1 X13.3928961875 Y0.3804027812499795 F300
G1 X13.111959149998047 Y0.3111327256705415 F300
G1 X12.834035024911207 Y0.2513890352963095 F300
G1 X12.559517028329466 Y0.20104697879834887 F300
G1 X12.288778500000001 Y0.15999649999997878 F300
G1 X12.014895148930371 Y0.12739498506717223 F300
G1 X11.746882380071591 Y0.10449632903792688 F300
G1 X11.485035712718558 Y0.09111347234096286 F300
G1 X11.2296270625 Y0.08707996874997903 F300
G1 X10.971794190643347 Y0.0926191613789989 F300
G1 X10.722535430705559 Y0.10783404693606403 F300
G1 X10.48199317043804 Y0.132487980189206 F300
G1 X10.250288000000001 Y0.16637799999998037 F300
G1 X10.017670854590577 Y0.21085801213852148 F300
G1 X9.792503351597366 Y0.2639909973754439 F300
G1 X9.57479075600158 Y0.3253151541329064 F300
G1 X9.364538953703708 Y0.3944169768518324 F300
G1 X9.15598281048659 Y0.4732576632185756 F300
G1 X8.956154844081249 Y0.5592290685662595 F300
G1 X8.765020837518806 Y0.6519262637956 F300
G1 X8.582554629629634 Y0.7509934814814619 F300
G1 X8.403617792405495 Y0.8593943594048983 F300
G1 X8.234608730194449 Y0.9734145300577287 F300
G1 X8.07544669761864 Y1.0927233440358766 F300
G1 X7.926071250000001 Y1.21704187499998 F300
G1 X7.782442189987972 Y1.3500526303515006 F300
G1 X7.64975635261894 Y1.4872685143394735 F300
G1 X7.527905797996059 Y1.6284713109212134 F300
G1 X7.4168250370370385 Y1.7734965185184979 F300
G1 X7.314205814101031 Y1.9258705004278978 F300
G1 X7.223310742453384 Y2.081323454351864 F300
G1 X7.144084623114804 Y2.239799419092049 F300
G1 X7.076552212962963 Y2.401291773148126 F300
G1 X7.030599239231126 Y2.5340136195978857 F300
G1 X6.992574310049914 Y2.6683138801019597 F300
G1 X6.962543224114269 Y2.8042537000718446 F300
G1 X6.940623765348908 Y2.941908138989603 F300
G1 X6.926989000000001 Y3.081361999999977 F300
G1 X6.913690353652105 Y3.2206926770492306 F300
G1 X6.9006260814627245 Y3.2871120992259506 F300
G1 X6.889527021771203 Y3.3120643223871857 F300
G1 X6.8805890000000005 Y3.317497999999979 F300
G1 X6.8715029499568505 Y3.31280468635115 F300
G1 X6.85241088888889 Y3.2916315555555347 F300
G1 X6.8079174444444455 Y3.223819777777755 F300
G1 X6.756740000000001 Y3.128743999999976 F300
G1 X6.6706520783996615 Y2.967206464694375 F300
G1 X6.565985140625001 Y2.793894906249976 F300
G1 X6.451100213148955 Y2.62207546052947 F300
G1 X6.324927125 Y2.4493634999999765 F300
G1 X6.191689755855345 Y2.281599745124978 F300
G1 X6.054946296875 Y2.1232085937499767 F300
G1 X5.913691863815678 Y1.9736743555807872 F300
G1 X5.777423000000001 Y1.8434889999999768 F300
G1 X5.589616323912673 Y1.6813483392972293 F300
G1 X5.3964643278577595 Y1.5286622032018327 F300
G1 X5.197750111304812 Y1.3852136816873895 F300
G1 X4.99323476553327 Y1.2508188140161802 F300
G1 X4.782657404739202 Y1.125326931662939 F300
G1 X4.565735280958019 Y1.0086208837946502 F300
G1 X4.342163971363605 Y0.9006171377792124 F300
G1 X4.111617625000001 Y0.8012657499999785 F300
G1 X3.882184684948256 Y0.7135729921455227 F300
G1 X3.6453088899894777 Y0.6338453708221652 F300
G1 X3.400614927304578 Y0.5621557512309844 F300
G1 X3.147709929272976 Y0.49860609536686284 F300
G1 X2.886183762756297 Y0.44332679169224526 F300
G1 X2.615609284314309 Y0.3964759028956011 F300
G1 X2.335542553753684 Y0.3582383435653011 F300
G1 X2.0455230000000006 Y0.3288249999999735 F300
G1 X1.906445496511074 Y0.31945732757116635 F300
G1 X1.7418278425925937 Y0.31288944444441813 F300
G1 X1.5707930041848548 Y0.30965990034206325 F300
G1 X1.386803074074075 Y0.3093338888888629 F300
G1 X1.0145132500000005 Y0.31697499999997447 F300
G1 X0.6590229259259265 Y0.3346294444444193 F300
G1 X0.49408041850391754 Y0.34720230810557867 F300
G1 X0.3543966574074081 Y0.3611138888888637 F300
G1 X0.22562064627064404 Y0.37826224793994306 F300
G1 X0.13469900000000068 Y0.3952449999999743 F300
G1 X0.07725900000000058 Y0.4082549999999756 F300
G1 X0.07725400000000057 Y1.320407999999972 F300
G1 X0.07724800000000057 Y2.2325569999999715 F300
G1 X0.6835530000000005 Y2.2325569999999715 F300
G1 X0.9545808560000008 Y2.233732999999972 F300
G1 X1.1530431280000004 Y2.238364999999972 F300
G1 X1.3047096720000004 Y2.248108999999972 F300
G1 X1.4353503440000006 Y2.264620999999973 F300
G1 X1.5707350000000004 Y2.2895569999999736 F300
G1 X1.7686550631929854 Y2.334184636615455 F300
G1 X1.9592301476977245 Y2.385971841022311 F300
G1 X2.14253792937766 Y2.444556598777537 F300
G1 X2.3186533503958797 Y2.5096196141906497 F300
G1 X2.48764478125 Y2.5808826562499725 F300
G1 X2.655723353207701 Y2.6612265448848014 F300
G1 X2.8155309168797102 Y2.74738283002332 F300
G1 X2.967181024628567 Y2.8390802364639858 F300
G1 X3.1107716897702162 Y2.9360931149811873 F300
G1 X3.2463805 Y3.0382389999999724 F300
G1 X3.37800226252177 Y3.1488742529993288 F300
G1 X3.500646704659985 Y3.2641557042063813 F300
G1 X3.6144227465106145 Y3.38394424274129 F300
G1 X3.719401766421041 Y3.5081475423410735 F300
G1 X3.8156114687500002 Y3.636716093749973 F300
G1 X3.9043359125334955 Y3.7717669750144562 F300
G1 X3.9835768519830865 Y3.9107070893659692 F300
G1 X4.053330870275314 Y4.053571419190992 F300
G1 X4.113524357283028 Y4.200434487120597 F300
G1 X4.164007 Y4.351403999999974 F300
G1 X4.182266430361522 Y4.4239181920132 F300
G1 X4.199308520000001 Y4.516471055999976 F300
G1 X4.21267558414113 Y4.614280230095586 F300
G1 X4.22347836 Y4.722287087999975 F300
G1 X4.2309445307701194 Y4.832073222438046 F300
G1 X4.23509044 Y4.941885791999974 F300
G1 X4.235721600894529 Y5.0501798477356195 F300
G1 X4.23271868 Y5.148300863999973 F300
G1 X4.225484860564504 Y5.2414808262922135 F300
G1 X4.214937 Y5.314565999999971 F300
G1 X4.1765053099897935 Y5.484579973867509 F300
G1 X4.126812129288081 Y5.649274497989005 F300
G1 X4.066118726274166 Y5.808874843614091 F300
G1 X3.994575569304629 Y5.963570129441053 F300
G1 X3.9122291093749997 Y6.113504328124987 F300
G1 X3.820210077096204 Y6.257055850247674 F300
G1 X3.717935701296542 Y6.3954795187205145 F300
G1 X3.6053412329583208 Y6.528799421968682 F300
G1 X3.482290837498886 Y6.656982731406485 F300
G1 X3.3485856249999997 Y6.779933874999996 F300
G1 X3.209676625595752 Y6.893118454939428 F300
G1 X3.0610465541526946 Y7.00066607021737 F300
G1 X2.902495888344256 Y7.102392804078297 F300
G1 X2.73379004942555 Y7.198054675569573 F300
G1 X2.554666078125 Y7.287344484375 F300
G1 X2.374783637587387 Y7.365849332480261 F300
G1 X2.1857039406571563 Y7.437657810759005 F300
G1 X1.9872173550373367 Y7.502429900589359 F300
G1 X1.7791022684645013 Y7.55977017522982 F300
G1 X1.56113 Y7.609226 F300
G1 X1.4668624922115656 Y7.625314576623244 F300
G1 X1.3412809040000002 Y7.640974960000001 F300
G1 X1.207685717060017 Y7.653545935216227 F300
G1 X1.058602352 Y7.664173679999999 F300
G1 X0.7559690479999999 Y7.677003919999998 F300
G1 X0.6077551625178974 Y7.678969197230929 F300
G1 X0.47625569599999995 Y7.677647439999998 F300
G1 X0.3529822480475557 Y7.672491303444897 F300
G1 X0.262337 Y7.664285999999997 F300
G1 X0.07726799999999998 Y7.6410160000000005 F300
G1 X0.07726799999999998 Y8.552166 F300
G1 X0.07726799999999998 Y9.463308999999999 F300
G1 X0.17299799999999999 Y9.478338999999998 F300
G1 X0.2630695089428855 Y9.490419944225478 F300
G1 X0.38358300800000006 Y9.50262092 F300
G1 X0.660278944 Y9.52209996 F300
G1 X0.971449776 Y9.535422039999998 F300
G1 X1.285459472 Y9.541233080000001 F300
G1 X1.570672 Y9.538179 F300
G1 X1.8516694896339658 Y9.525628918389188 F300
G1 X2.1209241986158833 Y9.505604647900624 F300
G1 X2.379455103633473 Y9.47826309696825 F300
G1 X2.6282264444444445 Y9.443750481481484 F300
G1 X2.878050674309255 Y9.400302835211772 F300
G1 X3.12049509255153 Y9.349061758494768 F300
G1 X3.356400402981857 Y9.290019974295921 F300
G1 X3.5865762222222224 Y9.223150851851852 F300
G1 X3.8145923538461464 Y9.147422609425776 F300
G1 X4.039368073043715 Y9.063135425866683 F300
G1 X4.261616409270495 Y8.970079093804486 F300
G1 X4.482046 Y8.868019 F300
G1 X4.67616448728649 Y8.769556023386937 F300
G1 X4.860206834254021 Y8.667516271848385 F300
G1 X5.035342000000002 Y8.56139588888889 F300
G1 X5.206051444339565 Y8.448369194530446 F300
G1 X5.370935980805747 Y8.329167515289187 F300
G1 X5.5309420000000005 Y8.203132777777778 F300
G1 X5.685745917595806 Y8.070701014154096 F300
G1 X5.83861913969339 Y7.929171306945786 F300
G1 X5.990404000000001 Y7.777645 F300
G1 X6.123544274886875 Y7.634799612077901 F300
G1 X6.2464205299017825 Y7.492639261387898 F300
G1 X6.359644832405497 Y7.350727420910527 F300
G1 X6.4637894074074085 Y7.2086414814814805 F300
G1 X6.562455311414527 Y7.061163458842001 F300
G1 X6.652969889069086 Y6.911860577187661 F300
G1 X6.735723128356068 Y6.7602541653717845 F300
G1 X6.811071925925926 Y6.605859518518517 F300
G1 X6.879291617505871 Y6.448305711509165 F300
G1 X6.9410041262826185 Y6.286221267753375 F300
G1 X6.9963836748122725 Y6.119036567645404 F300
G1 X7.045584000000001 Y5.946157999999997 F300
G1 X7.091087261835204 Y5.755288225416317 F300
G1 X7.125553000000001 Y5.571037740740739 F300
G1 X7.150254896678761 Y5.385773968279951 F300
G1 X7.165612000000001 Y5.194105259259256 F300
G1 X7.171758183253537 Y4.997891208066105 F300
G1 X7.169325000000001 Y4.781820999999994 F300
G1 X7.1646246875 Y4.584217906249994 F300
G1 X7.167002500000001 Y4.473789749999994 F300
G1 X7.172267074146415 Y4.440697862678098 F300
G1 X7.1786540625000015 Y4.425726718749994 F300
G1 X7.188594163946603 Y4.417349479427671 F300
G1 X7.2017750000000005 Y4.415218999999993 F300
G1 X7.219667885720533 Y4.417757424311992 F300
G1 X7.23609125 Y4.424623999999993 F300
G1 X7.249644016698339 Y4.435120135906767 F300
G1 X7.257545 Y4.447228999999993 F300
G1 X7.2804118888888905 Y4.483858481481474 F300
G1 X7.328626777777778 Y4.54911151851851 F300
G1 X7.391711000000001 Y4.6288649999999905 F300
G1 X7.473369378857999 Y4.721456887197002 F300
G1 X7.568361211504072 Y4.814366737910734 F300
G1 X7.677769249698825 Y4.907653149350424 F300
G1 X7.8027797138074995 Y5.001312258261031 F300
G1 X7.944671455607917 Y5.095279422902569 F300
G1 X8.104806362584712 Y5.189431445338217 F300
G1 X8.284621000000001 Y5.283588999999992 F300
G1 X8.453618289340914 Y5.364177703578308 F300
G1 X8.622305936000004 Y5.438083607999994 F300
G1 X8.794528117326998 Y5.506560292008813 F300
G1 X8.979355128000002 Y5.572686583999993 F300
G1 X9.171706340264636 Y5.634528099344427 F300
G1 X9.389658352000001 Y5.697725655999991 F300
G1 X9.61927396200334 Y5.758343631221068 F300
G1 X9.887105384000002 Y5.823528551999992 F300
G1 X10.170870713297026 Y5.888123035252919 F300
G1 X10.505586000000001 Y5.960422999999992 F300
G1 X10.886061020911193 Y6.043012594839895 F300
G1 X11.193915296875 Y6.114264062499991 F300
G1 X11.477954836530843 Y6.185777931093829 F300
G1 X11.701067375000001 Y6.248337749999992 F300
G1 X11.90400697935342 Y6.313502253840438 F300
G1 X12.057738515625001 Y6.371795562499993 F300
G1 X12.153591354286863 Y6.414619798187957 F300
G1 X12.231420424773061 Y6.455162928255287 F300
G1 X12.294625000000002 Y6.4937889999999925 F300
G1 X12.344812832843852 Y6.530034812108383 F300
G1 X12.386051062108791 Y6.565983109836169 F300
G1 X12.419639074074079 Y6.602239555555549 F300
G1 X12.448444365935309 Y6.642175109631397 F300
G1 X12.471211738283904 Y6.684754297032944 F300
G1 X12.488443592592596 Y6.730922111111106 F300
G1 X12.499964245806868 Y6.779024793378198 F300
G1 X12.506995715828918 Y6.833351687164801 F300
G1 X12.509319000000001 Y6.895323999999995 F300
G1 X12.50358381115042 Y6.970601515878509 F300
G1 X12.486931703282615 Y7.043666163522423 F300
G1 X12.459483284435292 Y7.115004299451546 F300
G1 X12.420958575812817 Y7.184994240692814 F300
G1 X12.37072903703704 Y7.253860444444443 F300
G1 X12.315044478273599 Y7.314633724324603 F300
G1 X12.249123607115864 Y7.37383916143191 F300
G1 X12.172315070438783 Y7.431308067907555 F300
G1 X12.08387819859034 Y7.486746202472315 F300
G1 X11.983011962962964 Y7.539726222222219 F300
G1 X11.857891223974077 Y7.59402178315925 F300
G1 X11.717280786046269 Y7.643360537398037 F300
G1 X11.560357186017313 Y7.686832940804308 F300
G1 X11.386312000000002 Y7.723335999999996 F300
G1 X11.293918737456027 Y7.736823839071239 F300
G1 X11.177682376000005 Y7.7480742399999984 F300
G1 X11.055175814216867 Y7.755585297776116 F300
G1 X10.919089648000002 Y7.760151519999997 F300
G1 X10.780298473291507 Y7.7614594614202455 F300
G1 X10.638446632000003 Y7.759619679999995 F300
G1 X10.497304835702137 Y7.754580946563086 F300
G1 X10.363666144000003 Y7.746530559999995 F300
G1 X10.234238025770585 Y7.734979138788118 F300
G1 X10.122661000000003 Y7.720935999999995 F300
G1 X9.941714341346424 Y7.691174570852333 F300
G1 X9.755713750000002 Y7.654827421874995 F300
G1 X9.570222371014482 Y7.613127717530312 F300
G1 X9.388156000000002 Y7.566917374999996 F300
G1 X9.209456420367967 Y7.516156115354125 F300
G1 X9.042771250000001 Y7.463326890624995 F300
G1 X8.882412003127058 Y7.406395743245332 F300
G1 X8.742343000000002 Y7.350176999999995 F300
G1 X8.656264250000001 Y7.314664499999996 F300
G1 X8.614062000000002 Y7.299896999999994 F300
G1 X8.61270053279905 Y7.307950870554835 F300
G1 X8.610352625000003 Y7.374903359374994 F300
G1 X8.608312000000002 Y7.579128624999996 F300
G1 X8.608071375000002 Y7.881382078124997 F300
G1 X8.609762000000002 Y8.250472999999996 F300
G1 X8.616462000000002 Y9.201067999999996 F300
G1 X8.871744000000001 Y9.271887999999997 F300
G1 X9.099000780892851 Y9.331371966920775 F300
G1 X9.323714453572757 Y9.383002272504347 F300
G1 X9.547125444444447 Y9.427065962962962 F300
G1 X9.771810996420609 Y9.464034596724327 F300
G1 X9.999262837492534 Y9.494063221628572 F300
G1 X10.23074288888889 Y9.517241037037035 F300
G1 X10.46279183705344 Y9.53338683963187 F300
G1 X10.70303068997437 Y9.543139741988014 F300
G1 X10.952907000000002 Y9.546410999999996 F300
G1 X11.208124401479312 Y9.542766043229305 F300
G1 X11.450628028205733 Y9.532015964570473 F300
G1 X11.681358278553168 Y9.51442817892768 F300
G1 X11.901203222222225 Y9.490255703703701 F300
G1 X12.123182711539895 Y9.457724694363979 F300
G1 X12.335734334105242 Y9.418139919439831 F300
G1 X12.539655865091701 Y9.371642616276583 F300
G1 X12.735704111111113 Y9.318349962962959 F300
G1 X12.930689473042584 Y9.25626976346482 F300
G1 X13.119554831413573 Y9.18680972142105 F300
G1 X13.302939229902883 Y9.109923169303169 F300
G1 X13.481457000000002 Y9.025533999999997 F300
G1 X13.684967156781815 Y8.916855845518116 F300
G1 X13.873347105639061 Y8.802460520870673 F300
G1 X14.047300278761831 Y8.682649328895426 F300
G1 X14.207474773150798 Y8.557645270905 F300
G1 X14.354455981751848 Y8.42759486892264 F300
G1 X14.488759125000003 Y8.292570624999996 F300
G1 X14.599201060174636 Y8.166743926459574 F300
G1 X14.699730037925457 Y8.037187559765108 F300
G1 X14.790620268825787 Y7.903848744729853 F300
G1 X14.872084795878832 Y7.766631737360788 F300
G1 X14.944271637029935 Y7.625401054832197 F300
G1 X15.00726033655695 Y7.47998508249535 F300
G1 X15.061059000000002 Y7.330179999999999 F300
G1 X15.103833814814822 Y7.184694259259259 F300
G1 X15.139090851851856 Y7.040960074074074 F300
G1 X15.159199000000003 Y6.9300950000000014 F300
G1 X15.171250168352731 Y6.850820525559238 F300
G1 X15.183047750000004 Y6.808244375000002 F300
G1 X15.194777019208718 Y6.7861073184958745 F300
G1 X15.207493910353488 Y6.774196050152058 F300
G1 X15.221979000000003 Y6.768671000000005 F300
G1 X15.239926280189234 Y6.7679051352387285 F300
G1 X15.253482750000003 Y6.771869750000005 F300
G1 X15.26313406444499 Y6.780126448812158 F300
G1 X15.266589000000003 Y6.7915610000000015 F300
G1 X15.272822456463814 Y6.818958681602191 F300
G1 X15.299841144000007 Y6.887690968000002 F300
G1 X15.384809352000003 Y7.0675673040000015 F300
G1 X15.499311288000003 Y7.288407656 F300
G1 X15.621164616000005 Y7.5074296720000016 F300
G1 X15.728187000000004 Y7.681851000000002 F300
G1 X15.80874928038055 Y7.794245337666719 F300
G1 X15.912525125000004 Y7.924374203125003 F300
G1 X16.025294958087624 Y8.05490309808474 F300
G1 X16.149211750000003 Y8.189112875000003 F300
G1 X16.27747568247676 Y8.319560139704404 F300
G1 X16.403929500000004 Y8.440060359375002 F300
G1 X16.530782832240345 Y8.55202686779033 F300
G1 X16.642361000000005 Y8.641210000000001 F300
G1 X16.811313486817387 Y8.76075810502441 F300
G1 X16.98941187721146 Y8.872569360053202 F300
G1 X17.176867623537657 Y8.976596872703546 F300
G1 X17.37392648414772 Y9.0727375838548 F300
G1 X17.580863500000007 Y9.160831375 F300
G1 X17.788454152400384 Y9.237410214591302 F300
G1 X18.005190672230086 Y9.30604474672641 F300
G1 X18.231325616712205 Y9.366502279210376 F300
G1 X18.467124078335623 Y9.418503389056509 F300
G1 X18.712860000000006 Y9.461722000000002 F300
G1 X18.822800509807653 Y9.475953224452843 F300
G1 X18.959792708333342 Y9.488455226851855 F300
G1 X19.104087206790492 Y9.497645006916251 F300
G1 X19.26435900000001 Y9.504424481481486 F300
G1 X19.596532125000007 Y9.509644125000003 F300
G1 X19.92628533333334 Y9.504128518518522 F300
G1 X20.08381976783057 Y9.49718847154717 F300
G1 X20.223591875000004 Y9.487892023148149 F300
G1 X20.355429780443636 Y9.475213519306017 F300
G1 X20.458425000000005 Y9.460949000000003 F300
G1 X20.707913553796097 Y9.413467353775635 F300
G1 X20.949905923786805 Y9.35579461125428 F300
G1 X21.184534384711625 Y9.288261992684424 F300
G1 X21.41192159435515 Y9.211147908737951 F300
G1 X21.632176593750007 Y9.124679468750003 F300
G1 X21.84990528917364 Y9.026874673286871 F300
G1 X22.05974418179403 Y8.919964868768117 F300
G1 X22.261795308292285 Y8.80412670663081 F300
G1 X22.456136678735312 Y8.679486131138184 F300
G1 X22.642818000000002 Y8.546120750000004 F300
G1 X22.823087664469064 Y8.403033332893967 F300
G1 X22.995076905298472 Y8.251591698712332 F300
G1 X23.158804741595738 Y8.091814710611859 F300
G1 X23.314250682905204 Y7.923676929591425 F300
G1 X23.461350656250005 Y7.747111906250003 F300
G1 X23.59874292674423 Y7.563777139953559 F300
G1 X23.72732742510467 Y7.37248470357295 F300
G1 X23.846985273308565 Y7.173113930280217 F300
G1 X23.957544358035328 Y6.965510825333719 F300
G1 X24.058776000000005 Y6.749492000000004 F300
G1 X24.138233710782494 Y6.555213955780946 F300
G1 X24.208950892421605 Y6.354895055937808 F300
G1 X24.27093474355091 Y6.147961874540214 F300
G1 X24.324150125000006 Y5.933812125000005 F300
G1 X24.367207453668456 Y5.719221812988508 F300
G1 X24.401963509593294 Y5.496109313560966 F300
G1 X24.428213048103288 Y5.263787055035566 F300
G1 X24.445717000000005 Y5.021533000000005 F300
G1 X24.45682485234316 Y4.858292865220363 F300
G1 X24.4681855925926 Y4.76753555555556 F300
G1 X24.48167832220556 Y4.716519250003078 F300
G1 X24.493882751702245 Y4.6993447183345225 F300
G1 X24.505725740740747 Y4.69777744444445 F300
G1 X24.519237709327037 Y4.707211078163919 F300
G1 X24.53932576070406 Y4.734604154338978 F300
G1 X24.569369000000005 Y4.791778000000008 F300
G1 X24.60575784698171 Y4.860539710987904 F300
G1 X24.654168900723114 Y4.938195628154579 F300
G1 X24.715057140625 Y5.0243903750000065 F300
G1 X24.81487610765655 Y5.149997252001104 F300
G1 X24.932083125000002 Y5.281728750000006 F300
G1 X25.057435491637854 Y5.409080369791253 F300
G1 X25.188518796875 Y5.529703750000007 F300
G1 X25.32381535734697 Y5.6412934639210075 F300
G1 X25.452436000000006 Y5.734226000000007 F300
G1 X25.663424341655507 Y5.867886119576683 F300
G1 X25.88189954400001 Y5.9911500240000075 F300
G1 X26.03137616011757 Y6.066983762280095 F300
G1 X26.191042847124212 Y6.1410809975549405 F300
G1 X26.363186192000008 Y6.213933472000007 F300
G1 X26.53730939701456 Y6.2812846574071575 F300
G1 X26.729388521677034 Y6.349435048744056 F300
G1 X26.942462968000005 Y6.418912808000005 F300
G1 X27.273551506968637 Y6.517093979120602 F300
G1 X27.665896896000007 Y6.622424496000005 F300
G1 X28.08346853282927 Y6.72571667709849 F300
G1 X28.579655000000006 Y6.840805000000003 F300
G1 X29.04494158437854 Y6.948330599406888 F300
G1 X29.42274265277779 Y7.041064583333338 F300
G1 X29.771417135488637 Y7.1343481153936015 F300
G1 X30.044875222222235 Y7.216574000000004 F300
G1 X30.217886438409366 Y7.275529031098432 F300
G1 X30.36062283832514 Y7.330613343551269 F300
G1 X30.477861125000008 Y7.382475250000002 F300
G1 X30.59177819711514 Y7.441742770532041 F300
G1 X30.68217404645276 Y7.498705644410299 F300
G1 X30.753508777777785 Y7.553910333333336 F300
G1 X30.817690039616878 Y7.61688109543263 F300
G1 X30.866803055818274 Y7.680607348150911 F300
G1 X30.903626597222228 Y7.746021250000001 F300
G1 X30.930930638048345 Y7.816188238356046 F300
G1 X30.949429472709404 Y7.891716249856911 F300
G1 X30.960023000000007 Y7.973950000000002 F300
G1 X30.96354034030565 Y8.055259771673166 F300
G1 X30.960422655978856 Y8.127934729578154 F300
G1 X30.950917666666676 Y8.193889370370373 F300
G1 X30.93408820818173 Y8.258192721681189 F300
G1 X30.909606167785345 Y8.3201427962427 F300
G1 X30.87672700000001 Y8.381168962962965 F300
G1 X30.837554969011066 Y8.438617314819547 F300
G1 X30.788007071441065 Y8.499074735470458 F300
G1 X30.726299000000008 Y8.563943000000002 F300
G1 X30.63726962995895 Y8.644756752708403 F300
G1 X30.54562481481483 Y8.713504518518523 F300
G1 X30.447411821655056 Y8.772938125474134 F300
G1 X30.337286851851864 Y8.825730481481486 F300
G1 X30.218866117484843 Y8.870594895756964 F300
G1 X30.078342000000006 Y8.912980000000001 F300
G1 X29.96437239062501 Y8.939300781250001 F300
G1 X29.844540875000007 Y8.955621250000002 F300
G1 X29.69669292187501 Y8.963986093750002 F300
G1 X29.498674000000005 Y8.966440000000002 F300
G1 X29.289030800878496 Y8.962317607843495 F300
G1 X29.095086171875003 Y8.949691390625002 F300
G1 X28.90538737494223 Y8.927568320924884 F300
G1 X28.722583125000003 Y8.895905625000003 F300
G1 X28.542046148755276 Y8.85396297605554 F300
G1 X28.359936765625 Y8.800787546875002 F300
G1 X28.177964214739134 Y8.737247902202716 F300
G1 X27.985919000000006 Y8.660042 F300
G1 X27.775109000000008 Y8.570112000000002 F300
G1 X27.701239000000008 Y8.630662000000001 F300
G1 X27.608586481481495 Y8.71018155555556 F300
G1 X27.43669751851853 Y8.860450444444448 F300
G1 X27.22278500000001 Y9.048934000000003 F300
G1 X26.87431581182075 Y9.351248599793994 F300
G1 X26.51721267272936 Y9.649634330793576 F300
G1 X26.151890068397044 Y9.943756490071838 F300
G1 X25.778766375000014 Y10.233271046875002 F300
G1 X25.40112577017468 Y10.5157233820545 F300
G1 X25.017654830542185 Y10.792210582704552 F300
G1 X24.628822008335664 Y11.062415512582625 F300
G1 X24.23509450000001 Y11.326016125000002 F300
G1 X23.836661316038636 Y11.582860577168757 F300
G1 X23.435312658453626 Y11.831790594078493 F300
G1 X23.03153752800748 Y12.072529401862152 F300
G1 X22.62581787500001 Y12.304798890625001 F300
G1 X22.21496367622958 Y12.53028789990725 F300
G1 X21.804225082136394 Y12.746000404478583 F300
G1 X21.39407803403677 Y12.951724345666268 F300
G1 X20.98498500000001 Y13.147249000000002 F300
G1 X20.503672203442516 Y13.366088955075696 F300
G1 X20.021035524016977 Y13.574568865725457 F300
G1 X19.536789771258366 Y13.772824384480254 F300
G1 X19.05064938456187 Y13.960983778358461 F300
G1 X18.562328109375002 Y14.13916796875 F300
G1 X18.070212749054544 Y14.307930863605101 F300
G1 X17.57483106742977 Y14.467039492270333 F300
G1 X17.07587947535224 Y14.61656533054366 F300
G1 X16.573051530177725 Y14.75657277953637 F300
G1 X16.066037625 Y14.88711925 F300
G1 X15.558022629753335 Y15.007462350454363 F300
G1 X15.044743527978953 Y15.118672097820127 F300
G1 X14.525871499061138 Y15.220756954080798 F300
G1 X14.001072524075244 Y15.313719017945552 F300
G1 X13.470007078125 Y15.39755415625 F300
G1 X12.94093806228831 Y15.471135271703497 F300
G1 X12.404577999065825 Y15.535914120019168 F300
G1 X11.86056843078164 Y15.591842015785248 F300
G1 X11.308543573049418 Y15.6388649985089 F300
G1 X10.74813 Y15.676924 F300
G1 X10.398014069970849 Y15.691471396501463 F300
G1 X9.94704480466472 Y15.701117457725948 F300
G1 X9.436043562682213 Y15.705872276967927 F300
G1 X8.905831702623907 Y15.705745947521866 F300
G1 X8.397230583090378 Y15.700748562682215 F300
G1 X7.951061562682216 Y15.690890215743439 F300
G1 X7.608146 Y15.676181 F300
G1 X7.093213417169819 Y15.640414923168223 F300
G1 X6.587026187038873 Y15.597356672231797 F300
G1 X6.090163375622421 Y15.547277450793771 F300
G1 X5.603180328125 Y15.490438625 F300
G1 X5.113254911169009 Y15.425203399506712 F300
G1 X4.63655133835268 Y15.353612066933932 F300
G1 X4.173500876914501 Y15.275987470996391 F300
G1 X3.724499375 Y15.192638 F300
G1 X3.271662542105818 Y15.0999469168307 F300
G1 X2.836478801880931 Y15.002047095862808 F300
G1 X2.4191435931023024 Y14.899307562899029 F300
G1 X2.019806234375 Y14.792076125000001 F300
G1 X1.616309162998439 Y14.673880085515028 F300
G1 X1.2347623997033434 Y14.55188037779001 F300
G1 X0.8750001037579236 Y14.426480125393482 F300
G1 X0.536804 Y14.29805 F300
G1 X0.4510999377329457 Y14.265180831003677 F300
G1 X0.428086625 Y14.25877625 F300
G1 X0.425210996096665 Y14.262177022516859 F300
G1 X0.459044 Y14.29175 F300
G1 X0.5317200915832575 Y14.345173757784455 F300
G1 X0.6431574351851853 Y14.419815935185188 F300
G1 X0.9215818148148149 Y14.592085148148149 F300
G1 X1.26860725 Y14.79394975 F300
G1 X1.658523851851852 Y15.010801851851852 F300
G1 X2.0656217314814813 Y15.228033564814814 F300
G1 X2.4641909999999996 Y15.431037 F300
G1 X2.9046531114636567 Y15.643260100528805 F300
G1 X3.343415478436038 Y15.842944874608573 F300
G1 X3.780615528927085 Y16.030301824779098 F300
G1 X4.216392266636909 Y16.205530057753453 F300
G1 X4.650886285610811 Y16.368817123658907 F300
G1 X5.084239776107725 Y16.520338860981255 F300
G1 X5.5165965217532795 Y16.6602592481657 F300
G1 X5.948101888119622 Y16.788730262823723 F300
G1 X6.378902802947164 Y16.905891749481157 F300
G1 X6.809147728297428 Y17.01187129677858 F300
G1 X7.238986625 Y17.106784125 F300
G1 X7.6770140284424455 Y17.192273974517473 F300
G1 X8.115114922359911 Y17.266487588432256 F300
G1 X8.553450956297613 Y17.32949302178957 F300
G1 X8.99218498504682 Y17.3813448853982 F300
G1 X9.431480997744854 Y17.422084308414714 F300
G1 X9.871504043778135 Y17.451738916555946 F300
G1 X10.31242015635053 Y17.470322826208943 F300
G1 X10.754396274601522 Y17.477836654593204 F300
G1 X11.197600165170424 Y17.47426754601306 F300
G1 X11.6422003441045 Y17.4595892141214 F300
G1 X12.088365999999999 Y17.433762 F300
G1 X12.535622493540513 Y17.39710550534757 F300
G1 X12.982244110786114 Y17.35006166525882 F300
G1 X13.42828208703889 Y17.292633463872303 F300
G1 X13.873786586359728 Y17.224813354667784 F300
G1 X14.318806419117253 Y17.146583347915815 F300
G1 X14.763388761755253 Y17.05791510838679 F300
G1 X15.207578879393566 Y16.958770063060403 F300
G1 X15.651419851851852 Y16.84909951851852 F300
G1 X16.089355362868886 Y16.730428992978567 F300
G1 X16.526784059288815 Y16.601448327799716 F300
G1 X16.963741508277323 Y16.46209930878882 F300
G1 X17.40026067404079 Y16.312314564926076 F300
G1 X17.836371679621653 Y16.15201770274902 F300
G1 X18.272101573439198 Y15.981123447694825 F300
G1 X18.70747410091511 Y15.799537791926916 F300
G1 X19.14250948148148 Y15.607158148148152 F300
G1 X19.567641048508584 Y15.408474845895025 F300
G1 X19.99225339017685 Y15.199364082279567 F300
G1 X20.41635877791431 Y14.979721920154393 F300
G1 X20.839965871285024 Y14.749436968189201 F300
G1 X21.263079535467458 Y14.508390530385721 F300
G1 X21.68570066385829 Y14.256456758872675 F300
G1 X22.10782600587541 Y13.993502809530616 F300
G1 X22.529448 Y13.719389 F300
G1 X22.988632069786266 Y13.407720914278745 F300
G1 X23.433738484375002 Y13.091629078125 F300
G1 X23.87116560841655 Y12.766380352607584 F300
G1 X24.304396625000003 Y12.429128875 F300
G1 X24.58953909482098 Y12.19871464881836 F300
G1 X24.876728449818568 Y11.9598356763526 F300
G1 X25.166952703125 Y11.711559734375001 F300
G1 X25.59928392756607 Y11.32927394102676 F300
G1 X26.046937 Y10.918593000000001 F300
G1 X26.187374555555557 Y10.793220444444449 F300
G1 X26.299213444444447 Y10.703800555555558 F300
G1 X26.34201305072762 Y10.675727590744742 F300
G1 X26.358241 Y10.669692000000001 F300
G1 X26.42324744444445 Y10.683286074074077 F300
G1 X26.55076188888889 Y10.718924592592595 F300
G1 X26.713176999999998 Y10.768892000000001 F300
G1 X26.93883032641335 Y10.837208459650878 F300
G1 X27.169004406436645 Y10.899217604558775 F300
G1 X27.40454 Y10.954982851851854 F300
G1 X27.64164272509614 Y11.003672765154562 F300
G1 X27.886683075222965 Y11.04662494913231 F300
G1 X28.140628999999997 Y11.083793481481482 F300
G1 X28.395273663896603 Y11.11414915968461 F300
G1 X28.661304159157606 Y11.139106864216743 F300
G1 X28.939846 Y11.158537000000003 F300
G1 X29.21886899533506 Y11.17027799703205 F300
G1 X29.4903653021041 Y11.17278488967988 F300
G1 X29.754351403517934 Y11.166411518408268 F300
G1 X30.01085317108712 Y11.151483588106846 F300
G1 X30.259903421875 Y11.128298703125003 F300
G1 X30.512626567486897 Y11.095482106578077 F300
G1 X30.756548112275514 Y11.054328748701709 F300
G1 X30.99176622599882 Y11.005158909417398 F300
G1 X31.218381829261798 Y10.948257091042516 F300
G1 X31.436495125 Y10.883872125000003 F300
G1 X31.655490033509363 Y10.8088075182317 F300
G1 X31.864735752007633 Y10.726283420361039 F300
G1 X32.064401908377704 Y10.636535403467715 F300
G1 X32.254646190452185 Y10.53975270344873 F300
G1 X32.435609265625 Y10.436078734375002 F300
G1 X32.61332860882917 Y10.321574936750292 F300
G1 X32.78079935107433 Y10.200251277875363 F300
G1 X32.938193580703874 Y10.072173804716343 F300
G1 X33.08564339301805 Y9.937351863973873 F300
G1 X33.223234 Y9.795740000000002 F300
G1 X33.34053236188177 Y9.659617411236818 F300
G1 X33.44797578094253 Y9.518420082403413 F300
G1 X33.546112536856164 Y9.371384789882429 F300
G1 X33.63542225 Y9.217706625000002 F300
G1 X33.71484131013518 Y9.059706494029417 F300
G1 X33.786955145879276 Y8.89250151888853 F300
G1 X33.85189081837734 Y8.715008842199964 F300
G1 X33.909735 Y8.526064000000002 F300
G1 X33.93767953125 Y8.407736250000001 F300
G1 X33.94679090106915 Y8.348125438995211 F300
G1 X33.953838749999996 Y8.276018750000002 F300
G1 X33.961213593749996 Y8.090429125000002 F300
G1 X33.962804999999996 Y7.810485 F300
G1 X33.961570472000005 Y7.566343808000002 F300
G1 X33.956682856 Y7.395342904000001 F300
G1 X33.945606504 Y7.268551296 F300
G1 X33.925805768000004 Y7.157037992000001 F300
G1 X33.89474499999999 Y7.031872 F300
G1 X33.84548786789078 Y6.8674721796759695 F300
G1 X33.78720706520989 Y6.711779619310214 F300
G1 X33.71979664342793 Y6.564037591263581 F300
G1 X33.64306148597115 Y6.423553795889602 F300
G1 X33.55671203703704 Y6.289699851851854 F300
G1 X33.461257572505104 Y6.163015800293694 F300
G1 X33.3550141417723 Y6.041280113851151 F300
G1 X33.237259920128764 Y5.9241267489950005 F300
G1 X33.10716723373675 Y5.811247528015706 F300
G1 X32.963802629629626 Y5.702387481481482 F300
G1 X32.818898653823496 Y5.605357468649088 F300
G1 X32.660205313407744 Y5.511035825160025 F300
G1 X32.486604021294575 Y5.419377191636565 F300
G1 X32.29689432447937 Y5.330355613763891 F300
G1 X32.08979299999999 Y5.243957999999999 F300
G1 X31.949247370370372 Y5.184057555555556 F300
G1 X31.85259129629629 Y5.133478444444445 F300
G1 X31.822236325796542 Y5.111306778681174 F300
G1 X31.814222999999995 Y5.099753999999997 F300
G1 X31.816322447769004 Y5.088406690269571 F300
G1 X31.82953505859798 Y5.0666305835114525 F300
G1 X31.861201499999996 Y5.029615749999998 F300
G1 X31.915181587134313 Y4.977088227514959 F300
G1 X31.992920999999996 Y4.910644999999995 F300
G1 X32.20550996532335 Y4.733610215967051 F300
G1 X32.4553914375 Y4.514781218749995 F300
G1 X32.71279943832265 Y4.280359770735292 F300
G1 X32.99509725 Y4.014871999999995 F300
G1 X33.28109096614705 Y3.7382098584534 F300
G1 X33.5799781875 Y3.4415145312499957 F300
G1 X33.878537871216295 Y3.1376812345529412 F300
G1 X34.17797399999999 Y2.8253059999999977 F300
G1 X34.41157604687499 Y2.577859859374997 F300
G1 X34.61501562499999 Y2.3611771249999975 F300
G1 X34.76643914062499 Y2.198613078124999 F300
G1 X34.84399299999999 Y2.1135230000000007 F300
G1 X34.92480299999999 Y2.020023000000002 F300
G1 X34.71350999999999 Y1.8675700000000006 F300
G1 X34.453781304582655 Y1.6877937027884689 F300
G1 X34.18361341140527 Y1.515732792950654 F300
G1 X33.90319936267646 Y1.3515557040727342 F300
G1 X33.612724968749994 Y1.1954628124999993 F300
G1 X33.31806046217649 Y1.050364251470719 F300
G1 X33.015027243458235 Y0.9139455113255499 F300
G1 X32.703877130822356 Y0.7864051220090534 F300
G1 X32.384860499999995 Y0.6679687499999991 F300
G1 X32.06311794618601 Y0.5604348693660671 F300
G1 X31.735242724694515 Y0.46253807685806503 F300
G1 X31.4015322768684 Y0.37448258926533284 F300
G1 X31.062284531249993 Y0.29649681249999904 F300
G1 X30.72145545722188 Y0.22949209872979792 F300
G1 X30.37681162118861 Y0.1730140526865669 F300
G1 X30.028674122668768 Y0.1272613627570503 F300
G1 X29.67736499999999 Y0.09245599999999854 F300
G1 X29.5095125787037 Y0.08455507407407223 F300
G1 X29.269715629629626 Y0.08066192592592412 F300
G1 X28.99272362499999 Y0.08056599999999836 F300
G1 X28.71328603703703 Y0.0840567407407391 F300
G1 X28.466152337962953 Y0.09092359259259042 F300
G1 X28.28607199999999 Y0.10095599999999649 F300
G1 X28.286081 Y0.10092799999999613 F300
G0 X29.332742 Y2.4009519999999966
G1 X29.510811685124782 Y2.414532393938364 F300
G1 X29.691910874761042 Y2.4345917713442877 F300
G1 X29.875446222222223 Y2.461106740740737 F300
G1 X30.058058759551862 Y2.4935309834340313 F300
G1 X30.24072582431587 Y2.5319555017853967 F300
G1 X30.42280511111111 Y2.576275259259255 F300
G1 X30.60338679432742 Y2.626318916157273 F300
G1 X30.78105352957271 Y2.6817244790094543 F300
G1 X30.955189999999998 Y2.7423239999999964 F300
G1 X31.088580590051606 Y2.794195140926905 F300
G1 X31.241491620370375 Y2.859207282407403 F300
G1 X31.39729944323395 Y2.9299178757922797 F300
G1 X31.5586122962963 Y3.0070202592592548 F300
G1 X31.71843809771093 Y3.086995609855135 F300
G1 X31.869594749999997 Y3.1660096249999947 F300
G1 X32.01464510844289 Y3.245438015973253 F300
G1 X32.1374817037037 Y3.316422074074069 F300
G1 X32.249147463367535 Y3.385775386114217 F300
G1 X32.32531587962963 Y3.4385043009259206 F300
G1 X32.37095214683902 Y3.4761098817409932 F300
G1 X32.391182283687975 Y3.499207073310912 F300
G1 X32.396139999999995 Y3.5125029999999953 F300
G1 X32.388799130107444 Y3.531236359966645 F300
G1 X32.35133719335936 Y3.5917907265624947 F300
G1 X32.232596046874995 Y3.759936999999995 F300
G1 X32.06341747070312 Y3.986728960937495 F300
G1 X31.867302374999994 Y4.241953749999996 F300
G1 X31.66775166992187 Y4.495398507812497 F300
G1 X31.488266265624993 Y4.716850374999997 F300
G1 X31.35234707226562 Y4.876096492187497 F300
G1 X31.301663961301827 Y4.929050010476005 F300
G1 X31.283494999999995 Y4.942923999999998 F300
G1 X31.264489652090873 Y4.94292502569616 F300
G1 X31.192919814814818 Y4.932044037037036 F300
G1 X30.98972285185185 Y4.890404296296294 F300
G1 X30.717896999999994 Y4.827005 F300
G1 X30.470769968749998 Y4.767617078124999 F300
G1 X30.189660249999996 Y4.701709124999999 F300
G1 X29.90915390624999 Y4.637307359374997 F300
G1 X29.663836999999994 Y4.582437999999996 F300
G1 X29.302242087558273 Y4.49989356068429 F300
G1 X28.98904554733677 Y4.421933131241412 F300
G1 X28.718781999999994 Y4.347987499999997 F300
G1 X28.450638053162244 Y4.266041892592206 F300
G1 X28.225914845345333 Y4.187953249393389 F300
G1 X28.038683249999995 Y4.113318749999997 F300
G1 X27.897612733474563 Y4.0487469081329746 F300
G1 X27.77835708060008 Y3.9860943738964973 F300
G1 X27.67810716313113 Y3.925201210370134 F300
G1 X27.59433987499999 Y3.865913124999998 F300
G1 X27.512703247164662 Y3.7969074481281937 F300
G1 X27.44734114367057 Y3.728755349028469 F300
G1 X27.39592911954584 Y3.6610408942346653 F300
G1 X27.356550999999993 Y3.5932519999999997 F300
G1 X27.328074664969694 Y3.5241590607829565 F300
G1 X27.306490843749994 Y3.4452723750000005 F300
G1 X27.29302115787407 Y3.3629273420638017 F300
G1 X27.287239749999994 Y3.2777470000000015 F300
G1 X27.289358202703724 Y3.19272389107285 F300
G1 X27.299261781249992 Y3.112110875000002 F300
G1 X27.317571719695298 Y3.035309963026618 F300
G1 X27.343020999999993 Y2.969799000000002 F300
G1 X27.38013233692972 Y2.904079516014209 F300
G1 X27.426383454861504 Y2.841541684572339 F300
G1 X27.48223231778426 Y2.781946776015537 F300
G1 X27.548336332138895 Y2.725192520014551 F300
G1 X27.625520674010865 Y2.6713190811860525 F300
G1 X27.714746222222217 Y2.62051014814815 F300
G1 X27.81949949425739 Y2.572082752827797 F300
G1 X27.938480910956816 Y2.527916481189021 F300
G1 X28.072801569546204 Y2.4885372608733634 F300
G1 X28.22361452626775 Y2.454595581546944 F300
G1 X28.39209277777777 Y2.426861518518521 F300
G1 X28.593407292188363 Y2.405053870714969 F300
G1 X28.816506779613093 Y2.3926465549200313 F300
G1 X29.06257385202897 Y2.390836352703933 F300
G1 X29.332737999999992 Y2.4009520000000037 F300
G1 X29.332742 Y2.4009519999999966 F300
G0 X28.324373 Y2.5010659999999945
G1 X28.173526675353425 Y2.5328880838277215 F300
G1 X28.03925671170026 Y2.5697778367994237 F300
G1 X27.920298263615926 Y2.61097058944836 F300
G1 X27.815438044764505 Y2.6558321085532084 F300
G1 X27.723530222222227 Y2.7038587037036987 F300
G1 X27.63117338401256 Y2.763466433448853 F300
G1 X27.554026761943636 Y2.8260715904840534 F300
G1 X27.490614871092276 Y2.891414833476097 F300
G1 X27.439731062752344 Y2.959477028948215 F300
G1 X27.400490777777776 Y3.0304629629629583 F300
G1 X27.371740605318045 Y3.106948303110288 F300
G1 X27.354733508617617 Y3.187058167404073 F300
G1 X27.349634578403744 Y3.271565579817125 F300
G1 X27.35715553370649 Y3.3613475830408084 F300
G1 X27.378554 Y3.4573229999999953 F300
G1 X27.403904154306954 Y3.526875703190469 F300
G1 X27.43925651106672 Y3.594068111598484 F300
G1 X27.485827218401468 Y3.65980022074638 F300
G1 X27.545224499999996 Y3.724877874999997 F300
G1 X27.609097136425547 Y3.7817147711154298 F300
G1 X27.687031803323556 Y3.8399178011606327 F300
G1 X27.78136739089892 Y3.8999389456729783 F300
G1 X27.894748 Y3.962293999999993 F300
G1 X28.020119184964322 Y4.02363889271874 F300
G1 X28.15550385600001 Y4.083011679999994 F300
G1 X28.297595980264266 Y4.1385471433844545 F300
G1 X28.461889328 Y4.195802159999993 F300
G1 X28.636682060698156 Y4.250559807797992 F300
G1 X28.845517072 Y4.310082799999994 F300
G1 X29.06880905659817 Y4.368851304802771 F300
G1 X29.337999744 Y4.435270959999995 F300
G1 X29.97095 Y4.580783999999994 F300
G1 X30.282171171875 Y4.650837703124995 F300
G1 X30.572850125 Y4.717696874999994 F300
G1 X30.810453265625 Y4.773791109374994 F300
G1 X30.962446999999997 Y4.811549999999997 F300
G1 X31.08720640740741 Y4.843377037037036 F300
G1 X31.185101592592588 Y4.866079629629627 F300
G1 X31.234938999999997 Y4.874739999999996 F300
G1 X31.249345624691667 Y4.865531599377121 F300
G1 X31.301043752000005 Y4.813015311999998 F300
G1 X31.445154935999998 Y4.645838175999996 F300
G1 X31.645277943999996 Y4.400203983999997 F300
G1 X31.879418167999997 Y4.103108127999999 F300
G1 X32.125581 Y3.7815459999999987 F300
G1 X32.230861515624994 Y3.6392503593750005 F300
G1 X32.285004875 Y3.5555903750000004 F300
G1 X32.29673483249933 Y3.5273673105272687 F300
G1 X32.298249796875 Y3.5110944531250006 F300
G1 X32.29294727817453 Y3.49773688037675 F300
G1 X32.280834999999996 Y3.4862910000000014 F300
G1 X32.161444672 Y3.410820528000002 F300
G1 X31.971639976000002 Y3.302880024000002 F300
G1 X31.747734543999997 Y3.182063856000001 F300
G1 X31.526042007999997 Y3.0679663920000007 F300
G1 X31.342875999999997 Y2.980181999999999 F300
G1 X31.122286171272066 Y2.886815242829715 F300
G1 X30.891371390624997 Y2.7998890625 F300
G1 X30.656194372623006 Y2.721477850959389 F300
G1 X30.418521124999998 Y2.651926750000001 F300
G1 X30.17971014298833 Y2.5916527546293127 F300
G1 X29.946392546874996 Y2.542310062500002 F300
G1 X29.71488588228125 Y2.503382146169385 F300
G1 X29.497052999999998 Y2.4770540000000025 F300
G1 X29.40102732063628 Y2.469922730593895 F300
G1 X29.280327592000006 Y2.464759360000003 F300
G1 X29.016557816 Y2.461794480000002 F300
G1 X28.743882743999997 Y2.4673779200000014 F300
G1 X28.500441448 Y2.4807282400000004 F300
G1 X28.39631042525717 Y2.490685892885937 F300
G1 X28.324372999999998 Y2.5010639999999995 F300
G1 X28.324373 Y2.5010659999999945 F300
G0 X21.827417 Y5.652035999999995
G1 X21.822870693000056 Y5.694809898725848 F300
G1 X21.8064825 Y5.769079843749995 F300
G1 X21.783770081409056 Y5.850185182048882 F300
G1 X21.75300925 Y5.946763999999995 F300
G1 X21.680992625000002 Y6.143347406249995 F300
G1 X21.641334289980563 Y6.238111973255057 F300
G1 X21.604428000000002 Y6.317088999999996 F300
G1 X21.518439856173742 Y6.475319779984077 F300
G1 X21.42561124461485 Y6.620416902570305 F300
G1 X21.326028483219204 Y6.753198972948056 F300
G1 X21.21967237126081 Y6.874383679199543 F300
G1 X21.106418355644212 Y6.9845801890725125 F300
G1 X20.986038247008576 Y7.084282023833399 F300
G1 X20.858203488604296 Y7.173860804035115 F300
G1 X20.722489857852175 Y7.253561230584285 F300
G1 X20.578383365191826 Y7.323497589125836 F300
G1 X20.42528702503962 Y7.3836519551220405 F300
G1 X20.2625281226385 Y7.433874146904867 F300
G1 X20.089365593821952 Y7.473883343790248 F300
G1 X19.904997169203625 Y7.503271174403216 F300
G1 X19.708566 Y7.521505999999995 F300
G1 X19.59559547924133 Y7.525431908906211 F300
G1 X19.479233917061197 Y7.523612771833542 F300
G1 X19.360214984375002 Y7.516098828124995 F300
G1 X19.182422503203107 Y7.494832960121745 F300
G1 X19.006394874999998 Y7.462108624999995 F300
G1 X18.834089889444 Y7.41827380488986 F300
G1 X18.672121078125002 Y7.365027359374994 F300
G1 X18.56737027546422 Y7.323181491557035 F300
G1 X18.47067410057454 Y7.2781714610445265 F300
G1 X18.382409000000003 Y7.230346999999995 F300
G1 X18.30375523035805 Y7.180125532681258 F300
G1 X18.2166726875 Y7.116335624999995 F300
G1 X18.13062100240913 Y7.0462145824040245 F300
G1 X18.044273000000004 Y6.969177249999994 F300
G1 X17.961395676445242 Y6.8885383703257 F300
G1 X17.8858503125 Y6.808102999999993 F300
G1 X17.816692627905013 Y6.7262966829545014 F300
G1 X17.762045000000004 Y6.652343999999992 F300
G1 X17.69263637307822 Y6.541049341150573 F300
G1 X17.622945718750003 Y6.411314640624992 F300
G1 X17.559248728371173 Y6.275852699373883 F300
G1 X17.502423000000004 Y6.138108874999993 F300
G1 X17.45351429233103 Y6.000391738390811 F300
G1 X17.417572531250002 Y5.8771879218749925 F300
G1 X17.399120763028513 Y5.795191490412385 F300
G1 X17.38873571447121 Y5.727318559553567 F300
G1 X17.385490000000004 Y5.67301299999999 F300
G1 X17.385490000000004 Y5.589532999999989 F300
G1 X19.606453000000005 Y5.589532999999989 F300
G1 X21.827417000000004 Y5.589532999999989 F300
G1 X21.827417 Y5.652035999999995 F300
G0 X17.47684 Y5.8194269999999975
G1 X17.51908370178031 Y5.976797199696049 F300
G1 X17.570156270837764 Y6.12620170326366 F300
G1 X17.62963468233622 Y6.267895382646017 F300
G1 X17.697197729210707 Y6.4021017284667785 F300
G1 X17.772620777777778 Y6.529002296296295 F300
G1 X17.857715004369954 Y6.651319779587651 F300
G1 X17.950255789467665 Y6.765547802057874 F300
G1 X18.05013396963356 Y6.8718145385928135 F300
G1 X18.15732785363938 Y6.97017674131699 F300
G1 X18.271894222222222 Y7.0606093703703685 F300
G1 X18.392372772359803 Y7.142008563411758 F300
G1 X18.519617171037133 Y7.214977190205433 F300
G1 X18.65378147124936 Y7.279371391271283 F300
G1 X18.79507416475307 Y7.334943324035646 F300
G1 X18.943747 Y7.381333999999995 F300
G1 X19.071509421874996 Y7.412173374999995 F300
G1 X19.13140741350639 Y7.422282684445942 F300
G1 X19.197481124999996 Y7.429763999999994 F300
G1 X19.359071265624998 Y7.437387124999995 F300
G1 X19.593688999999998 Y7.438323999999994 F300
G1 X19.834366640624996 Y7.435309781249993 F300
G1 X19.994417875 Y7.425760249999993 F300
G1 X20.058924296970442 Y7.416919234382129 F300
G1 X20.118810171874998 Y7.404865093749994 F300
G1 X20.252511 Y7.367813999999996 F300
G1 X20.395098364338196 Y7.320019097881339 F300
G1 X20.528126591575663 Y7.266598341882484 F300
G1 X20.652431157350044 Y7.207505466507832 F300
G1 X20.768782296296294 Y7.142651370370367 F300
G1 X20.881137236293757 Y7.069625188411099 F300
G1 X20.98703152935753 Y6.9896881546739085 F300
G1 X21.087008683775082 Y6.902456641269459 F300
G1 X21.18155537037037 Y6.807476962962959 F300
G1 X21.268923264704355 Y6.706910984396854 F300
G1 X21.352292290322264 Y6.59737247087306 F300
G1 X21.431907627366837 Y6.478125378974808 F300
G1 X21.507986 Y6.348360999999997 F300
G1 X21.567613824000002 Y6.225878071999998 F300
G1 X21.632136111999998 Y6.072316055999997 F300
G1 X21.691129088 Y5.915402103999998 F300
G1 X21.734168976 Y5.782863367999999 F300
G1 X21.74736468588601 Y5.729893922405454 F300
G1 X21.750832 Y5.702427 F300
G1 X21.746572996326186 Y5.696682004809846 F300
G1 X21.719396333333336 Y5.6889395 F300
G1 X21.60235166666667 Y5.679193666666668 F300
G1 X21.3655915 Y5.672614500000001 F300
G1 X20.975009333333333 Y5.6686270000000025 F300
G1 X20.396498666666666 Y5.6666561666666695 F300
G1 X19.595952999999998 Y5.666127000000003 F300
G1 X17.441074999999998 Y5.666127000000003 F300
G1 X17.47684 Y5.8194269999999975 F300
M2
