G21
G90;svg#svg1 > g#layer1 > g#g1 > path#path1
G0 X37.478110251050005 Y13.28396462327
G1 X36.96875477365202 Y13.797720104435108 F300
G1 X36.472227487235344 Y14.304952633711338 F300
G1 X35.975010782038076 Y14.812169169936562 F300
G1 X35.46211600745268 Y15.32735034598467 F300
G1 X35.114936707083004 Y15.668372949945416 F300
G1 X34.74982047336237 Y16.01863642144292 F300
G1 X34.36296913889001 Y16.379426196578002 F300
G1 X34.5810606819833 Y16.453342626027144 F300
G1 X34.77983474121466 Y16.532395423046612 F300
G1 X34.9609682153986 Y16.615789360528268 F300
G1 X35.126013060440755 Y16.702848498974767 F300
G1 X35.27640081264053 Y16.793010443362842 F300
G1 X35.42734286386995 Y16.895871540428402 F300
G1 X35.563656249404275 Y17.001585040983187 F300
G1 X35.68661692809571 Y17.109680483409754 F300
G1 X35.79738514335869 Y17.219781372010104 F300
G1 X35.89700951171133 Y17.331596815765653 F300
G1 X35.992051692960565 Y17.45251743237224 F300
G1 X36.07631663179147 Y17.574690629256985 F300
G1 X36.15065809589845 Y17.697835497622325 F300
G1 X36.21584551651215 Y17.82172234997966 F300
G1 X36.27256876763051 Y17.946164306914064 F300
G1 X36.33448404715699 Y18.108013278685647 F300
G1 X36.38408800831839 Y18.26919672302267 F300
G1 X36.422533016376725 Y18.42923367304011 F300
G1 X36.45085211192612 Y18.587691909935693 F300
G1 X36.47043835128517 Y18.74910691424207 F300
G1 X36.481082368019315 Y18.9064828815236 F300
G1 X36.48382857925297 Y19.059319758017327 F300
G1 X36.47963307612619 Y19.20715861795815 F300
G1 X36.46371022575899 Y19.405321005144373 F300
G1 X36.438589385946386 Y19.588338722640273 F300
G1 X36.406685191758804 Y19.755543424109042 F300
G1 X36.365906797801564 Y19.92181091290515 F300
G1 X36.32286862506482 Y20.06428406932905 F300
G1 X36.279781990352014 Y20.183825321516 F300
G1 X36.2110530251367 Y20.326777418006138 F300
G1 X36.119342499929324 Y20.491681613973125 F300
G1 X35.99968968645638 Y20.67774569418133 F300
G1 X35.90427561881432 Y20.80914602778796 F300
G1 X35.793764205482454 Y20.946854442390915 F300
G1 X35.6663695413879 Y21.089959713587955 F300
G1 X35.52012314979527 Y21.23730532093389 F300
G1 X35.40175914729886 Y21.345390494131394 F300
G1 X35.272083004331996 Y21.453914555950323 F300
G1 X35.13015196412559 Y21.562261308771966 F300
G1 X34.97494946482163 Y21.66971633875325 F300
G1 X34.80538275071631 Y21.7754564337842 F300
G1 X34.63783859788908 Y21.869275062249702 F300
G1 X34.45666787295191 Y21.960033949956472 F300
G1 X34.260748371881704 Y22.04691542861489 F300
G1 X34.04887726869782 Y22.128979054096913 F300
G1 X33.81976885956711 Y22.205151264742778 F300
G1 X33.59717239248306 Y22.267803029159808 F300
G1 X33.35803929216254 Y22.323741390321562 F300
G1 X33.10102748946539 Y22.37184826057399 F300
G1 X32.824711936832735 Y22.41085678078896 F300
G1 X32.527581846695256 Y22.439342045820126 F300
G1 X32.2921437456831 Y22.452766567027005 F300
G1 X32.04310328684629 Y22.458778490090268 F300
G1 X31.779599632024382 Y22.456549933761604 F300
G1 X31.500733906134286 Y22.445176867692133 F300
G1 X31.205567805715834 Y22.423675907396277 F300
G1 X30.893122082448357 Y22.390981009026763 F300
G1 X30.600545894222336 Y22.3516639488383 F300
G1 X30.292082627747767 Y22.301631919749283 F300
G1 X29.966826096186608 Y22.23987538426101 F300
G1 X29.623834399566544 Y22.16530975652653 F300
G1 X29.262128366573556 Y22.076772547137907 F300
G1 X28.880689937174026 Y21.973020386373197 F300
G1 X28.402711408954723 Y22.380042181263157 F300
G1 X27.924936906122156 Y22.774978268098206 F300
G1 X27.447287178255124 Y23.157777800289406 F300
G1 X26.96968181801149 Y23.528391008340954 F300
G1 X26.49203919224541 Y23.886768751926915 F300
G1 X26.014276375706054 Y24.23286207102216 F300
G1 X25.536309087425945 Y24.566621736327217 F300
G1 X25.04476754520431 Y24.896743817684253 F300
G1 X24.55307033461889 Y25.213574714161453 F300
G1 X24.061100602516774 Y25.517089711691323 F300
G1 X23.568738814950855 Y25.807260269752806 F300
G1 X23.07586269799212 Y26.084053327121847 F300
G1 X22.582347185712752 Y26.347430609798714 F300
G1 X22.088064375410504 Y26.597347941948307 F300
G1 X21.64547725436075 Y26.809310222799578 F300
G1 X21.202201743539142 Y27.010381129673604 F300
G1 X20.758120385811875 Y27.200532403833634 F300
G1 X20.31311317970485 Y27.379728644431466 F300
G1 X19.86705759124609 Y27.54792681594265 F300
G1 X19.419828571734225 Y27.705075762172598 F300
G1 X18.97129858117855 Y27.851115727540844 F300
G1 X18.521337617113485 Y27.985977886327866 F300
G1 X18.066010999531468 Y28.110574890854682 F300
G1 X17.608985066205342 Y28.223628329392167 F300
G1 X17.150091405319706 Y28.325044819007413 F300
G1 X16.68915863324944 Y28.41471692279158 F300
G1 X16.226012497561772 Y28.492522597830423 F300
G1 X15.760475984364238 Y28.55832466137288 F300
G1 X15.29236942893162 Y28.611970275763 F300
G1 X14.82151062852069 Y28.653290452557293 F300
G1 X14.405322316121865 Y28.679279740791692 F300
G1 X13.986664053218883 Y28.69547327181422 F300
G1 X13.565383854209061 Y28.701718467251194 F300
G1 X13.141328324769844 Y28.697849772836072 F300
G1 X12.714342758884513 Y28.683688406138785 F300
G1 X12.284271232473147 Y28.659042117202652 F300
G1 X11.850956692951364 Y28.623704961676918 F300
G1 X11.414241044091531 Y28.577457085951757 F300
G1 X10.97396522561789 Y28.520064523727967 F300
G1 X10.54523840153827 Y28.45382596782894 F300
G1 X10.112707814561169 Y28.376689064584227 F300
G1 X9.676202554485608 Y28.288385529463923 F300
G1 X9.235551263953964 Y28.1886316410584 F300
G1 X8.79058220615415 Y28.077128100490732 F300
G1 X8.341123322421815 Y27.953559898782974 F300
G1 X7.887002279618017 Y27.81759619106505 F300
G1 X7.4280465072501904 Y27.66889017651507 F300
G1 X6.964083224390873 Y27.50707898293127 F300
G1 X6.520704359472333 Y27.34171427134369 F300
G1 X6.072263801146004 Y27.163848185934057 F300
G1 X5.618592175917589 Y26.97310362504678 F300
G1 X5.159520302275332 Y26.769088027067284 F300
G1 X4.69487917445289 Y26.551393293199002 F300
G1 X4.224499936341116 Y26.319595708403472 F300
G1 X3.7482138461109686 Y26.07325585966621 F300
G1 X3.2658522321366177 Y25.811918550823503 F300
G1 X2.7772464408254285 Y25.535112713258595 F300
G1 X3.4536217499418584 Y25.725142501885752 F300
G1 X4.114085800578984 Y25.899296245099084 F300
G1 X4.759099571687353 Y26.058233353169623 F300
G1 X5.389114784133422 Y26.20258958025349 F300
G1 X6.00457415228748 Y26.33297744856993 F300
G1 X6.605911628503411 Y26.449986664706444 F300
G1 X7.193552639843765 Y26.554184528491994 F300
G1 X7.804828224125851 Y26.651684483720338 F300
G1 X8.40204985230682 Y26.735970156639052 F300
G1 X8.985644998993262 Y26.807611345784228 F300
G1 X9.556032271667624 Y26.867155371854704 F300
G1 X10.113621622639048 Y26.915127512620238 F300
G1 X10.658814551942454 Y26.952031434307198 F300
G1 X11.19200430066617 Y26.978349620245645 F300
G1 X11.742864611231388 Y26.99516904118442 F300
G1 X12.281587410004462 Y27.001202210164987 F300
G1 X12.808552817097011 Y26.99692286690129 F300
G1 X13.324132702328578 Y26.982784794518036 F300
G1 X13.82869085223427 Y26.95922226881926 F300
G1 X14.322583128959918 Y26.92665050908899 F300
G1 X14.806157620868294 Y26.88546613124128 F300
G1 X15.301673022582786 Y26.833540058689078 F300
G1 X15.786890248966904 Y26.7729704547769 F300
G1 X16.262132661457482 Y26.704142549366267 F300
G1 X16.727716323927993 Y26.627425294286848 F300
G1 X17.183950138219 Y26.543171810716874 F300
G1 X17.631135974710848 Y26.451719840825284 F300
G1 X18.06956879802579 Y26.35339220420063 F300
G1 X18.588573465791363 Y26.225716295721337 F300
G1 X19.095842791599527 Y26.088907890419023 F300
G1 X19.59179635406409 Y25.943465273466813 F300
G1 X20.076842682653425 Y25.789864441657823 F300
G1 X20.551379511725237 Y25.6285599855619 F300
G1 X21.01579402971433 Y25.459985981845435 F300
G1 X21.483217350323773 Y25.27948639554346 F300
G1 X21.940730881644683 Y25.092168560015573 F300
G1 X22.38867599799361 Y24.898463539275944 F300
G1 X22.82738564598927 Y24.69878675341801 F300
G1 X23.25718456618386 Y24.49353868760761 F300
G1 X23.678389513509558 Y24.283105606897436 F300
G1 X24.184162047262138 Y24.01823683350255 F300
G1 X24.67781877804221 Y23.746883355894408 F300
G1 X25.159847753312214 Y23.46972587298691 F300
G1 X25.63072429731067 Y23.18742233941696 F300
G1 X26.09091144698715 Y22.900609222078373 F300
G1 X26.663519592900514 Y22.52891845070765 F300
G1 X27.219840967006846 Y22.15247470083796 F300
G1 X27.760704760289563 Y21.772545963485037 F300
G1 X28.28691602772275 Y21.39035497010998 F300
G1 X28.81100376781317 Y20.99817139284205 F300
G1 X29.320697356734854 Y20.606607265312785 F300
G1 X29.816766959943077 Y20.216890534358953 F300
G1 X30.29995945329203 Y19.830200993713994 F300
G1 X30.579139118004143 Y19.934722149051048 F300
G1 X30.84159509674786 Y20.020651333434046 F300
G1 X31.087945861341474 Y20.089517211566918 F300
G1 X31.31884520567848 Y20.142734886099564 F300
G1 X31.534974208590725 Y20.18160470872685 F300
G1 X31.737032638796038 Y20.207310516467334 F300
G1 X31.927219913184857 Y20.22098146168159 F300
G1 X32.10373700932421 Y20.2233353343166 F300
G1 X32.26735355944446 Y20.21536315747927 F300
G1 X32.41883221792466 Y20.19793087405806 F300
G1 X32.55891715047576 Y20.171775717257095 F300
G1 X32.68832125048233 Y20.13750273212503 F300
G1 X32.80771208698403 Y20.095581875620667 F300
G1 X32.91515315221387 Y20.047616634602022 F300
G1 X33.013580266694504 Y19.993205478391573 F300
G1 X33.103529443418424 Y19.93253323558981 F300
G1 X33.185451660515064 Y19.865654876296205 F300
G1 X33.25969788163827 Y19.792498820036414 F300
G1 X33.326504890257105 Y19.712872617463987 F300
G1 X33.38598262021285 Y19.62647089122081 F300
G1 X33.43810355720003 Y19.532885178098002 F300
G1 X33.437495504961234 Y19.515968665443594 F300
G1 X33.44872511443246 Y19.457555963135572 F300
G1 X33.454994312302304 Y19.41457824964791 F300
G1 X33.458586657085114 Y19.35893418158398 F300
G1 X33.45525409459723 Y19.289154107225812 F300
G1 X33.44333629542806 Y19.221546712584868 F300
G1 X33.418554487711425 Y19.143653866181825 F300
G1 X33.37490598681275 Y19.054493063246472 F300
G1 X33.33553849790502 Y18.99411460402153 F300
G1 X33.283178543441906 Y18.9284753963656 F300
G1 X33.214366554053875 Y18.857271162344972 F300
G1 X33.124896280197405 Y18.780386284075284 F300
G1 X33.03531160496548 Y18.715003064128307 F300
G1 X32.924762813790075 Y18.645277786539523 F300
G1 X32.78884612624506 Y18.571373130428253 F300
G1 X32.62244046386957 Y18.493647222589985 F300
G1 X32.461889634673405 Y18.428511446229734 F300
G1 X32.27205445209297 Y18.36098343763811 F300
G1 X32.04814495099794 Y18.291606654015617 F300
G1 X31.784754026947656 Y18.22108933166831 F300
G1 X31.531967045120624 Y18.16235666908092 F300
G1 X31.241788306174648 Y18.103643500097732 F300
G1 X30.909297199139278 Y18.045727604452125 F300
G1 X30.529052458550037 Y17.989526064188002 F300
G1 X30.23375872277267 Y17.924612679158354 F300
G1 X29.952438076385068 Y17.853834590981357 F300
G1 X29.684880300893862 Y17.77786926875208 F300
G1 X29.430860734547178 Y17.697339218171468 F300
G1 X29.190143693289816 Y17.61281459289566 F300
G1 X28.943764923571266 Y17.517205733157933 F300
G1 X28.71365398211491 Y17.418655041044353 F300
G1 X28.499345693088134 Y17.317789366125663 F300
G1 X28.300364601628193 Y17.21516503408414 F300
G1 X28.11623058601779 Y17.11127175598775 F300
G1 X27.928024689161397 Y16.994574794687143 F300
G1 X27.75813941008823 Y16.878162375787575 F300
G1 X27.605688506213596 Y16.76252115948494 F300
G1 X27.46980093961941 Y16.648039780507958 F300
G1 X27.349633178054884 Y16.53501581144497 F300
G1 X27.24892802421067 Y16.428769420289694 F300
G1 X27.161753318689406 Y16.324942700767046 F300
G1 X27.08727307614646 Y16.223602251381237 F300
G1 X27.024714257217916 Y16.124745063673885 F300
G1 X26.97338134623691 Y16.028305774032074 F300
G1 X26.932671510722034 Y15.934165017248002 F300
G1 X26.916284728961223 Y16.239250333793056 F300
G1 X26.888651587320645 Y16.531691817485104 F300
G1 X26.850167321471805 Y16.81199110462204 F300
G1 X26.801179442360333 Y17.080636973791297 F300
G1 X26.74198573714199 Y17.338102582227247 F300
G1 X26.67283239702762 Y17.584842533644004 F300
G1 X26.59391231589931 Y17.82128979531682 F300
G1 X26.505363603390187 Y18.047852490764797 F300
G1 X26.40726835376205 Y18.26491060293454 F300
G1 X26.30590586558274 Y18.46145096433924 F300
G1 X26.19614664499421 Y18.649903248459026 F300
G1 X26.077934804720854 Y18.830540895381645 F300
G1 X25.95116440868859 Y19.003603576320085 F300
G1 X25.815679713595287 Y19.1692945538012 F300
G1 X25.671275703568053 Y19.327778194476295 F300
G1 X25.51769890126611 Y19.479177676643232 F300
G1 X25.35464842949994 Y19.62357292865546 F300
G1 X25.181777289491322 Y19.760998826558016 F300
G1 X24.99869381579405 Y19.89144367006027 F300
G1 X24.817337440126195 Y20.007376403238666 F300
G1 X24.62625673099789 Y20.117013481863296 F300
G1 X24.424998342183674 Y20.220248961793768 F300
G1 X24.21307496568963 Y20.31693279030526 F300
G1 X23.98996692298222 Y20.406870556954196 F300
G1 X23.75512369748005 Y20.48982344324092 F300
G1 X23.507965381538327 Y20.56550834249414 F300
G1 X23.24788401712523 Y20.633598119157867 F300
G1 X22.97424481535067 Y20.693721975978235 F300
G1 X22.686387245630048 Y20.745465898264403 F300
G1 X22.389085496076447 Y20.772300834572302 F300
G1 X22.105205245718402 Y20.786952159197433 F300
G1 X21.834044281480303 Y20.790081391685252 F300
G1 X21.574923753019437 Y20.78229583179288 F300
G1 X21.327188469730896 Y20.7641476888398 F300
G1 X21.090207385244458 Y20.736133223570306 F300
G1 X20.86337427438672 Y20.69869194335717 F300
G1 X20.64610860124391 Y20.65220589622681 F300
G1 X20.43785656925472 Y20.596999112369605 F300
G1 X20.22202186431587 Y20.527730822181912 F300
G1 X20.015372487682384 Y20.44876435342044 F300
G1 X19.817396712248282 Y20.36028895457728 F300
G1 X19.627620290307057 Y20.26242844132227 F300
G1 X19.445607873674824 Y20.1552421948173 F300
G1 X19.270964358642733 Y20.038726558331916 F300
G1 X19.103336096808544 Y19.912816634993135 F300
G1 X18.942411914997905 Y19.777388474268566 F300
G1 X18.787923892971385 Y19.632261619887203 F300
G1 X18.643954316777585 Y19.481942348727966 F300
G1 X18.5057270772271 Y19.322082333411963 F300
G1 X18.373129088721523 Y19.15242096499344 F300
G1 X18.246080378402475 Y18.9726632208771 F300
G1 X18.12453345826722 Y18.782482177661056 F300
G1 X18.0084724987797 Y18.58152155402844 F300
G1 X17.897912319003915 Y18.369398250618104 F300
G1 X17.792897212296918 Y18.145704857354367 F300
G1 X17.69349962942005 Y17.910012103076 F300
G1 X17.655694612512843 Y18.10968177706018 F300
G1 X17.610168860715262 Y18.29828925859474 F300
G1 X17.55748175915184 Y18.47652943252942 F300
G1 X17.49812401610118 Y18.645058635483995 F300
G1 X17.432519928112903 Y18.804494439993718 F300
G1 X17.361029869088412 Y18.955415283007266 F300
G1 X17.28395305328962 Y19.09835997178731 F300
G1 X17.181348073375588 Y19.26471594232822 F300
G1 X17.07107286780897 Y19.42030153327065 F300
G1 X16.953496030467377 Y19.565781146342413 F300
G1 X16.8289061913016 Y19.701752334267244 F300
G1 X16.697519767786385 Y19.828746145848385 F300
G1 X16.559489277284193 Y19.94722776861156 F300
G1 X16.414244643622613 Y20.058078008873306 F300
G1 X16.262986387156975 Y20.16073888335776 F300
G1 X16.10588893369998 Y20.25551518095822 F300
G1 X15.943099728687148 Y20.3426712676983 F300
G1 X15.774745193453068 Y20.422432849907196 F300
G1 X15.600936771313417 Y20.494988953096957 F300
G1 X15.38979033383911 Y20.57127246281113 F300
G1 X15.172673057706751 Y20.637653774022567 F300
G1 X14.94994835920085 Y20.6944136496167 F300
G1 X14.721976793155681 Y20.741797128507216 F300
G1 X14.489124005286968 Y20.7800169847917 F300
G1 X14.256162519848424 Y20.808800659441715 F300
G1 X14.020757995923834 Y20.82897987510745 F300
G1 X13.78340799939759 Y20.840842427621002 F300
G1 X13.54461278300277 Y20.84465905491676 F300
G1 X13.304879449114484 Y20.840685323243992 F300
G1 X13.00547456783724 Y20.825187066328727 F300
G1 X12.708997184147696 Y20.798676238886692 F300
G1 X12.416503597212607 Y20.761850084518542 F300
G1 X12.129031572705625 Y20.715367428002025 F300
G1 X11.84129111330688 Y20.658490366754926 F300
G1 X11.563710815861445 Y20.593491125848203 F300
G1 X11.297151566201883 Y20.521213341552603 F300
G1 X11.042408845970051 Y20.442436758614004 F300
G1 X11.098062658970052 Y18.494418332162002 F300
G1 X11.33021234613478 Y18.599220064162402 F300
G1 X11.562909658362427 Y18.694516168555428 F300
G1 X11.795955840186421 Y18.77966432672541 F300
G1 X12.029168251995388 Y18.854016461372 F300
G1 X12.219033076606244 Y18.90611780325234 F300
G1 X12.408178426224652 Y18.95012758506071 F300
G1 X12.596591389597716 Y18.985765413671956 F300
G1 X12.784267063738486 Y19.012733080440366 F300
G1 X12.971206337868724 Y19.03071016007 F300
G1 X13.159477827055905 Y19.0393918416549 F300
G1 X13.346610560107262 Y19.038150196938602 F300
G1 X13.53271953202382 Y19.026615769449958 F300
G1 X13.717917800857197 Y19.0043591052488 F300
G1 X13.902311930894056 Y18.970884210044005 F300
G1 X14.003815582623568 Y18.949219238210542 F300
G1 X14.116184864420342 Y18.916904893047732 F300
G1 X14.237392799177973 Y18.873503248912133 F300
G1 X14.355378423674981 Y18.822995593621695 F300
G1 X14.471881461118388 Y18.764546828759798 F300
G1 X14.584158647000622 Y18.698707785967066 F300
G1 X14.691010907717187 Y18.624751972529314 F300
G1 X14.784559274119594 Y18.546858807889326 F300
G1 X14.863155364379365 Y18.46573525871434 F300
G1 X14.914675856755268 Y18.398176510737976 F300
G1 X14.95384599317422 Y18.33052371794152 F300
G1 X14.980697644380434 Y18.262546042606026 F300
G1 X14.99492884133156 Y18.1938231046595 F300
G1 X14.996742265321023 Y18.13883920165449 F300
G1 X14.98957530117014 Y18.082861425075155 F300
G1 X14.972328888690285 Y18.025176011310368 F300
G1 X14.943275826981216 Y17.965134621979814 F300
G1 X14.900024967874568 Y17.902208761308103 F300
G1 X14.853332667595797 Y17.849713826905518 F300
G1 X14.792988774290984 Y17.794368235407887 F300
G1 X14.716133021628213 Y17.735993885126458 F300
G1 X14.6194204483942 Y17.674550141798484 F300
G1 X14.498989634025747 Y17.61012966616569 F300
G1 X14.357031226002686 Y17.54571983429044 F300
G1 X14.182732717533689 Y17.478370885116046 F300
G1 X13.970110939391944 Y17.40853218558118 F300
G1 X13.71236872980246 Y17.336823256737805 F300
G1 X13.466485530947688 Y17.278181321459137 F300
G1 X13.179767790856042 Y17.21896261558139 F300
G1 X12.846584757837698 Y17.15982073324847 F300
G1 X12.460708145222062 Y17.10152697053 F300
G1 X12.192430975708342 Y17.05399983514834 F300
G1 X11.950663971725909 Y17.003245230719156 F300
G1 X11.732698073938819 Y16.949878307832858 F300
G1 X11.536060067397651 Y16.89444874863474 F300
G1 X11.33489439870623 Y16.829310257132715 F300
G1 X11.154048712851942 Y16.762151649316298 F300
G1 X10.991215976886686 Y16.693445296065452 F300
G1 X10.844305727816016 Y16.623594264976692 F300
G1 X10.69675107189152 Y16.544646448393536 F300
G1 X10.563160097021498 Y16.464310702959274 F300
G1 X10.441805193508484 Y16.38287758541277 F300
G1 X10.33111828267819 Y16.300582310880273 F300
G1 X10.188324372387147 Y16.181532748774625 F300
G1 X10.059578775479668 Y16.06021830922629 F300
G1 X9.9421708881852 Y15.937031677669907 F300
G1 X9.776968032974713 Y15.743260885031317 F300
G1 X9.623136700538064 Y15.54456115667 F300
G1 X9.636711022120744 Y15.818625009189429 F300
G1 X9.638888407371498 Y16.078986158278955 F300
G1 X9.63057312332089 Y16.326461837032397 F300
G1 X9.612588434834805 Y16.561835205729114 F300
G1 X9.58567888050724 Y16.785855878953903 F300
G1 X9.550512580860383 Y16.999240235057574 F300
G1 X9.503693087194023 Y17.219584088771008 F300
G1 X9.448474360556862 Y17.429159509933484 F300
G1 X9.38544944099234 Y17.62862023573608 F300
G1 X9.315142869337537 Y17.818584631255355 F300
G1 X9.23801390469639 Y17.999635670621 F300
G1 X9.154459959944 Y18.172320824727624 F300
G1 X9.060461658527727 Y18.34471524600428 F300
G1 X8.960221988041729 Y18.508882358743584 F300
G1 X8.854088110624284 Y18.665257940532417 F300
G1 X8.742364904749438 Y18.814247803515247 F300
G1 X8.62531854667592 Y18.95622810524934 F300
G1 X8.503180251841304 Y19.091545711135048 F300
G1 X8.347639979158016 Y19.247998665022955 F300
G1 X8.18563383590713 Y19.395103071847398 F300
G1 X8.017584938254325 Y19.533311724038626 F300
G1 X7.8438797490822845 Y19.663038047379803 F300
G1 X7.664874870604696 Y19.784657679734753 F300
G1 X7.433574662837363 Y19.926141390481586 F300
G1 X7.196396010805728 Y20.05535029781788 F300
G1 X6.954181972409057 Y20.172911149826252 F300
G1 X6.707745230286566 Y20.27939951598163 F300
G1 X6.456419365488188 Y20.375871716318613 F300
G1 X6.204071500309313 Y20.4616462656365 F300
G1 X5.951629596368663 Y20.537334702211794 F300
G1 X5.6999927449393075 Y20.60351400533058 F300
G1 X5.444568090625901 Y20.661890420555217 F300
G1 X5.193813270327364 Y20.711094393173433 F300
G1 X4.948619123856215 Y20.75182570699618 F300
G1 X4.709818828615314 Y20.784743933236488 F300
G1 X4.387803611565473 Y20.81887253327289 F300
G1 X4.085891242683327 Y20.840277340776332 F300
G1 X3.805424895366982 Y20.850832085154266 F300
G1 X3.5236140755194505 Y20.851920841751998 F300
G1 X3.2735825372255025 Y20.84412731858001 F300
G1 X3.0550123592467004 Y20.829521246538803 F300
G1 X2.835814573115636 Y20.805812934251676 F300
G1 X2.6612349962053976 Y20.778094407915702 F300
G1 X2.5267826343068664 Y20.748554202845003 F300
G1 X2.5546112936828678 Y18.870107863052002 F300
G1 X2.7981896584778103 Y18.89494345388658 F300
G1 X3.0346644683371644 Y18.909151806611746 F300
G1 X3.264089972652981 Y18.91330274560619 F300
G1 X3.486532518721095 Y18.90791424312909 F300
G1 X3.7020665920823244 Y18.89345343996557 F300
G1 X3.910770741883743 Y18.870337756245156 F300
G1 X4.124424131945618 Y18.836832632099046 F300
G1 X4.329616022257785 Y18.794641149495316 F300
G1 X4.526482195176432 Y18.744221617272366 F300
G1 X4.715157208031637 Y18.685973968448746 F300
G1 X4.895768980083258 Y18.62024141939815 F300
G1 X5.0684332806245145 Y18.54731234006106 F300
G1 X5.241189041646459 Y18.463298306698835 F300
G1 X5.40448636031842 Y18.3723657245359 F300
G1 X5.558507855046807 Y18.274797909538503 F300
G1 X5.703409094765978 Y18.170812737767484 F300
G1 X5.839311071242892 Y18.06056590043733 F300
G1 X5.966292747714168 Y17.944154593757986 F300
G1 X6.087264543653279 Y17.818432801226272 F300
G1 X6.198257478609172 Y17.687028021662105 F300
G1 X6.299357816318329 Y17.549955505894022 F300
G1 X6.390580415577048 Y17.407168067505115 F300
G1 X6.471859984538533 Y17.258562663957772 F300
G1 X6.543042980961692 Y17.10398749659421 F300
G1 X6.602893099944859 Y16.946155705465046 F300
G1 X6.652236034358623 Y16.78289407268819 F300
G1 X6.690803182152295 Y16.613944579343283 F300
G1 X6.718209145883353 Y16.439015155700368 F300
G1 X6.733945872980865 Y16.25778904366531 F300
G1 X6.7373778181760695 Y16.069934027828 F300
G1 X6.715290233952724 Y15.9004367478647 F300
G1 X6.684546425090793 Y15.73968588315083 F300
G1 X6.645834114686256 Y15.587085638596548 F300
G1 X6.599748480943515 Y15.442075458716804 F300
G1 X6.546797547614966 Y15.304131203017308 F300
G1 X6.487408018108103 Y15.172766477923814 F300
G1 X6.404478710440227 Y15.016846027775744 F300
G1 X6.312878203249064 Y14.870261668183714 F300
G1 X6.213225191878747 Y14.73241667976642 F300
G1 X6.106039977960516 Y14.602779264250277 F300
G1 X5.991758838781052 Y14.480883086173563 F300
G1 X5.869661710520882 Y14.365356584116558 F300
G1 X5.741815148620155 Y14.257573204744542 F300
G1 X5.608709176102351 Y14.1572080131419 F300
G1 X5.470797904513474 Y14.063975701261413 F300
G1 X5.328508958330781 Y13.977629655051048 F300
G1 X5.144741009091724 Y13.87887746312582 F300
G1 X4.957346740217034 Y13.79105979624257 F300
G1 X4.76735068913353 Y13.71369361057344 F300
G1 X4.575737054893151 Y13.646351987030055 F300
G1 X4.379878921173375 Y13.587674721609659 F300
G1 X4.186556045538396 Y13.53917363049834 F300
G1 X3.996787269943023 Y13.50025986499123 F300
G1 X3.8115218066040155 Y13.470395884584358 F300
G1 X3.6220525705446374 Y13.448172641836209 F300
G1 X3.44220315148003 Y13.435083608954283 F300
G1 X3.272651548652578 Y13.430308912703001 F300
G1 X3.113941891599236 Y13.433107150187745 F300
G1 X2.9502951544115072 Y13.444344642157011 F300
G1 X2.8038523631940095 Y13.462926533540688 F300
G1 X2.6742841233167853 Y13.487738612775884 F300
G1 X2.561075988014671 Y13.517831586314003 F300
G1 X2.5824417935786705 Y11.62069564439 F300
G1 X2.979752422820358 Y11.591063546544746 F300
G1 X3.352201108843124 Y11.573149532520342 F300
G1 X3.701402657578559 Y11.56586116553746 F300
G1 X4.0288862136172305 Y11.568184489129763 F300
G1 X4.336099625079236 Y11.579181438861768 F300
G1 X4.657213524845203 Y11.600680965576776 F300
G1 X4.957540635942347 Y11.630959372397136 F300
G1 X5.238559031381127 Y11.669096016065707 F300
G1 X5.501662261949303 Y11.714251183090068 F300
G1 X5.7481637458592 Y11.765663405819481 F300
G1 X6.002642462661784 Y11.828904895869382 F300
G1 X6.240706102686462 Y11.898366333159807 F300
G1 X6.463597332901175 Y11.973356159896513 F300
G1 X6.672482548231656 Y12.053256192513953 F300
G1 X6.868455720679763 Y12.137518525569904 F300
G1 X7.066750750535536 Y12.232851426050818 F300
G1 X7.252816474919445 Y12.332429227184898 F300
G1 X7.4275979027159185 Y12.435774920592118 F300
G1 X7.591981231093925 Y12.542464538689714 F300
G1 X7.746797114302131 Y12.652123778419808 F300
G1 X7.937143169364981 Y12.800318701221075 F300
G1 X8.114101676586492 Y12.952610945657655 F300
G1 X8.278982373389788 Y13.108325596279574 F300
G1 X8.433009491487503 Y13.266856144675948 F300
G1 X8.581820283195082 Y13.432857669209609 F300
G1 X8.721402563348564 Y13.60064813076025 F300
G1 X8.85277589728165 Y13.769593219504063 F300
G1 X8.976914416997083 Y13.93909260464509 F300
G1 X9.136578313003596 Y14.170638503467453 F300
G1 X9.286356786915952 Y14.400178049512002 F300
G1 X9.428333455592073 Y14.626210138634 F300
G1 X9.43110291156956 Y14.430510462973505 F300
G1 X9.444542980476912 Y14.245056128407668 F300
G1 X9.467800095872846 Y14.069110575987654 F300
G1 X9.500131946473017 Y13.90197570664179 F300
G1 X9.540903076643142 Y13.742992931947793 F300
G1 X9.589580027864493 Y13.591544562549752 F300
G1 X9.6490328271232 Y13.439277479633319 F300
G1 X9.716302012365896 Y13.294327959974796 F300
G1 X9.790983144073763 Y13.15623199111417 F300
G1 X9.872741424440633 Y13.024564350712698 F300
G1 X9.961305471211203 Y12.89893914800213 F300
G1 X10.056460664465412 Y12.779010225580002 F300
G1 X10.179624707937016 Y12.641656306925425 F300
G1 X10.31132310808824 Y12.512212408829722 F300
G1 X10.45118858527343 Y12.39030882156641 F300
G1 X10.598901221094222 Y12.275626454941284 F300
G1 X10.754176762450328 Y12.167895217945249 F300
G1 X10.914023503337342 Y12.068499564212164 F300
G1 X11.079728982367001 Y11.975954897071839 F300
G1 X11.250883164668585 Y11.890055807919568 F300
G1 X11.427083683004238 Y11.810620152896982 F300
G1 X11.607929718874745 Y11.737487629866001 F300
G1 X11.837049216345882 Y11.655672151190302 F300
G1 X12.06991432216925 Y11.583585592091339 F300
G1 X12.30553294995924 Y11.520839863989002 F300
G1 X12.54292093079416 Y11.46707555156275 F300
G1 X12.782897872821888 Y11.421649845243252 F300
G1 X13.020473407532624 Y11.384986771318765 F300
G1 X13.254619636990048 Y11.356578496945922 F300
G1 X13.484351795264075 Y11.335947073256 F300
G1 X13.708560304162619 Y11.328408435207669 F300
G1 X13.941417769220235 Y11.329917908896618 F300
G1 X14.183219334644397 Y11.340842480756937 F300
G1 X14.43426151664919 Y11.361585570807037 F300
G1 X14.694840147814169 Y11.39258601804871 F300
G1 X14.96524843820837 Y11.43431706326995 F300
G1 X15.245775147304329 Y11.487285347577497 F300
G1 X15.554411773718526 Y11.556281265567732 F300
G1 X15.874550829281407 Y11.639043405612822 F300
G1 X16.20649804823136 Y11.736236163285835 F300
G1 X16.55054782986248 Y11.848562662519953 F300
G1 X16.906981156788277 Y11.976763700902424 F300
G1 X17.27606360371408 Y12.121616771786 F300
G1 X17.313443684414082 Y14.326555109996004 F300
G1 X17.01219155257175 Y14.2120072413868 F300
G1 X16.743714493012835 Y14.10169652161059 F300
G1 X16.233675768930087 Y13.885211738368671 F300
G1 X15.982808889732834 Y13.785232245953425 F300
G1 X15.721156433161335 Y13.692037333157753 F300
G1 X15.54341233178053 Y13.63668908939884 F300
G1 X15.352094404398215 Y13.584756394459477 F300
G1 X15.143985406702086 Y13.537109878865337 F300
G1 X14.934649074659838 Y13.497910780412965 F300
G1 X14.701452269720981 Y13.463575818152698 F300
G1 X14.439991610547835 Y13.43536594837892 F300
G1 X14.17824311214024 Y13.416506025388298 F300
G1 X13.882412620429996 Y13.40476551240409 F300
G1 X13.547003965694087 Y13.401742114586 F300
G1 X13.346042029570869 Y13.402080167178207 F300
G1 X13.159473264470936 Y13.41150507323456 F300
G1 X12.98748318023665 Y13.430745543240596 F300
G1 X12.858586295905647 Y13.454017269505258 F300
G1 X12.739955947462493 Y13.484272817303758 F300
G1 X12.631242148481393 Y13.521726914941526 F300
G1 X12.532108700658588 Y13.566649730687752 F300
G1 X12.45592498634948 Y13.610478539424923 F300
G1 X12.38621868775727 Y13.66008573604258 F300
G1 X12.322773095363928 Y13.715926383532086 F300
G1 X12.265488635230021 Y13.77859145963128 F300
G1 X12.214405430784774 Y13.848818218987532 F300
G1 X12.17239660117405 Y13.922165775479986 F300
G1 X12.136113692287616 Y14.004234948423655 F300
G1 X12.106068236816773 Y14.096320719873932 F300
G1 X12.083003351128943 Y14.199896072258884 F300
G1 X12.067898274440086 Y14.3166145502 F300
G1 X12.068594139567907 Y14.389490292257886 F300
G1 X12.079425403414637 Y14.456611053459127 F300
G1 X12.09947124791058 Y14.519040857881892 F300
G1 X12.128250528639285 Y14.577700839424336 F300
G1 X12.165665099701005 Y14.633356001390919 F300
G1 X12.221180870942412 Y14.69592960877882 F300
G1 X12.288845620027551 Y14.755147488304017 F300
G1 X12.36891471691537 Y14.81137398710607 F300
G1 X12.461689625939423 Y14.864869529583336 F300
G1 X12.589336485943212 Y14.925379517460925 F300
G1 X12.732736752972038 Y14.981518893822567 F300
G1 X12.890709772088838 Y15.033763120787752 F300
G1 X13.133027133491142 Y15.101364027421543 F300
G1 X13.387463457082756 Y15.162644761014668 F300
G1 X13.886688599854669 Y15.274122436274583 F300
G1 X14.12239569103994 Y15.331869053410198 F300
G1 X14.323123119338087 Y15.390804132578 F300
G1 X14.866781966246178 Y15.519341405466212 F300
G1 X15.29156971447834 Y15.62357297561417 F300
G1 X15.679522676285732 Y15.725050605790303 F300
G1 X15.977301001608094 Y15.810914625071337 F300
G1 X16.165075982880502 Y15.871363899024292 F300
G1 X16.3223394680865 Y15.927947882882266 F300
G1 X16.455032370752843 Y15.981805776723501 F300
G1 X16.584845970771116 Y16.04205415822649 F300
G1 X16.698323106987857 Y16.102892876028967 F300
G1 X16.799479211938092 Y16.16522312634467 F300
G1 X16.896842202255883 Y16.233595583160408 F300
G1 X16.99118833560183 Y16.30812736783319 F300
G1 X17.085356915189344 Y16.39014336970883 F300
G1 X17.22537909994274 Y16.522991775519053 F300
G1 X17.38738087053209 Y16.68554320259 F300
G1 X17.369802860923784 Y16.544434309658918 F300
G1 X17.356137088323035 Y16.407974411552 F300
G1 X17.34665102581478 Y16.26970611839737 F300
G1 X17.341491672399595 Y16.116657594936502 F300
G1 X17.341395518277682 Y15.955508190474394 F300
G1 X17.34690956561741 Y15.760657353271252 F300
G1 X17.357696918586 Y15.551138900453346 F300
G1 X17.3758557108321 Y15.289038287084 F300
G1 X24.261104434742098 Y15.294121627484003 F300
G1 X24.25631850856753 Y15.225015610881098 F300
G1 X24.238120275177977 Y15.127160701764788 F300
G1 X24.200661381228183 Y14.996725440203713 F300
G1 X24.153623057754196 Y14.871585644384233 F300
G1 X24.08806989754334 Y14.729084633347709 F300
G1 X24.000224052974872 Y14.570763264655302 F300
G1 X23.927861217054907 Y14.45873677937092 F300
G1 X23.843661664091485 Y14.343564364150794 F300
G1 X23.746378477022088 Y14.22637694660534 F300
G1 X23.634623429872022 Y14.108526551899475 F300
G1 X23.542238227101485 Y14.022293517900637 F300
G1 X23.441181156668204 Y13.937833495516175 F300
G1 X23.330757453511517 Y13.85581643254952 F300
G1 X23.2102044314601 Y13.777012462710847 F300
G1 X23.078690491809486 Y13.702306752996934 F300
G1 X22.947486994838002 Y13.638177097899781 F300
G1 X22.805747759837406 Y13.57933321152699 F300
G1 X22.652507895176363 Y13.526681549486897 F300
G1 X22.4867204610364 Y13.481288303479449 F300
G1 X22.30725621867709 Y13.444395319008377 F300
G1 X22.13396667038892 Y13.419743523375214 F300
G1 X21.947410568687257 Y13.40419918677149 F300
G1 X21.746328849394484 Y13.399142175309603 F300
G1 X21.529382660408785 Y13.406164470909452 F300
G1 X21.29515159036468 Y13.427083700994498 F300
G1 X21.112872668082577 Y13.452225428547692 F300
G1 X20.91940821774241 Y13.486820395114934 F300
G1 X20.713959440481375 Y13.531934931000603 F300
G1 X20.495694093642474 Y13.588740462881727 F300
G1 X20.26374487100656 Y13.658518078300618 F300
G1 X20.0172075867621 Y13.742663350016002 F300
G1 X19.99634836236211 Y11.745946522532002 F300
G1 X20.33087276816008 Y11.684616754586841 F300
G1 X20.664633999008824 Y11.632084943956608 F300
G1 X20.997081290793126 Y11.589182064681081 F300
G1 X21.32767496966711 Y11.556739188143004 F300
G1 X21.594021467755006 Y11.538685703563504 F300
G1 X21.857634030946286 Y11.528527897584228 F300
G1 X22.118318440176395 Y11.526633489156803 F300
G1 X22.375887499663424 Y11.533375691566095 F300
G1 X22.630158878830112 Y11.549135942420003 F300
G1 X22.88525218292348 Y11.574826293792949 F300
G1 X23.135912648126613 Y11.61057602958017 F300
G1 X23.382077470694483 Y11.656766354856417 F300
G1 X23.623681195272837 Y11.71381052008077 F300
G1 X23.860651148162113 Y11.782158749597002 F300
G1 X24.055485869333413 Y11.84845461986982 F300
G1 X24.246736463797923 Y11.92324657031116 F300
G1 X24.43442118659496 Y12.00687711637122 F300
G1 X24.6185422251833 Y12.099728056132683 F300
G1 X24.79908254626423 Y12.202222972977022 F300
G1 X24.976002835974114 Y12.314829573908003 F300
G1 X25.144575259697042 Y12.43456401675698 F300
G1 X25.309624677191593 Y12.564911147013103 F300
G1 X25.471107087518284 Y12.70650935501412 F300
G1 X25.628936648651965 Y12.860061421204179 F300
G1 X25.782982352242477 Y13.02633623017623 F300
G1 X25.933065000577113 Y13.206170379587 F300
G1 X26.069114481627977 Y13.386698769768213 F300
G1 X26.20151342556291 Y13.580901050943687 F300
G1 X26.330011034861194 Y13.789760641788757 F300
G1 X26.45429723362528 Y14.014332824278195 F300
G1 X26.574000965854975 Y14.255745998591555 F300
G1 X26.68868870028211 Y14.515203130868 F300
G1 X26.718265750535316 Y14.322311422207425 F300
G1 X26.75532447105182 Y14.139905943763665 F300
G1 X26.79925558772682 Y13.96730216903246 F300
G1 X26.8495186512049 Y13.803852592947335 F300
G1 X26.905639166823445 Y13.64894638060874 F300
G1 X26.96720554427005 Y13.502009171888409 F300
G1 X27.053158936747558 Y13.325166231863053 F300
G1 X27.146746033536438 Y13.159520956372967 F300
G1 X27.24737758594182 Y13.004273723304888 F300
G1 X27.354556441914575 Y12.858691624043868 F300
G1 X27.467868498072335 Y12.722107329722895 F300
G1 X27.590159269444648 Y12.590676793990868 F300
G1 X27.71787510747003 Y12.467844723957572 F300
G1 X27.850619179549813 Y12.35312089849196 F300
G1 X27.98803592031546 Y12.246057966820137 F300
G1 X28.129803883267574 Y12.146249498717395 F300
G1 X28.313959305235862 Y12.0303809181634 F300
G1 X28.50289882262234 Y11.925345256250377 F300
G1 X28.69586607097981 Y11.830482933690856 F300
G1 X28.89213802143438 Y11.745187573217835 F300
G1 X29.092689838406418 Y11.66829765534551 F300
G1 X29.293733525216766 Y11.600495730298151 F300
G1 X29.49443678353595 Y11.54115245420638 F300
G1 X29.69399723415134 Y11.489673447570134 F300
G1 X29.96350230334451 Y11.431014793942445 F300
G1 X30.224268534260805 Y11.38515131385396 F300
G1 X30.47450784299705 Y11.350459016120213 F300
G1 X30.72648849155673 Y11.324222291794484 F300
G1 X30.959594888249207 Y11.307435235051008 F300
G1 X31.17279616955013 Y11.298296173214004 F300
G1 X31.585856986212626 Y11.311541119931274 F300
G1 X31.970994219302582 Y11.333189396471058 F300
G1 X32.330112363923426 Y11.362146247110012 F300
G1 X32.66500692459959 Y11.397410161904594 F300
G1 X32.97736994023971 Y11.438068391453086 F300
G1 X33.30424196180597 Y11.489299545716571 F300
G1 X33.60781653984537 Y11.54549132981995 F300
G1 X33.88981855219991 Y11.605738163291141 F300
G1 X34.15186594161288 Y11.669224530709966 F300
G1 X34.3954754777148 Y11.735220122456669 F300
G1 X34.70964615371671 Y11.83106346769487 F300
G1 X34.995074552289196 Y11.929508801645907 F300
G1 X35.25460817451601 Y12.029223965236776 F300
G1 X35.49085818708288 Y12.129069452764252 F300
G1 X35.731117946913585 Y12.240041540959282 F300
G1 X35.94905357391052 Y12.349322908692894 F300
G1 X36.147045687113234 Y12.455902047116027 F300
G1 X36.32726347345146 Y12.558934468915336 F300
G1 X36.67704970658325 Y12.77402069011373 F300
G1 X36.96843674192804 Y12.964133257449417 F300
G1 X37.24350959753036 Y13.143458735441001 F300
G1 X37.478123397620124 Y13.283983904906 F300
G1 X37.478110251050005 Y13.28396462327 F300;svg#svg1 > g#layer1 > g#g1 > path#path2
G0 X33.74440373875401 Y16.189538892374
G1 X34.826691608252005 Y14.753047369556 F300
G1 X34.68656928704928 Y14.654235687876138 F300
G1 X34.538255071720435 Y14.559236792357854 F300
G1 X34.381871480384376 Y14.467800182912178 F300
G1 X34.217546650650014 Y14.379678419265334 F300
G1 X33.99512458377915 Y14.270988733386528 F300
G1 X33.76112132685065 Y14.167223991805852 F300
G1 X33.51614315483201 Y14.067814771590667 F300
G1 X33.26863021167622 Y13.974974540917465 F300
G1 X33.013183963204334 Y13.885468344121197 F300
G1 X32.75066678258601 Y13.79866598534 F300
G1 X32.49641805139024 Y13.738188473413453 F300
G1 X32.25655391500206 Y13.6919212198299 F300
G1 X32.030625483925114 Y13.658394774398207 F300
G1 X31.818154988740986 Y13.636276120668068 F300
G1 X31.618643185080305 Y13.62436263032443 F300
G1 X31.407994265042852 Y13.621835146705862 F300
G1 X31.21360878509315 Y13.629533664093131 F300
G1 X31.03472311974429 Y13.646089700316276 F300
G1 X30.870561577115613 Y13.67030207942547 F300
G1 X30.720348967739074 Y13.701128421711731 F300
G1 X30.562926931791804 Y13.74389417775535 F300
G1 X30.423385930038297 Y13.792653607061727 F300
G1 X30.300442623012394 Y13.84623586354284 F300
G1 X30.192865121796338 Y13.903705033525387 F300
G1 X30.099503075927075 Y13.964345261981531 F300
G1 X30.0215404944532 Y14.02571273333789 F300
G1 X29.95595757349178 Y14.088442445693381 F300
G1 X29.901745610246472 Y14.152236662277527 F300
G1 X29.858053625748738 Y14.216964030968983 F300
G1 X29.824223556190304 Y14.282638865297109 F300
G1 X29.799824455009038 Y14.349395053613444 F300
G1 X29.784362451269693 Y14.419584811624281 F300
G1 X29.778870725883593 Y14.490609665596129 F300
G1 X29.783462075420676 Y14.56290277527974 F300
G1 X29.798658617305406 Y14.636915629459626 F300
G1 X29.825398860666574 Y14.713060652493603 F300
G1 X29.865032050349694 Y14.791659699087084 F300
G1 X29.9096399941567 Y14.859840641042652 F300
G1 X29.965737343604278 Y14.929782514924867 F300
G1 X30.034837980018523 Y15.001553698006695 F300
G1 X30.118695311430315 Y15.07509374388188 F300
G1 X30.219293925994677 Y15.150200800040995 F300
G1 X30.33884480731377 Y15.226521100882064 F300
G1 X30.473428020212417 Y15.300312885393168 F300
G1 X30.630368695409878 Y15.37431219708441 F300
G1 X30.81250493521093 Y15.447802952853872 F300
G1 X31.022926271871597 Y15.51986499978571 F300
G1 X31.264981671266014 Y15.589361161478 F300
G1 X31.424146144063553 Y15.62831683240157 F300
G1 X31.786835005050808 Y15.71627693708712 F300
G1 X32.269941357254126 Y15.8331956162612 F300
G1 X32.79035830369979 Y15.95902701065038 F300
G1 X33.26497894741412 Y16.073725260981202 F300
G1 X33.610696391423424 Y16.157244507980224 F300
G1 X33.744403738754016 Y16.189538892373996 F300
G1 X33.74440373875401 Y16.189538892374 F300;svg#svg1 > g#layer1 > g#g1 > path#path3
G0 X24.279308052002 Y16.858587997748
G1 X19.82578038099201 Y16.868412867727997 F300
G1 X19.833067739082953 Y16.958193310762717 F300
G1 X19.852014621928845 Y17.06719849165813 F300
G1 X19.88547205341277 Y17.196065278172167 F300
G1 X19.927847158932448 Y17.321220704484475 F300
G1 X19.984265915101993 Y17.4572323948743 F300
G1 X20.05665898260202 Y17.602739432409333 F300
G1 X20.1167446281035 Y17.70721284303788 F300
G1 X20.18529247942371 Y17.813253059454212 F300
G1 X20.26291603719262 Y17.920078304330367 F300
G1 X20.350292042260268 Y18.026803382532496 F300
G1 X20.44252881167157 Y18.126696950202785 F300
G1 X20.543994938969036 Y18.22389425081169 F300
G1 X20.65534780447287 Y18.31753107391502 F300
G1 X20.77732210608802 Y18.406625180634663 F300
G1 X20.903458970222424 Y18.485853522312894 F300
G1 X21.04009729498091 Y18.558652308161136 F300
G1 X21.188167557205745 Y18.623973855353427 F300
G1 X21.348700047785762 Y18.680572878808828 F300
G1 X21.476708844187517 Y18.71611702581115 F300
G1 X21.61269730447874 Y18.7453458827563 F300
G1 X21.757327779370303 Y18.767507205355475 F300
G1 X21.91130534650192 Y18.781729686212103 F300
G1 X22.075376741054015 Y18.787014529147996 F300
G1 X22.291429336819814 Y18.768851508774 F300
G1 X22.48936919276589 Y18.740780502989097 F300
G1 X22.670793112303578 Y18.703814176725633 F300
G1 X22.83718697975573 Y18.658824047850228 F300
G1 X22.98992792105799 Y18.606540812698153 F300
G1 X23.14429228327242 Y18.541020729514344 F300
G1 X23.285392622575888 Y18.467754295568696 F300
G1 X23.41441346840289 Y18.387185475166888 F300
G1 X23.53241179895428 Y18.299613568990853 F300
G1 X23.64031693561177 Y18.20520003678275 F300
G1 X23.74134111301625 Y18.101294362697157 F300
G1 X23.833267509156364 Y17.990198163949604 F300
G1 X23.916620030620543 Y17.871837777324984 F300
G1 X23.991825455698546 Y17.746062634950988 F300
G1 X24.05921868062368 Y17.612656368447965 F300
G1 X24.11694771511926 Y17.476773111227743 F300
G1 X24.167719906302672 Y17.333609338958432 F300
G1 X24.21165412574331 Y17.182985399295283 F300
G1 X24.248832881400592 Y17.02470749818661 F300
G1 X24.27930805200202 Y16.858573974739997 F300
G1 X24.279308052002 Y16.858587997748 F300
