G21
G90;svg#svg5 > g#layer1 > path#path141
G0 X5.2843613 Y0.02643799999999885
G1 X4.946226686866026 Y0.057659380693561406 F300
G1 X4.610828482476263 Y0.09974690674588746 F300
G1 X4.278097155894344 Y0.15264335072717752 F300
G1 X3.9479662006679446 Y0.21631438493656108 F300
G1 X3.620373114723725 Y0.2907484163271865 F300
G1 X3.295260375 Y0.37595637500000034 F300
G1 X2.9734773050632572 Y0.4716872489474176 F300
G1 X2.654382078927459 Y0.5781079063231462 F300
G1 X2.337927828050445 Y0.6952630946642739 F300
G1 X2.0240749980608155 Y0.8232190889407942 F300
G1 X1.7127922600228893 Y0.96206332605545 F300
G1 X1.4040574 Y1.1119040000000027 F300
G1 X1.2478827001324835 Y1.193090777745945 F300
G1 X1.0852229745370372 Y1.2819193425925934 F300
G1 X0.7650598962962963 Y1.4678177407407405 F300
G1 X0.47001211249999997 Y1.652384249999999 F300
G1 X0.33664244073630717 Y1.7411950144464146 F300
G1 X0.22652357037037035 Y1.8184039259259248 F300
G1 X0.12749847923252455 Y1.8929271812394302 F300
G1 X0.06103821712962968 Y1.9486618240740725 F300
G1 X0.02202443146324218 Y1.9875632806224197 F300
G1 X0.004414404440019455 Y2.0117788971024244 F300
G1 X0.00000000000000000000000000000002904042894853843 Y2.0259429999999976 F300
G1 X0.008292841284407543 Y2.0424604963527218 F300
G1 X0.05319428518518519 Y2.1017108518518506 F300
G1 X0.1926496148148148 Y2.264709814814815 F300
G1 X0.3881747 Y2.479652999999999 F300
G1 X0.6559210195686246 Y2.764322908479614 F300
G1 X0.9236394528000001 Y3.0437315360000015 F300
G1 X1.1919206831745244 Y3.3186237288744147 F300
G1 X1.4529119464000002 Y3.5811044080000016 F300
G1 X1.7120156227612116 Y3.836641608741753 F300
G1 X1.9566685136000002 Y4.072906512000001 F300
G1 X2.197008675196102 Y4.299611846692645 F300
G1 X2.4155854872000004 Y4.500272744000001 F300
G1 X2.627610350428273 Y4.688619476929754 F300
G1 X2.8103392 Y4.8443380000000005 F300
G1 X3.1061393 Y5.090229999999998 F300
G1 X2.8648147 Y5.185150999999998 F300
G1 X2.668031931958721 Y5.266766253787473 F300
G1 X2.486941324436546 Y5.350386611115544 F300
G1 X2.320455809880665 Y5.436079628913047 F300
G1 X2.1675526002517422 Y5.523913548494924 F300
G1 X2.0272724671875 Y5.613962984374999 F300
G1 X1.8876899565926055 Y5.714747025664135 F300
G1 X1.7603510303976881 Y5.818940577032856 F300
G1 X1.6444229126459577 Y5.926783763248036 F300
G1 X1.5391577505155525 Y6.038554515091357 F300
G1 X1.4438930375 Y6.154573625 F300
G1 X1.356363454495326 Y6.27776910970902 F300
G1 X1.277803518910861 Y6.406805627264609 F300
G1 X1.2079094895108486 Y6.542248200337872 F300
G1 X1.1464619280876236 Y6.68471902378576 F300
G1 X1.0933222140624999 Y6.834898953125001 F300
G1 X1.0505827889902424 Y6.984967639295672 F300
G1 X1.0151207824892965 Y7.143971204448366 F300
G1 X0.987095376391341 Y7.312709648073277 F300
G1 X0.9667098827032898 Y7.492035352186531 F300
G1 X0.9542058 Y7.6828550000000035 F300
G1 X0.9510677453026447 Y7.866021333936016 F300
G1 X0.9573985327952284 Y8.043737719286947 F300
G1 X0.9728449496134913 Y8.216258215723688 F300
G1 X0.997113570611253 Y8.383829875922885 F300
G1 X1.0299704595157626 Y8.546689596917163 F300
G1 X1.0712405720000002 Y8.705060872000006 F300
G1 X1.1220247715344296 Y8.862591865815034 F300
G1 X1.1812860054402492 Y9.015523061595115 F300
G1 X1.2489578670318415 Y9.164038323143664 F300
G1 X1.325030314620965 Y9.3082979423461 F300
G1 X1.409547617262198 Y9.448435481241479 F300
G1 X1.5026059600000004 Y9.584554776000004 F300
G1 X1.6022230568914675 Y9.714114102980048 F300
G1 X1.7101147375714891 Y9.839646108793012 F300
G1 X1.826447967589083 Y9.961181035401573 F300
G1 X1.9514284023194541 Y10.07871630375914 F300
G1 X2.085297505631936 Y10.192214757784788 F300
G1 X2.2283295720000003 Y10.301603144000003 F300
G1 X2.4027162531185726 Y10.42099699806603 F300
G1 X2.5894263803349924 Y10.534443412120538 F300
G1 X2.7889350369807078 Y10.641712741190869 F300
G1 X3.001756577224951 Y10.742509785154814 F300
G1 X3.2284390160000003 Y10.836472408000004 F300
G1 X3.4531236382019532 Y10.917660189651693 F300
G1 X3.6904371235420887 Y10.991981190691586 F300
G1 X3.9408534199132568 Y11.059030736678675 F300
G1 X4.204861506944593 Y11.11835069913285 F300
G1 X4.482961899999999 Y11.169429000000004 F300
G1 X4.588009944599168 Y11.183602887273132 F300
G1 X4.730964048148147 Y11.197058351851858 F300
G1 X5.062708951851852 Y11.21602048148149 F300
G1 X5.441830549999999 Y11.225841500000005 F300
G1 X5.831962781481481 Y11.226047518518524 F300
G1 X6.196739585185185 Y11.216164648148153 F300
G1 X6.363150971284061 Y11.206961365268434 F300
G1 X6.4997948999999995 Y11.195719000000004 F300
G1 X6.756074180610571 Y11.166530432087074 F300
G1 X7.018032428124999 Y11.129530625000003 F300
G1 X7.279446603831839 Y11.085758506730373 F300
G1 X7.536265924999999 Y11.036094000000002 F300
G1 X7.789057578823048 Y10.980399449574737 F300
G1 X8.026778859375 Y10.921136875000002 F300
G1 X8.256919718867717 Y10.856193284060854 F300
G1 X8.4618547 Y10.790387000000003 F300
G1 X8.6397717 Y10.729277000000003 F300
G1 X9.0872977 Y11.144080000000002 F300
G1 X9.480213144708483 Y11.501301533184803 F300
G1 X9.877129076367341 Y11.848418317024576 F300
G1 X10.2779108557188 Y12.185466262284809 F300
G1 X10.682430606693293 Y12.512476350587885 F300
G1 X11.09056686422202 Y12.829474365305378 F300
G1 X11.502204217187499 Y13.136480625000003 F300
G1 X11.922535390361 Y13.43722503652779 F300
G1 X12.34576290808055 Y13.727427909443772 F300
G1 X12.771770498737553 Y14.007124154984474 F300
G1 X13.200448263605836 Y14.276342684059646 F300
G1 X13.631692282223263 Y14.535106117491171 F300
G1 X14.0654042125 Y14.783430500000003 F300
G1 X14.50696001413945 Y15.02423452148923 F300
G1 X14.950349988056347 Y15.254091317777188 F300
G1 X15.395479490204982 Y15.473031882546639 F300
G1 X15.84225972906835 Y15.681079735746671 F300
G1 X16.290607310461702 Y15.878250607047601 F300
G1 X16.7404437765625 Y16.064552125000002 F300
G1 X17.196948403418254 Y16.24195874096355 F300
G1 X17.65430097017524 Y16.40804625577167 F300
G1 X18.112431796112265 Y16.56283500411797 F300
G1 X18.571276214509236 Y16.70633585812787 F300
G1 X19.030774035017924 Y16.838549882746296 F300
G1 X19.490869 Y16.959468 F300
G1 X19.936279387771936 Y17.065455543715615 F300
G1 X20.383342994977035 Y17.16087297611119 F300
G1 X20.831712962383538 Y17.24573980161264 F300
G1 X21.28104590625 Y17.320064765625 F300
G1 X21.732411801955507 Y17.384029105356046 F300
G1 X22.18317839567682 Y17.437276287393466 F300
G1 X22.633003756931952 Y17.479844259823714 F300
G1 X23.0815505 Y17.511760125 F300
G1 X23.531543965624923 Y17.533149275033278 F300
G1 X23.97866824825281 Y17.54375063975428 F300
G1 X24.422602847518647 Y17.543622474081346 F300
G1 X24.86303284375 Y17.532811171875004 F300
G1 X25.304252997468133 Y17.51106674489285 F300
G1 X25.740365024976047 Y17.478547571661156 F300
G1 X26.171087005497665 Y17.435329656557936 F300
G1 X26.596142999999998 Y17.381475000000002 F300
G1 X26.971398906295704 Y17.324578439982417 F300
G1 X27.349510145585498 Y17.2586591006601 F300
G1 X27.730225213041365 Y17.183742412933114 F300
G1 X28.113285220991706 Y17.099848195843318 F300
G1 X28.498422921874997 Y17.006991078125 F300
G1 X28.97483680931907 Y16.88042784468618 F300
G1 X29.452020579141188 Y16.740749288035644 F300
G1 X29.929414929610314 Y16.588070882852456 F300
G1 X30.406446625 Y16.422497125000003 F300
G1 X30.878544213103574 Y16.245669447215377 F300
G1 X31.347772246382597 Y16.05689593280071 F300
G1 X31.813553922264965 Y15.856351134511915 F300
G1 X32.275304015625 Y15.644198109375 F300
G1 X32.73176197064632 Y15.420924518761032 F300
G1 X33.181747210183794 Y15.187041536982509 F300
G1 X33.62470706849668 Y14.94276554503528 F300
G1 X34.060085 Y14.688299 F300
G1 X34.32029431200001 Y14.526906088000004 F300
G1 X34.57354093600001 Y14.361625704000003 F300
G1 X34.790606503999996 Y14.212527176 F300
G1 X34.942272648 Y14.099679832000003 F300
G1 X34.99032565841491 Y14.057073015685653 F300
G1 X34.999321 Y14.043153 F300
G1 X34.99584914862367 Y14.027634863905808 F300
G1 X34.983543203125 Y14.019886171875001 F300
G1 X34.96297613696414 Y14.019836327207399 F300
G1 X34.917761125 Y14.030590875000001 F300
G1 X34.774301734374994 Y14.083704890625 F300
G1 X34.525492 Y14.187666 F300
G1 X34.26045702753764 Y14.295379084153428 F300
G1 X33.9682929340654 Y14.404117119325386 F300
G1 X33.64874091200001 Y14.513381400000002 F300
G1 X33.32750999358951 Y14.614789109586532 F300
G1 X32.98495633015114 Y14.71501263736637 F300
G1 X32.62165377600001 Y14.81353608 F300
G1 X32.25725544997576 Y14.905214777461259 F300
G1 X31.877763066407535 Y14.993798860995545 F300
G1 X31.484238784000002 Y15.078799559999998 F300
G1 X31.089755284224196 Y15.157422925949962 F300
G1 X30.68673238298253 Y15.231246253797405 F300
G1 X30.276504128000003 Y15.299841360000002 F300
G1 X29.86533359451432 Y15.362065138991632 F300
G1 X29.452174430689492 Y15.418009982122774 F300
G1 X29.038458 Y15.467331000000001 F300
G1 X28.53330471516748 Y15.518858986822151 F300
G1 X28.026663272952803 Y15.561512238754496 F300
G1 X27.518749509446597 Y15.595309719882527 F300
G1 X27.009779201879983 Y15.620265183779717 F300
G1 X26.499968546874996 Y15.636387203125002 F300
G1 X25.989991661029144 Y15.643676624176516 F300
G1 X25.480313038865972 Y15.642158302638721 F300
G1 X24.97115174459979 Y15.631861866527327 F300
G1 X24.46272629570447 Y15.612811881671306 F300
G1 X23.955255125 Y15.585027875000002 F300
G1 X23.447734049484428 Y15.54842550707462 F300
G1 X22.94231496696549 Y15.503140060944917 F300
G1 X22.439210935299343 Y15.449212264387008 F300
G1 X21.93863394272848 Y15.386677557143976 F300
G1 X21.440795390625 Y15.315566109375002 F300
G1 X20.943069013208095 Y15.235419940437833 F300
G1 X20.449235960465376 Y15.146774419524924 F300
G1 X19.95949391436612 Y15.049679821004691 F300
G1 X19.474039134304157 Y14.944180518528203 F300
G1 X18.993066999999996 Y14.830315000000002 F300
G1 X18.460180367553125 Y14.693049534731209 F300
G1 X17.931456158532747 Y14.545145954679311 F300
G1 X17.406927750329032 Y14.386681132617815 F300
G1 X16.88663062632525 Y14.217722771340433 F300
G1 X16.370602781263713 Y14.038329579246145 F300
G1 X15.858885124999995 Y13.848551453125001 F300
G1 X15.350632466358402 Y13.648068223806094 F300
G1 X14.847246584045925 Y13.437431150796385 F300
G1 X14.348768382005316 Y13.216692913149535 F300
G1 X13.855242046120717 Y12.985897636702429 F300
G1 X13.366715440339016 Y12.745081088015164 F300
G1 X12.883240499999996 Y12.494270875000002 F300
G1 X12.404967349074516 Y12.23353900755214 F300
G1 X11.932283635680133 Y11.963096324035147 F300
G1 X11.46523980006766 Y11.682972874845344 F300
G1 X11.003890738336382 Y11.393190736416967 F300
G1 X10.54829619056188 Y11.093764223800797 F300
G1 X10.098521124999998 Y10.784700109375002 F300
G1 X9.65558709114763 Y10.466695595549961 F300
G1 X9.218977175888583 Y10.139380533011742 F300
G1 X8.78875382546882 Y9.802762968061579 F300
G1 X8.364985159095038 Y9.456843538861406 F300
G1 X7.947745349760176 Y9.101615707907683 F300
G1 X7.5371149999999965 Y8.737066000000002 F300
G1 X7.39998951111111 Y8.617531851851856 F300
G1 X7.292142488888886 Y8.53227614814815 F300
G1 X7.2514254048288755 Y8.505377050489933 F300
G1 X7.236921799999997 Y8.499756000000001 F300
G1 X7.18524692222222 Y8.513538703703706 F300
G1 X7.086699977777775 Y8.549670962962965 F300
G1 X6.962613499999996 Y8.600329000000002 F300
G1 X6.765243368843654 Y8.678494570628786 F300
G1 X6.5684813000036755 Y8.74470526804692 F300
G1 X6.372538865965507 Y8.799214267759995 F300
G1 X6.1775981749999955 Y8.842215875000003 F300
G1 X5.979467025196278 Y8.874425119663739 F300
G1 X5.783621554553263 Y8.894745576205825 F300
G1 X5.5901780109190256 Y8.903341647749167 F300
G1 X5.399239099999996 Y8.900301000000002 F300
G1 X5.2239443592592565 Y8.887473222222226 F300
G1 X5.058861174074071 Y8.867638777777781 F300
G1 X4.939728899999997 Y8.845071 F300
G1 X4.81091739443412 Y8.80566457038159 F300
G1 X4.694481565780764 Y8.760337685662016 F300
G1 X4.589795305097202 Y8.709879644888154 F300
G1 X4.496267325925924 Y8.65491151851852 F300
G1 X4.4062654077693475 Y8.590282195164484 F300
G1 X4.329206818442893 Y8.522059078379659 F300
G1 X4.264311190957091 Y8.450626644472695 F300
G1 X4.210977374074071 Y8.37616114814815 F300
G1 X4.167117179977437 Y8.294924802412394 F300
G1 X4.135705059170798 Y8.211129824862608 F300
G1 X4.116583665438412 Y8.124448673058136 F300
G1 X4.110058599999997 Y8.034419 F300
G1 X4.11409401353902 Y7.943599256890035 F300
G1 X4.125943648148145 Y7.870558259259261 F300
G1 X4.1478490712714695 Y7.8033485298330945 F300
G1 X4.180504318518516 Y7.742571740740742 F300
G1 X4.223970068180684 Y7.686185452843581 F300
G1 X4.2840988999999965 Y7.626165 F300
G1 X4.339792645767497 Y7.579719606607708 F300
G1 X4.405538803190187 Y7.533002281024366 F300
G1 X4.484107844799998 Y7.485550536000003 F300
G1 X4.565457284187334 Y7.443241242662492 F300
G1 X4.6637824366725456 Y7.39857934527986 F300
G1 X4.782977618399997 Y7.351021368000002 F300
G1 X4.972887159773823 Y7.284948710388573 F300
G1 X5.220998489599996 Y7.209566232000002 F300
G1 X5.49298239238063 Y7.135262173544177 F300
G1 X5.8384607271999975 Y7.0481738640000025 F300
G1 X6.212594956399133 Y6.959295858533638 F300
G1 X6.675654599999996 Y6.853833000000002 F300
G1 X7.085133551006532 Y6.7591303059940016 F300
G1 X7.434286970312497 Y6.672221578125002 F300
G1 X7.7646945949798045 Y6.582387199573552 F300
G1 X8.052017187499997 Y6.495949125000003 F300
G1 X8.32633350900317 Y6.403867385543178 F300
G1 X8.575099635937496 Y6.310343109375003 F300
G1 X8.816182366095365 Y6.209198442055905 F300
G1 X9.049788699999997 Y6.100731000000003 F300
G1 X9.211545006878879 Y6.0181018093522445 F300
G1 X9.365419061538775 Y5.931624082644861 F300
G1 X9.511211248756336 Y5.841814521574865 F300
G1 X9.648734925925924 Y5.749144370370375 F300
G1 X9.783948336872538 Y5.649302188573109 F300
G1 X9.908552577873667 Y5.54817446721037 F300
G1 X10.022589035588148 Y5.446228713728118 F300
G1 X10.126110774074071 Y5.343866629629632 F300
G1 X10.22568335967188 Y5.233809603646088 F300
G1 X10.312394035182692 Y5.125151423617564 F300
G1 X10.386637427864802 Y5.018165010520187 F300
G1 X10.448776999999996 Y4.913032000000001 F300
G1 X10.46848382500643 Y4.878368166726846 F300
G1 X10.477726999999998 Y4.868005555555559 F300
G1 X10.483499488919765 Y4.870547586864578 F300
G1 X10.488923666666663 Y4.904720444444448 F300
G1 X10.491586999999996 Y5.053438 F300
G1 X10.497962829349653 Y5.222359244406115 F300
G1 X10.515261249999996 Y5.412114390625 F300
G1 X10.541658629368344 Y5.605695568313134 F300
G1 X10.577297249999997 Y5.807245375000001 F300
G1 X10.620710012881641 Y6.008258954557885 F300
G1 X10.670964874999996 Y6.204594671875002 F300
G1 X10.728374709265342 Y6.39592180671761 F300
G1 X10.789533999999996 Y6.569926000000002 F300
G1 X10.870122712232243 Y6.76803151195477 F300
G1 X10.958393627990201 Y6.960013042164045 F300
G1 X11.054161015453746 Y7.145951387679911 F300
G1 X11.157274464781274 Y7.325912669349076 F300
G1 X11.267617078124996 Y7.499945828125002 F300
G1 X11.38612699441547 Y7.669476414339674 F300
G1 X11.511487260395775 Y7.832571204496664 F300
G1 X11.643607359058253 Y7.9892596702964855 F300
G1 X11.78242623785285 Y8.13954921947896 F300
G1 X11.927910124999995 Y8.283422875000003 F300
G1 X12.079695240869533 Y8.420530669848018 F300
G1 X12.237672019935431 Y8.550784049910265 F300
G1 X12.401827706639837 Y8.674142452704691 F300
G1 X12.572172050059173 Y8.79053674870354 F300
G1 X12.748734859374997 Y8.899867234375002 F300
G1 X12.929213370567778 Y9.000756412523579 F300
G1 X13.115367943995007 Y9.09423680874659 F300
G1 X13.307243903176284 Y9.180181889294142 F300
G1 X13.504901429108887 Y9.258431249248657 F300
G1 X13.708412999999997 Y9.328789 F300
G1 X13.925475696925186 Y9.394745984122517 F300
G1 X14.126651156249995 Y9.447920921875 F300
G1 X14.326540078955034 Y9.491773779017036 F300
G1 X14.525512499999998 Y9.525866125 F300
G1 X14.727450186747962 Y9.55093735956872 F300
G1 X14.943497343749996 Y9.568298265625002 F300
G1 X15.166822565810467 Y9.577841473487748 F300
G1 X15.419105999999996 Y9.580891000000001 F300
G1 X15.653936735272586 Y9.577405470966282 F300
G1 X15.875541947969863 Y9.567478687519106 F300
G1 X16.085287400108463 Y9.551302017173725 F300
G1 X16.28444062962963 Y9.529062037037042 F300
G1 X16.48537723762469 Y9.499051759472902 F300
G1 X16.678731464102327 Y9.462263981691008 F300
G1 X16.865572598808235 Y9.418695497452113 F300
G1 X17.0469197037037 Y9.368323962962965 F300
G1 X17.226473240886307 Y9.310159610178573 F300
G1 X17.403737381253386 Y9.244314447883045 F300
G1 X17.579598399238108 Y9.170520323230825 F300
G1 X17.754946999999994 Y9.088481000000002 F300
G1 X17.963348386253454 Y8.979439222207313 F300
G1 X18.159660787994156 Y8.863429592646758 F300
G1 X18.344691619482166 Y8.740246364906165 F300
G1 X18.519187629629624 Y8.609642074074078 F300
G1 X18.686561786902544 Y8.46889634185881 F300
G1 X18.844918683740847 Y8.319302005016038 F300
G1 X18.99477077899842 Y8.160355181768931 F300
G1 X19.136575370370366 Y7.991492259259262 F300
G1 X19.26808575346159 Y7.8158413527815815 F300
G1 X19.392983473963454 Y7.628811128922095 F300
G1 X19.511486763105072 Y7.429600268936513 F300
G1 X19.623777999999994 Y7.217344000000004 F300
G1 X19.767167999999995 Y6.929769000000007 F300
G1 X19.800447999999996 Y7.092819000000006 F300
G1 X19.826691915584945 Y7.2104778794959925 F300
G1 X19.85466533333333 Y7.314059259259268 F300
G1 X19.887564430216255 Y7.4145832982843825 F300
G1 X19.927183999999997 Y7.516354407407414 F300
G1 X19.973281326308403 Y7.619651866655553 F300
G1 X20.032113999999996 Y7.739056000000005 F300
G1 X20.119448950416498 Y7.895958546817153 F300
G1 X20.218148340844092 Y8.047530324483887 F300
G1 X20.328257092971366 Y8.19387735658508 F300
G1 X20.44990830237403 Y8.335044682891887 F300
G1 X20.58331385185185 Y8.471010037037042 F300
G1 X20.722943406867643 Y8.596760163814423 F300
G1 X20.873375183649895 Y8.716988068380711 F300
G1 X21.034834081757303 Y8.831552735970964 F300
G1 X21.207586661721287 Y8.940250546128414 F300
G1 X21.391933481481477 Y9.042812296296301 F300
G1 X21.57745028135905 Y9.133956330646974 F300
G1 X21.773221915094872 Y9.21866063314274 F300
G1 X21.97947813542758 Y9.296612881872495 F300
G1 X22.196461883601554 Y9.36744646547291 F300
G1 X22.424423999999995 Y9.430739000000006 F300
G1 X22.59479093496269 Y9.472659718823794 F300
G1 X22.744549608 Y9.50634840000001 F300
G1 X22.890339843244323 Y9.535059079107405 F300
G1 X23.029714703999996 Y9.557808040000008 F300
G1 X23.169874780501445 Y9.575648026272248 F300
G1 X23.318418695999995 Y9.589320080000006 F300
G1 X23.472354713271542 Y9.598729050965531 F300
G1 X23.649160992 Y9.605086680000007 F300
G1 X24.060440999999994 Y9.609310000000008 F300
G1 X24.308650870354448 Y9.60742693328245 F300
G1 X24.525448263999998 Y9.60183178400001 F300
G1 X24.734155204062795 Y9.591446326704864 F300
G1 X24.926303911999995 Y9.576230112000008 F300
G1 X25.11529731771926 Y9.554993978341283 F300
G1 X25.30334992799999 Y9.527266648000007 F300
G1 X25.492848569501795 Y9.492920086419243 F300
G1 X25.696928295999996 Y9.449703056000008 F300
G1 X25.90753812282873 Y9.399793409952492 F300
G1 X26.147380999999992 Y9.338301000000008 F300
G1 X26.447338999999992 Y9.25905100000001 F300
G1 X26.447338999999992 Y8.241195000000012 F300
G1 X26.446564679999998 Y7.795812192000012 F300
G1 X26.44349643999999 Y7.500943416000013 F300
G1 X26.43701635999999 Y7.326980544000013 F300
G1 X26.431494587277342 Y7.271432982000217 F300
G1 X26.426006519999994 Y7.244315448000015 F300
G1 X26.417363306750698 Y7.226784052729017 F300
G1 X26.40934899999999 Y7.2233400000000145 F300
G1 X26.36092044444444 Y7.23546333333335 F300
G1 X26.27048588888888 Y7.267246666666683 F300
G1 X26.157621999999993 Y7.3118100000000155 F300
G1 X25.947137673822105 Y7.392134882375793 F300
G1 X25.719923039999998 Y7.465799792000017 F300
G1 X25.48666777378691 Y7.529759265845017 F300
G1 X25.246415119999995 Y7.584767776000016 F300
G1 X25.00406606765132 Y7.629827460161801 F300
G1 X24.76448247999999 Y7.664200464000013 F300
G1 X24.526581002284125 Y7.687858901055838 F300
G1 X24.301509359999994 Y7.699584368000013 F300
G1 X24.152609640750434 Y7.700770788629283 F300
G1 X24.013605728811164 Y7.696296460989346 F300
G1 X23.884879999999992 Y7.686406000000012 F300
G1 X23.683596096823603 Y7.660176644313451 F300
G1 X23.50066544728123 Y7.625070217874564 F300
G1 X23.335532148148143 Y7.582259740740755 F300
G1 X23.212081910076904 Y7.541783191577334 F300
G1 X23.100862925853676 Y7.497566192603629 F300
G1 X23.00129745445458 Y7.450098565770171 F300
G1 X22.912812518518514 Y7.399771925925939 F300
G1 X22.82664149573798 Y7.340714841560323 F300
G1 X22.753478048197167 Y7.279328797389894 F300
G1 X22.692426183584345 Y7.215808875887925 F300
G1 X22.642745999999992 Y7.150179000000016 F300
G1 X22.6146447981994 Y7.1049945024301175 F300
G1 X22.595537851851848 Y7.067504333333348 F300
G1 X22.581674026720247 Y7.02958656374358 F300
G1 X22.57288081481481 Y6.989023000000015 F300
G1 X22.568471463810717 Y6.945240565221262 F300
G1 X22.56704599999999 Y6.887979000000016 F300
G1 X22.56826646079254 Y6.827721913029803 F300
G1 X22.572259333333324 Y6.786086518518534 F300
G1 X22.581040885736495 Y6.74921240591233 F300
G1 X22.595419333333325 Y6.717309814814833 F300
G1 X22.615901074742006 Y6.6866327151863665 F300
G1 X22.647805999999992 Y6.648098000000019 F300
G1 X22.695809134653587 Y6.600580332873971 F300
G1 X22.760327999071542 Y6.551245853300942 F300
G1 X22.84619820312499 Y6.49950165625002 F300
G1 X22.936053429543684 Y6.455111522398414 F300
G1 X23.049926159163455 Y6.407474136006489 F300
G1 X23.193338374999996 Y6.3560347500000205 F300
G1 X23.42232544842253 Y6.285742735672385 F300
G1 X23.726179109374993 Y6.205344968750021 F300
G1 X24.059434699695913 Y6.126667501827747 F300
G1 X24.481672999999994 Y6.035080000000022 F300
G1 X24.986959177413 Y5.9242014054590255 F300
G1 X25.414876311999997 Y5.819963048000022 F300
G1 X25.69071906193106 Y5.74557187072842 F300
G1 X25.936204160178992 Y5.672926333161554 F300
G1 X26.154830615999995 Y5.601615504000022 F300
G1 X26.371398438671143 Y5.523053774915203 F300
G1 X26.564033623457732 Y5.444667826699125 F300
G1 X26.735799463999992 Y5.366150536000021 F300
G1 X26.903885619365436 Y5.279348276031225 F300
G1 X27.05517296295625 Y5.190644538838614 F300
G1 X27.192046407999996 Y5.099681312000023 F300
G1 X27.323312787389195 Y5.000783683830144 F300
G1 X27.444685706324346 Y4.897187230988547 F300
G1 X27.557834999999994 Y4.788321000000025 F300
G1 X27.762059999999995 Y4.580123000000022 F300
G1 X27.764159999999993 Y4.989091000000023 F300
G1 X27.769817124169233 Y5.193830465372072 F300
G1 X27.78456890733931 Y5.392567937800341 F300
G1 X27.808315919372706 Y5.585955446305537 F300
G1 X27.840998518518518 Y5.774619185185208 F300
G1 X27.883300917092654 Y5.961942018912484 F300
G1 X27.935018290915046 Y6.146263907807712 F300
G1 X27.996323617021606 Y6.328144868466314 F300
G1 X28.06743881481481 Y6.508132481481505 F300
G1 X28.147086466342913 Y6.683565569367463 F300
G1 X28.237082679456424 Y6.8587875798295155 F300
G1 X28.337877298361757 Y7.034283461433579 F300
G1 X28.449967999999995 Y7.210542000000025 F300
G1 X28.586124064250658 Y7.403735018056948 F300
G1 X28.7318526210268 Y7.589514617294625 F300
G1 X28.88714280595014 Y7.768010678589052 F300
G1 X29.05202963491555 Y7.939315821632886 F300
G1 X29.226590531249997 Y8.103483109375025 F300
G1 X29.407951816604875 Y8.25809803102866 F300
G1 X29.598530724577838 Y8.405478370564044 F300
G1 X29.798441645948873 Y8.545597935048741 F300
G1 X30.007827536515773 Y8.678391068436659 F300
G1 X30.226856499999997 Y8.803751375000026 F300
G1 X30.4486525440181 Y8.918082431244233 F300
G1 X30.6794137927172 Y9.024904179029482 F300
G1 X30.919301437957948 Y9.124056836099864 F300
G1 X31.168490644739222 Y9.215343877139981 F300
G1 X31.427167718749995 Y9.298531453125024 F300
G1 X31.684941692247747 Y9.37060732250137 F300
G1 X31.951347561680798 Y9.434565520897099 F300
G1 X32.226540526857114 Y9.49014954223093 F300
G1 X32.510679712971225 Y9.537070723721515 F300
G1 X32.803926 Y9.575008000000025 F300
G1 X32.94057086264689 Y9.58717518116665 F300
G1 X33.116184486111116 Y9.596908277777805 F300
G1 X33.30204141670596 Y9.6028922235689 F300
G1 X33.50928688888889 Y9.60594022222225 F300
G1 X33.935822625 Y9.603050500000027 F300
G1 X34.34838111111111 Y9.589185777777804 F300
G1 X34.539803559564724 Y9.578079522997838 F300
G1 X34.699551763888884 Y9.565292722222246 F300
G1 X34.845392089112124 Y9.54877334624878 F300
G1 X34.941924 Y9.532318000000025 F300
G1 X34.999374 Y9.519908000000026 F300
G1 X34.999374 Y8.556701000000025 F300
G1 X34.999374 Y7.593494000000028 F300
G1 X34.342019 Y7.593494000000028 F300
G1 X33.97556282400001 Y7.59067084800003 F300
G1 X33.82681283708462 Y7.585829367153289 F300
G1 X33.704974792 Y7.5782527840000276 F300
G1 X33.589464929883476 Y7.5664084667789115 F300
G1 X33.483241448 Y7.550316896000027 F300
G1 X33.37769717109718 Y7.5290600632346205 F300
G1 X33.263349336000005 Y7.500940272000027 F300
G1 X32.998285 Y7.424200000000027 F300
G1 X32.7931351618684 Y7.355454388120221 F300
G1 X32.59723919302959 Y7.277446716589783 F300
G1 X32.4105489290884 Y7.190732123669519 F300
G1 X32.2330345 Y7.095781718750026 F300
G1 X32.060058704891055 Y6.989965805909856 F300
G1 X31.897781474592556 Y6.876917180268098 F300
G1 X31.746127936434885 Y6.757059305753918 F300
G1 X31.605064000000002 Y6.6307335000000265 F300
G1 X31.471519262569622 Y6.494856048899268 F300
G1 X31.349940194467134 Y6.353603530721965 F300
G1 X31.24026425346725 Y6.207222910541759 F300
G1 X31.142507500000004 Y6.055883031250028 F300
G1 X31.071950468557777 Y5.929383422459885 F300
G1 X31.009718597998237 Y5.800345854404551 F300
G1 X30.955836800669964 Y5.668788681680713 F300
G1 X30.910384144471355 Y5.534702949961473 F300
G1 X30.873499000000002 Y5.398058000000027 F300
G1 X30.85553203773435 Y5.303120156398995 F300
G1 X30.841755000000003 Y5.1865438906250265 F300
G1 X30.833820474196617 Y5.065099313021603 F300
G1 X30.831054500000004 Y4.936833125000026 F300
G1 X30.8336623159316 Y4.808748706111461 F300
G1 X30.841429750000003 Y4.688769546875027 F300
G1 X30.855103598034017 Y4.5740512781386276 F300
G1 X30.872913000000004 Y4.482197000000028 F300
G1 X30.91066754568978 Y4.347369980381649 F300
G1 X30.95813163982116 Y4.2129551229205555 F300
G1 X31.015252817976894 Y4.079141511808544 F300
G1 X31.08203922222223 Y3.9461560370370643 F300
G1 X31.156180620181615 Y3.818102159392309 F300
G1 X31.238968639433153 Y3.6922697196928644 F300
G1 X31.330354507123946 Y3.5689547441652487 F300
G1 X31.43032477777778 Y3.4484952962963242 F300
G1 X31.536080153394355 Y3.3341616768198965 F300
G1 X31.649277071425423 Y3.2240320674643366 F300
G1 X31.76984465042663 Y3.118459643020105 F300
G1 X31.897737000000003 Y3.0178410000000255 F300
G1 X31.983587267166584 Y2.957736063981624 F300
G1 X32.0914556875 Y2.8894118593750258 F300
G1 X32.206116688072186 Y2.8222819961223973 F300
G1 X32.3311265 Y2.753873375000027 F300
G1 X32.45868115595262 Y2.688496625388268 F300
G1 X32.5843475625 Y2.628384703125028 F300
G1 X32.70868412965701 Y2.5736093133283213 F300
G1 X32.818717 Y2.5301050000000274 F300
G1 X32.948061746562246 Y2.4857194979521067 F300
G1 X33.08655973754798 Y2.4446064903533453 F300
G1 X33.233413328124996 Y2.407115718750029 F300
G1 X33.45696368454481 Y2.3604174347609175 F300
G1 X33.688104625 Y2.3238912500000293 F300
G1 X33.92076037233559 Y2.298527733299191 F300
G1 X34.148910109375 Y2.284953156250029 F300
G1 X34.30058760290875 Y2.282604755419846 F300
G1 X34.445222980129145 Y2.2859363173916742 F300
G1 X34.581949 Y2.2948230000000294 F300
G1 X34.742282666666675 Y2.3082315185185496 F300
G1 X34.871737666666675 Y2.3178644814815117 F300
G1 X34.942288000000005 Y2.321633000000027 F300
G1 X35.00002800000001 Y2.321889000000027 F300
G1 X34.993328000000005 Y1.3326660000000246 F300
G1 X34.986628 Y0.3434440000000265 F300
G1 X34.782402000000005 Y0.3129840000000286 F300
G1 X34.664336609375006 Y0.2986246250000276 F300
G1 X34.49384162500001 Y0.2820415000000276 F300
G1 X34.293739828125005 Y0.2652896250000286 F300
G1 X34.086854 Y0.25042400000003084 F300
G1 X33.88374639185404 Y0.24013176089000554 F300
G1 X33.67586567470936 Y0.2354665835929993 F300
G1 X33.464001171875005 Y0.23645454687503098 F300
G1 X33.145980088830505 Y0.24830005995779508 F300
G1 X32.827081625000005 Y0.27234087500003135 F300
G1 X32.51015334185068 Y0.3083780173173869 F300
G1 X32.201267515625005 Y0.3557050156250312 F300
G1 X31.997297257021007 Y0.3940754760805063 F300
G1 X31.800564349244137 Y0.436972458834126 F300
G1 X31.611731000000002 Y0.4841690000000298 F300
G1 X31.39040281279249 Y0.5475917680162053 F300
G1 X31.173786540007367 Y0.6183283599364979 F300
G1 X30.961997344491067 Y0.6961214497621566 F300
G1 X30.7551527190457 Y0.7807379042782414 F300
G1 X30.553374875 Y0.871967406250029 F300
G1 X30.35370595306048 Y0.9712268571725295 F300
G1 X30.160318662846542 Y1.0764997500785793 F300
G1 X29.9733052104463 Y1.1875513294092948 F300
G1 X29.792763299249035 Y1.304171143626694 F300
G1 X29.618798750000003 Y1.4261715000000281 F300
G1 X29.448328079934086 Y1.5559218194119928 F300
G1 X29.28563231801902 Y1.6903515066773696 F300
G1 X29.130767360252655 Y1.8292653208255016 F300
G1 X28.98380096759053 Y1.9724941128462945 F300
G1 X28.844816000000005 Y2.1198928437500277 F300
G1 X28.71127679365921 Y2.2745316227230132 F300
G1 X28.586805356249737 Y2.4325925673471853 F300
G1 X28.471432743547822 Y2.593955624482415 F300
G1 X28.365215519398145 Y2.7585283484259717 F300
G1 X28.268240000000002 Y2.926243000000028 F300
G1 X28.161684 Y3.121619000000031 F300
G1 X28.145984000000002 Y3.021719000000033 F300
G1 X28.12026206837246 Y2.866865480043701 F300
G1 X28.096059875 Y2.739725953125032 F300
G1 X28.069166289077405 Y2.6203051180380306 F300
G1 X28.040876 Y2.515974625000032 F300
G1 X28.008163474120956 Y2.4153424024862318 F300
G1 X27.970372625000003 Y2.3165947343750326 F300
G1 X27.927222781641376 Y2.2176140051397284 F300
G1 X27.87449 Y2.107716000000032 F300
G1 X27.789034758572573 Y1.9491752172690109 F300
G1 X27.69279664588886 Y1.795130863904679 F300
G1 X27.585829836954485 Y1.6455297990020987 F300
G1 X27.468121372987106 Y1.5003652163278194 F300
G1 X27.33959971875 Y1.3596818750000317 F300
G1 X27.204878996078346 Y1.2279579637502718 F300
G1 X27.060482599633087 Y1.1012497181382674 F300
G1 X26.906371449727278 Y0.9796824832109274 F300
G1 X26.74247709688281 Y0.86342750288768 F300
G1 X26.568708250000004 Y0.7527047500000323 F300
G1 X26.392486508809945 Y0.6518593653492007 F300
G1 X26.207802429835134 Y0.557058246077309 F300
G1 X26.0146384013136 Y0.46853825522883497 F300
G1 X25.81296758971922 Y0.38657683613831445 F300
G1 X25.602758656250003 Y0.31149375000003376 F300
G1 X25.392773187814683 Y0.2461866599406248 F300
G1 X25.175742582063727 Y0.18814087094023463 F300
G1 X24.951697595510964 Y0.13765675269562413 F300
G1 X24.72066955554392 Y0.09507102204566907 F300
G1 X24.482694000000002 Y0.060758000000035395 F300
G1 X24.262469423681033 Y0.03930323958663792 F300
G1 X24.012097593750003 Y0.026543312500037053 F300
G1 X23.75425056415348 Y0.023398854499389037 F300
G1 X23.479733250000002 Y0.02937300000003784 F300
G1 X23.202364532289177 Y0.04420801971547751 F300
G1 X22.922085281250002 Y0.06786518750003812 F300
G1 X22.643613210630427 Y0.10026144928953028 F300
G1 X22.375638000000002 Y0.14063800000003823 F300
G1 X22.191851661686794 Y0.1748985759643422 F300
G1 X21.982220768000005 Y0.22007647200003888 F300
G1 X21.767297081127335 Y0.27150607014488043 F300
G1 X21.540721024000003 Y0.33037625600003917 F300
G1 X21.31354889447188 Y0.3937520965658331 F300
G1 X21.089150496000002 Y0.4605777040000393 F300
G1 X20.868787662901905 Y0.5305967954976623 F300
G1 X20.665520912000005 Y0.5997211680000396 F300
G1 X20.47122593484867 Y0.6710758079701089 F300
G1 X20.307844000000003 Y0.73684700000004 F300
G1 X20.1291 Y0.8127070000000032 F300
G1 X20.1224 Y1.975754000000002 F300
G1 X20.12018192 Y2.491752808000001 F300
G1 X20.12128736 Y2.8295687040000006 F300
G1 X20.12673584 Y3.0256898960000003 F300
G1 X20.13207688873345 Y3.0873232102094024 F300
G1 X20.137546880000002 Y3.1166045920000007 F300
G1 X20.14643959671166 Y3.135279019300972 F300
G1 X20.15474 Y3.138801000000001 F300
G1 X20.17024587863641 Y3.135334779882355 F300
G1 X20.21278503703704 Y3.119536666666668 F300
G1 X20.32748696296296 Y3.069033000000001 F300
G1 X20.474016 Y2.9982240000000004 F300
G1 X20.726486459520217 Y2.8783729075831537 F300
G1 X20.991719731552497 Y2.7655993017068714 F300
G1 X21.268419874999996 Y2.660485187500001 F300
G1 X21.548858682596233 Y2.5656893898278845 F300
G1 X21.834879189369627 Y2.4802472272445684 F300
G1 X22.12488925 Y2.4045995000000007 F300
G1 X22.41737234296129 Y2.339198377206344 F300
G1 X22.707964118521225 Y2.2850156511549273 F300
G1 X22.99508025 Y2.2422763125000005 F300
G1 X23.28365064232584 Y2.210643344780299 F300
G1 X23.56259324227842 Y2.191652679291562 F300
G1 X23.830648999999998 Y2.1852250000000026 F300
G1 X24.059818484374997 Y2.187267000000002 F300
G1 X24.225704374999996 Y2.1955040000000015 F300
G1 X24.295576820500607 Y2.2028845591555037 F300
G1 X24.359193828124994 Y2.212526500000002 F300
G1 X24.491173999999997 Y2.2409250000000043 F300
G1 X24.62242706671023 Y2.2780489219373243 F300
G1 X24.741602252380826 Y2.3208406131967156 F300
G1 X24.849157964186485 Y2.368450661938307 F300
G1 X24.945550111111114 Y2.4201891481481517 F300
G1 X25.039525681277503 Y2.4814656701206146 F300
G1 X25.119823756250273 Y2.5456223132669735 F300
G1 X25.187291726162417 Y2.61213071334863 F300
G1 X25.24264088888889 Y2.6806828518518557 F300
G1 X25.28111107951044 Y2.741471027062233 F300
G1 X25.310805750899966 Y2.8029867207947046 F300
G1 X25.332054851361466 Y2.865344864262569 F300
G1 X25.344975467096884 Y2.9287502817481283 F300
G1 X25.349441 Y2.9934670000000025 F300
G1 X25.345929233340126 Y3.070116427963646 F300
G1 X25.334904483017173 Y3.1412771139417357 F300
G1 X25.316029677306886 Y3.2079467552802234 F300
G1 X25.288772168000005 Y3.271019672000003 F300
G1 X25.253787269053703 Y3.3292349892029525 F300
G1 X25.208461571789638 Y3.3864406321292226 F300
G1 X25.150912960472102 Y3.4431919359232563 F300
G1 X25.078830824000004 Y3.499957176000003 F300
G1 X25.005057743959785 Y3.54794858371726 F300
G1 X24.915818586261523 Y3.5971905708175287 F300
G1 X24.80839196969384 Y3.647896001958237 F300
G1 X24.679694695999995 Y3.700327144000003 F300
G1 X24.50964621892503 Y3.760321709903343 F300
G1 X24.302461519741847 Y3.8240029713301196 F300
G1 X24.051441512 Y3.892177208000004 F300
G1 X23.656030607665386 Y3.9872946890824084 F300
G1 X23.154149 Y4.0955550000000045 F300
G1 X22.685962009326545 Y4.1963409730822105 F300
G1 X22.28646807200001 Y4.2906982080000065 F300
G1 X21.91000216455329 Y4.389899029338074 F300
G1 X21.592129016 Y4.484894184000007 F300
G1 X21.387770755906885 Y4.55353405952199 F300
G1 X21.206103295466818 Y4.621170897332806 F300
G1 X21.044436823999998 Y4.688044656000006 F300
G1 X20.885298273326992 Y4.761693910528405 F300
G1 X20.743471722943433 Y4.835621805477398 F300
G1 X20.616696488000002 Y4.910051352000005 F300
G1 X20.494093541243114 Y4.991413762815711 F300
G1 X20.38315421587011 Y5.074892887216714 F300
G1 X20.282213 Y5.160816000000004 F300
G1 X20.15454 Y5.276279000000002 F300
G1 X20.15454 Y4.686191000000001 F300
G1 X20.152016296296303 Y4.382840888888891 F300
G1 X20.14541703703704 Y4.154796777777779 F300
G1 X20.140078782146094 Y4.074381063817284 F300
G1 X20.136200000000002 Y4.051430000000003 F300
G1 X20.131321122191697 Y4.044831893921932 F300
G1 X20.116030259765626 Y4.037385527343752 F300
G1 X20.09338583817305 Y4.032280147253554 F300
G1 X20.045978265625006 Y4.026632968750002 F300
G1 X19.892211107421875 Y4.018734863281252 F300
G1 X19.620895875000002 Y4.013253750000002 F300
G1 X19.198199658203126 Y4.0097521679687524 F300
G1 X18.590289546875002 Y4.007792656250003 F300
G1 X17.763332630859377 Y4.006937753906254 F300
G1 X16.683496 Y4.006750000000004 F300
G1 X15.773231254629636 Y4.005976712962967 F300
G1 X14.953595703703707 Y4.003797037037041 F300
G1 X14.257978875000003 Y4.000421250000003 F300
G1 X13.7197702962963 Y3.996059629629633 F300
G1 X13.372359495370372 Y3.990922453703708 F300
G1 X13.261403326015076 Y3.987039730980916 F300
G1 X13.249136000000002 Y3.9852200000000053 F300
G1 X13.252449124504643 Y3.963399958965334 F300
G1 X13.265547625000002 Y3.916572750000004 F300
G1 X13.306741500000001 Y3.799364500000003 F300
G1 X13.360656125000002 Y3.6654455000000024 F300
G1 X13.415230000000001 Y3.546666000000002 F300
G1 X13.490161971994398 Y3.4095488653250663 F300
G1 X13.571734476141481 Y3.2809013768960082 F300
G1 X13.659871261939816 Y3.160335421286747 F300
G1 X13.754565428644948 Y3.047515163733622 F300
G1 X13.855877205697244 Y2.9421612840649765 F300
G1 X13.963931083060116 Y2.844054898840353 F300
G1 X14.078912333116929 Y2.753041045726529 F300
G1 X14.201063000000001 Y2.6690316250000024 F300
G1 X14.344081167347982 Y2.5846806218289142 F300
G1 X14.496225249025436 Y2.509026336490813 F300
G1 X14.657971834462977 Y2.4421757606535937 F300
G1 X14.8298573910308 Y2.384341151302455 F300
G1 X15.01247019820007 Y2.335840209674223 F300
G1 X15.206442492581814 Y2.297095317182741 F300
G1 X15.412443000000001 Y2.2686320000000038 F300
G1 X15.58089462356553 Y2.2540798720455686 F300
G1 X15.749991355175467 Y2.247277234658935 F300
G1 X15.921355518518522 Y2.248408555555561 F300
G1 X16.092474153392914 Y2.257380988491757 F300
G1 X16.271208604996435 Y2.274638543863847 F300
G1 X16.459464481481486 Y2.3007777777777827 F300
G1 X16.646376035150478 Y2.3339138093570053 F300
G1 X16.847632392145876 Y2.3765224006994954 F300
G1 X17.065619 Y2.429519000000006 F300
G1 X17.230418740740745 Y2.4695945555555627 F300
G1 X17.36798825925926 Y2.4988234444444495 F300
G1 X17.448544000000002 Y2.5108790000000027 F300
G1 X17.525134 Y2.5133790000000005 F300
G1 X17.531834 Y1.5275290000000012 F300
G1 X17.53357371875 Y1.047720953125001 F300
G1 X17.53044575 Y0.7407426250000011 F300
G1 X17.52638059040887 Y0.634330404119804 F300
G1 X17.52162940625 Y0.5742364843750007 F300
G1 X17.513263503252013 Y0.5282858953973295 F300
G1 X17.506304 Y0.5158449999999988 F300
G1 X17.47888095960749 Y0.5013586429891527 F300
G1 X17.411345703703706 Y0.47854924537037014 F300
G1 X17.2218852962963 Y0.43133996296296295 F300
G1 X16.966879499999997 Y0.37964412499999955 F300
G1 X16.675285037037035 Y0.32888870370370243 F300
G1 X16.37605862962963 Y0.2845006712962937 F300
G1 X16.098157 Y0.25190699999999566 F300
G1 X15.9941352674338 Y0.24392968016448144 F300
G1 X15.862510379629633 Y0.23778162962962593 F300
G1 X15.568486703703707 Y0.23279737037036688 F300
G1 X15.24746625 Y0.23623699999999648 F300
G1 X14.930829296296299 Y0.24738329629629296 F300
G1 X14.64995612037037 Y0.2655190370370343 F300
G1 X14.527697461473558 Y0.2775608225507493 F300
G1 X14.436227 Y0.28992699999999866 F300
G1 X14.192954957435516 Y0.33394926025116933 F300
G1 X13.959533378028786 Y0.3859784594555283 F300
G1 X13.73540652571083 Y0.4458670676403128 F300
G1 X13.520044790279742 Y0.5134986997644272 F300
G1 X13.312944529904719 Y0.5887895347371803 F300
G1 X13.113627967388203 Y0.6716896141033502 F300
G1 X12.921643125000001 Y0.7621839999999995 F300
G1 X12.731413626609896 Y0.8631865670115084 F300
G1 X12.547648884851162 Y0.9725594499178205 F300
G1 X12.369991791723573 Y1.0904588613743895 F300
G1 X12.198112747804885 Y1.217080758800757 F300
G1 X12.03170925160952 Y1.3526608957795303 F300
G1 X11.870505359190538 Y1.4974747008213842 F300
G1 X11.714251 Y1.6518370000000004 F300
G1 X11.590982743018701 Y1.78545468000916 F300
G1 X11.471752434658047 Y1.9268799625216044 F300
G1 X11.357061444444449 Y2.07552277777778 F300
G1 X11.24872437660403 Y2.2289017593396907 F300
G1 X11.146675123292072 Y2.386922463684178 F300
G1 X11.051368555555557 Y2.548885888888891 F300
G1 X10.962986125319206 Y2.714691550131159 F300
G1 X10.882973859104045 Y2.881788800604223 F300
G1 X10.811671 Y3.049477000000003 F300
G1 X10.80407420364151 Y3.0612227487666983 F300
G1 X10.797816112561048 Y3.059982553665474 F300
G1 X10.78803725 Y3.040485625000004 F300
G1 X10.775725822708937 Y2.9927446243581963 F300
G1 X10.756491 Y2.8870060000000066 F300
G1 X10.725163970436675 Y2.724954778672983 F300
G1 X10.684713858360611 Y2.5660385709674087 F300
G1 X10.63530034435292 Y2.4102339551287217 F300
G1 X10.577023595066377 Y2.2575326543754253 F300
G1 X10.50992735925926 Y2.107947222222229 F300
G1 X10.434651722351571 Y1.9626875428448518 F300
G1 X10.351012106377205 Y1.821203456344849 F300
G1 X10.259015007812451 Y1.6835466290479335 F300
G1 X10.158621834073834 Y1.5497979987798989 F300
G1 X10.049752540740743 Y1.4200724444444515 F300
G1 X9.935024763755413 Y1.2972976106629286 F300
G1 X9.812457251259648 Y1.1791651227004 F300
G1 X9.681958543275204 Y1.0658230186287443 F300
G1 X9.543405844839546 Y0.9574579864097925 F300
G1 X9.3966487 Y0.8542990000000046 F300
G1 X9.251305508771168 Y0.7626068031511443 F300
G1 X9.096491541848138 Y0.6748544297964857 F300
G1 X8.932129926304032 Y0.5911849883855881 F300
G1 X8.75814201514029 Y0.5117743574573019 F300
G1 X8.574453181250002 Y0.4368314218750058 F300
G1 X8.345271277974055 Y0.3545225278616363 F300
G1 X8.103842760060708 Y0.279627316914435 F300
G1 X7.850294554319703 Y0.21251788983736986 F300
G1 X7.584780825 Y0.15361712500000557 F300
G1 X7.320062012615792 Y0.10543930765064141 F300
G1 X7.04628438339538 Y0.0658349113241875 F300
G1 X6.7637932128897935 Y0.03515389619892607 F300
G1 X6.4729611812500005 Y0.013781265625005368 F300
G1 X6.183693419348738 Y0.0023507515657800217 F300
G1 X5.888842868448512 Y0.00044709710930976657 F300
G1 X5.5888869174109574 Y0.008370648447073106 F300
G1 X5.2843238 Y0.026449000000006606 F300
G1 X5.2843613 Y0.02643799999999885 F300
G0 X6.7139472 Y0.10092799999999613
G1 X7.040828822746328 Y0.1342445444142927 F300
G1 X7.337555667187499 Y0.17546609374999544 F300
G1 X7.531658276223984 Y0.2092982107705549 F300
G1 X7.716363023226169 Y0.24733434230163304 F300
G1 X7.8929674875 Y0.2896369999999955 F300
G1 X8.06807942574396 Y0.33784759601276815 F300
G1 X8.238576179704834 Y0.39122091625539507 F300
G1 X8.4055415390625 Y0.4499606562499965 F300
G1 X8.570392658430281 Y0.5144273496894181 F300
G1 X8.73508433553809 Y0.5852994671603082 F300
G1 X8.9006367 Y0.6629569999999987 F300
G1 X9.07439800601086 Y0.7527844250249958 F300
G1 X9.238333787830058 Y0.8475690102234171 F300
G1 X9.39277710289148 Y0.9470863963526358 F300
G1 X9.538036862291701 Y1.051154534537531 F300
G1 X9.674394722264847 Y1.159632231291665 F300
G1 X9.802101962962965 Y1.2724174814814815 F300
G1 X9.925972748361252 Y1.3942124265668752 F300
G1 X10.040596688567407 Y1.5201813114366516 F300
G1 X10.146203541067935 Y1.650283274299704 F300
G1 X10.24297784632233 Y1.7845174840737879 F300
G1 X10.331055473099358 Y1.9229200843278282 F300
G1 X10.410520403703703 Y2.065560851851851 F300
G1 X10.481548200474673 Y2.2128676502985423 F300
G1 X10.54376045587311 Y2.364218480089932 F300
G1 X10.597150602528103 Y2.519744475144113 F300
G1 X10.641649686514553 Y2.679601671868698 F300
G1 X10.677124309089281 Y2.843966632039918 F300
G1 X10.703375 Y3.0130319999999955 F300
G1 X10.725208901984734 Y3.1588728031605817 F300
G1 X10.743342185185186 Y3.2330837407407356 F300
G1 X10.75670891689811 Y3.2622549639793346 F300
G1 X10.768161450067865 Y3.273168778706446 F300
G1 X10.779139442820437 Y3.2739297188390255 F300
G1 X10.792599148148147 Y3.2648259259259205 F300
G1 X10.809388133495922 Y3.2420407582526565 F300
G1 X10.832623562677703 Y3.1963931712068216 F300
G1 X10.864789 Y3.1170469999999924 F300
G1 X10.909695181855634 Y3.006790010700219 F300
G1 X10.969604312500001 Y2.875951109374994 F300
G1 X11.036124684763964 Y2.7423131906296687 F300
G1 X11.110384 Y2.602768624999995 F300
G1 X11.188309142827222 Y2.4650595648900495 F300
G1 X11.265911687500001 Y2.336150328124995 F300
G1 X11.344838299476837 Y2.2140206943129304 F300
G1 X11.414971 Y2.114746999999994 F300
G1 X11.556124383836147 Y1.9353048206065488 F300
G1 X11.704277352826587 Y1.7656096324341661 F300
G1 X11.85941142309197 Y1.6053947032346179 F300
G1 X12.021551895405704 Y1.4544348671266563 F300
G1 X12.190765637250188 Y1.3125487264751234 F300
G1 X12.367158629629632 Y1.1796006666666632 F300
G1 X12.549730033794368 Y1.0562329730385287 F300
G1 X12.739395958665071 Y0.9417462534547137 F300
G1 X12.936325246573379 Y0.8361076929827477 F300
G1 X13.140716026837843 Y0.7393326188903815 F300
G1 X13.352792784756403 Y0.6514854401665148 F300
G1 X13.57280337037037 Y0.572680333333329 F300
G1 X13.792282486265378 Y0.505529902651103 F300
G1 X14.019283315987593 Y0.44717373281516026 F300
G1 X14.254056952659827 Y0.397803286198388 F300
G1 X14.496867143408242 Y0.35765336086048344 F300
G1 X14.747987869639369 Y0.32700195516249847 F300
G1 X15.007700999999999 Y0.3061699999999945 F300
G1 X15.228236260795365 Y0.29736244191164657 F300
G1 X15.466525960000004 Y0.2963939759999952 F300
G1 X15.708723459334584 Y0.3030734327305825 F300
G1 X15.958576279999999 Y0.317179407999995 F300
G1 X16.208938271688048 Y0.3382381444710629 F300
G1 X16.457007719999996 Y0.3659005519999945 F300
G1 X16.702165443056735 Y0.40021660898497813 F300
G1 X16.934976040000002 Y0.43993166399999445 F300
G1 X17.16142203957859 Y0.4864093975281888 F300
G1 X17.365637 Y0.536646999999995 F300
G1 X17.461367 Y0.5624269999999925 F300
G1 X17.461367 Y1.5059889999999925 F300
G1 X17.45985840625 Y1.872332218749992 F300
G1 X17.45574825 Y2.1722882499999914 F300
G1 X17.449659968749998 Y2.3749066562499905 F300
G1 X17.44479999113811 Y2.4406921788061413 F300
G1 X17.442217 Y2.4492369999999895 F300
G1 X17.401088222222224 Y2.440315074074064 F300
G1 X17.31166811111111 Y2.417341592592582 F300
G1 X17.193316 Y2.3852369999999894 F300
G1 X16.97336069095982 Y2.3284823261261907 F300
G1 X16.75927634192503 Y2.281514622363005 F300
G1 X16.551070801819858 Y2.243955836320785 F300
G1 X16.348734564041575 Y2.2154572945339375 F300
G1 X16.15224388888889 Y2.1957006296296186 F300
G1 X15.950366230999666 Y2.1839857978764328 F300
G1 X15.755672944666165 Y2.181455789625614 F300
G1 X15.568054563381942 Y2.1877514719574567 F300
G1 X15.387392437130686 Y2.202558641604678 F300
G1 X15.213563777777779 Y2.225609370370359 F300
G1 X15.037588414230619 Y2.258590899154859 F300
G1 X14.869578706848982 Y2.300109534809258 F300
G1 X14.709325130324293 Y2.349929507542174 F300
G1 X14.556632647414691 Y2.407884163273674 F300
G1 X14.411328999999999 Y2.4738769999999874 F300
G1 X14.265306748126985 Y2.550831714365983 F300
G1 X14.132604609559115 Y2.630649305239984 F300
G1 X14.011602962962964 Y2.713914148148136 F300
G1 X13.89643219192985 Y2.804909119351227 F300
G1 X13.789673200260905 Y2.9020410163870887 F300
G1 X13.690216037037038 Y3.006191518518507 F300
G1 X13.598067391605898 Y3.1169636472998867 F300
G1 X13.51021582503218 Y3.2377971582794918 F300
G1 X13.425911999999999 Y3.3700379999999868 F300
G1 X13.384662400274214 Y3.444368884551788 F300
G1 X13.339776234374998 Y3.5355969218749865 F300
G1 X13.29726180548455 Y3.6308430372732006 F300
G1 X13.257875624999999 Y3.7273206249999866 F300
G1 X13.222712051994254 Y3.8225039925368725 F300
G1 X13.196666953125 Y3.902963015624986 F300
G1 X13.17784250460602 Y3.97710933320655 F300
G1 X13.172607 Y4.020277999999983 F300
G1 X13.172607 Y4.083357999999983 F300
G1 X16.617365 Y4.083357999999983 F300
G1 X20.062124999999998 Y4.083357999999983 F300
G1 X20.079265 Y4.19770399999998 F300
G1 X20.0851721875 Y4.286459999999981 F300
G1 X20.088617499999998 Y4.443594249999982 F300
G1 X20.0893365625 Y4.646908624999981 F300
G1 X20.087065 Y4.874204999999982 F300
G1 X20.084337592592593 Y5.205811925925911 F300
G1 X20.086705471972774 Y5.320695861795345 F300
G1 X20.09084574074074 Y5.383546407407392 F300
G1 X20.09695638863368 Y5.420658284371974 F300
G1 X20.102690887869677 Y5.433629855949131 F300
G1 X20.107625 Y5.436357999999984 F300
G1 X20.12225686723216 Y5.430505901649321 F300
G1 X20.152353875 Y5.406571499999983 F300
G1 X20.183175419103947 Y5.375574280039638 F300
G1 X20.217865999999997 Y5.334955999999984 F300
G1 X20.285524962962967 Y5.263379666666651 F300
G1 X20.385703037037036 Y5.173205333333316 F300
G1 X20.496712 Y5.083954999999982 F300
G1 X20.596360915184324 Y5.012736406986121 F300
G1 X20.704885487598798 Y4.943147831161905 F300
G1 X20.82392944 Y4.874898727999985 F300
G1 X20.945808022702117 Y4.812289546004779 F300
G1 X21.08167580242782 Y4.749561046366988 F300
G1 X21.23373664 Y4.6864642639999845 F300
G1 X21.471418794659098 Y4.599368814258387 F300
G1 X21.754617519999996 Y4.508944135999984 F300
G1 X22.05663381968381 Y4.423642449905727 F300
G1 X22.415056 Y4.332630871999983 F300
G1 X22.795724208785092 Y4.244299909173382 F300
G1 X23.243536 Y4.147816999999982 F300
G1 X23.664941794453995 Y4.056507365919198 F300
G1 X24.008481224000008 Y3.9750259839999833 F300
G1 X24.325808605908666 Y3.890448291229387 F300
G1 X24.575643552000003 Y3.8134020719999824 F300
G1 X24.73362620342917 Y3.7569748127433495 F300
G1 X24.864384747306712 Y3.7032647632062408 F300
G1 X24.972138568 Y3.6519003679999815 F300
G1 X25.076217250419525 Y3.5929800237152287 F300
G1 X25.159249033338895 Y3.5356373711071756 F300
G1 X25.225081856 Y3.479475975999982 F300
G1 X25.283524047761006 Y3.41599612681802 F300
G1 X25.328261472029205 Y3.351471758146312 F300
G1 X25.361589 Y3.2850839999999835 F300
G1 X25.380832797000743 Y3.227165849509406 F300
G1 X25.395113531249997 Y3.1567894999999826 F300
G1 X25.403020549209852 Y3.0829276264304446 F300
G1 X25.40517525 Y3.0048947499999823 F300
G1 X25.40142960152737 Y2.9269246485309806 F300
G1 X25.392018843749998 Y2.8532583749999825 F300
G1 X25.376306412302167 Y2.7832123631749166 F300
G1 X25.355888999999998 Y2.725738999999983 F300
G1 X25.323864711546896 Y2.663942383770845 F300
G1 X25.282933294582676 Y2.6033901100001575 F300
G1 X25.23281690586466 Y2.5440810994021965 F300
G1 X25.17310703703704 Y2.486134962962947 F300
G1 X25.0868221447909 Y2.417871212339767 F300
G1 X24.986133406992796 Y2.3536471853201775 F300
G1 X24.87052462962963 Y2.2942827037036877 F300
G1 X24.750314816476894 Y2.2448287489425507 F300
G1 X24.618320882157185 Y2.202035491927301 F300
G1 X24.474543999999998 Y2.1669219999999854 F300
G1 X24.388912443493236 Y2.151130108964595 F300
G1 X24.298765 Y2.1385612592592436 F300
G1 X24.2052162123602 Y2.1294693993440656 F300
G1 X24.097080666666663 Y2.122929407407391 F300
G1 X23.843328999999997 Y2.118001999999983 F300
G1 X23.636059008476025 Y2.1214763014169353 F300
G1 X23.422591062611374 Y2.1322566584662566 F300
G1 X23.203428230466606 Y2.150373095113251 F300
G1 X22.9791123125 Y2.175862640624982 F300
G1 X22.682626759079533 Y2.219780764711493 F300
G1 X22.382670031448065 Y2.2756107620680655 F300
G1 X22.080789749999994 Y2.343140874999982 F300
G1 X21.781488432800394 Y2.421363352947676 F300
G1 X21.48602959123171 Y2.509888361228005 F300
G1 X21.195975062499997 Y2.6082931718749824 F300
G1 X20.90983153627192 Y2.717414861946514 F300
G1 X20.634835330386895 Y2.834763055035107 F300
G1 X20.372282 Y2.9597759999999838 F300
G1 X20.167406999999997 Y3.062784999999984 F300
G1 X20.167406999999997 Y1.9667929999999814 F300
G1 X20.167406999999997 Y0.8708009999999788 F300
G1 X20.492893999999996 Y0.7435739999999811 F300
G1 X20.772138442891183 Y0.6390678142696808 F300
G1 X21.05121821885709 Y0.5437484632696843 F300
G1 X21.329691570831482 Y0.45754592104719904 F300
G1 X21.607131812499993 Y0.3804027812499795 F300
G1 X21.88806885000195 Y0.3111327256705417 F300
G1 X22.16599297508879 Y0.25138903529630974 F300
G1 X22.440510971670527 Y0.20104697879834896 F300
G1 X22.711249499999997 Y0.15999649999997878 F300
G1 X22.98513285106963 Y0.12739498506717212 F300
G1 X23.25314561992841 Y0.10449632903792677 F300
G1 X23.514992287281444 Y0.09111347234096284 F300
G1 X23.7704009375 Y0.08707996874997903 F300
G1 X24.028233809356657 Y0.09261916137899892 F300
G1 X24.27749256929444 Y0.10783404693606412 F300
G1 X24.51803482956196 Y0.1324879801892061 F300
G1 X24.749739999999996 Y0.16637799999998037 F300
G1 X24.98235714540942 Y0.21085801213852137 F300
G1 X25.207524648402636 Y0.26399099737544396 F300
G1 X25.42523724399841 Y0.32531515413290646 F300
G1 X25.635489046296296 Y0.3944169768518324 F300
G1 X25.84404518951341 Y0.47325766321857543 F300
G1 X26.043873155918753 Y0.5592290685662595 F300
G1 X26.23500716248119 Y0.6519262637956003 F300
G1 X26.417473370370374 Y0.7509934814814619 F300
G1 X26.596410207594502 Y0.8593943594048983 F300
G1 X26.76541926980555 Y0.9734145300577288 F300
G1 X26.92458130238136 Y1.092723344035877 F300
G1 X27.073956749999994 Y1.21704187499998 F300
G1 X27.21758581001203 Y1.3500526303515006 F300
G1 X27.350271647381057 Y1.487268514339473 F300
G1 X27.472122202003934 Y1.6284713109212134 F300
G1 X27.583202962962957 Y1.7734965185184979 F300
G1 X27.685822185898967 Y1.9258705004278978 F300
G1 X27.776717257546615 Y2.081323454351864 F300
G1 X27.855943376885186 Y2.239799419092049 F300
G1 X27.923475787037027 Y2.401291773148126 F300
G1 X27.96942876076887 Y2.5340136195978857 F300
G1 X28.007453689950083 Y2.6683138801019597 F300
G1 X28.037484775885726 Y2.8042537000718446 F300
G1 X28.059404234651087 Y2.941908138989603 F300
G1 X28.073038999999994 Y3.081361999999977 F300
G1 X28.086337646347893 Y3.220692677049231 F300
G1 X28.099401918537268 Y3.28711209922595 F300
G1 X28.110500978228792 Y3.3120643223871857 F300
G1 X28.119438999999993 Y3.317497999999979 F300
G1 X28.128525050043137 Y3.312804686351149 F300
G1 X28.147617111111106 Y3.2916315555555347 F300
G1 X28.19211055555555 Y3.223819777777755 F300
G1 X28.243287999999993 Y3.128743999999976 F300
G1 X28.329375921600334 Y2.9672064646943745 F300
G1 X28.43404285937499 Y2.793894906249976 F300
G1 X28.54892778685103 Y2.622075460529469 F300
G1 X28.67510087499999 Y2.4493634999999765 F300
G1 X28.808338244144647 Y2.281599745124978 F300
G1 X28.94508170312499 Y2.1232085937499767 F300
G1 X29.086336136184322 Y1.9736743555807872 F300
G1 X29.222604999999994 Y1.8434889999999768 F300
G1 X29.410411676087318 Y1.6813483392972286 F300
G1 X29.603563672142236 Y1.5286622032018327 F300
G1 X29.802277888695187 Y1.3852136816873897 F300
G1 X30.00679323446673 Y1.2508188140161798 F300
G1 X30.21737059526079 Y1.1253269316629384 F300
G1 X30.434292719041977 Y1.0086208837946502 F300
G1 X30.657864028636393 Y0.900617137779212 F300
G1 X30.888410374999992 Y0.8012657499999785 F300
G1 X31.117843315051736 Y0.7135729921455229 F300
G1 X31.354719110010517 Y0.6338453708221653 F300
G1 X31.599413072695416 Y0.5621557512309846 F300
G1 X31.85231807072702 Y0.498606095366863 F300
G1 X32.1138442372437 Y0.4433267916922453 F300
G1 X32.38441871568568 Y0.3964759028956011 F300
G1 X32.66448544624631 Y0.3582383435653011 F300
G1 X32.954505 Y0.3288249999999735 F300
G1 X33.09358250348892 Y0.3194573275711663 F300
G1 X33.258200157407416 Y0.31288944444441813 F300
G1 X33.42923499581515 Y0.30965990034206325 F300
G1 X33.613224925925934 Y0.3093338888888629 F300
G1 X33.98551475 Y0.31697499999997447 F300
G1 X34.341005074074076 Y0.3346294444444193 F300
G1 X34.50594758149607 Y0.3472023081055785 F300
G1 X34.64563134259259 Y0.3611138888888637 F300
G1 X34.77440735372935 Y0.3782622479399428 F300
G1 X34.865328999999996 Y0.3952449999999743 F300
G1 X34.922768999999995 Y0.4082549999999756 F300
G1 X34.922774 Y1.320407999999972 F300
G1 X34.922779999999996 Y2.2325569999999715 F300
G1 X34.316475 Y2.2325569999999715 F300
G1 X34.04544714400001 Y2.233732999999972 F300
G1 X33.846984872 Y2.238364999999972 F300
G1 X33.69531832799999 Y2.248108999999972 F300
G1 X33.564677656 Y2.264620999999973 F300
G1 X33.429292999999994 Y2.2895569999999736 F300
G1 X33.23137293680702 Y2.3341846366154546 F300
G1 X33.04079785230226 Y2.385971841022311 F300
G1 X32.85749007062234 Y2.4445565987775364 F300
G1 X32.681374649604116 Y2.5096196141906497 F300
G1 X32.51238321875 Y2.5808826562499725 F300
G1 X32.344304646792295 Y2.6612265448848005 F300
G1 X32.184497083120284 Y2.747382830023319 F300
G1 X32.03284697537143 Y2.839080236463986 F300
G1 X31.889256310229783 Y2.9360931149811873 F300
G1 X31.753647499999996 Y3.0382389999999724 F300
G1 X31.622025737478225 Y3.1488742529993297 F300
G1 X31.499381295340008 Y3.264155704206382 F300
G1 X31.38560525348938 Y3.38394424274129 F300
G1 X31.280626233578957 Y3.5081475423410735 F300
G1 X31.184416531249994 Y3.636716093749973 F300
G1 X31.095692087466503 Y3.7717669750144562 F300
G1 X31.01645114801691 Y3.9107070893659692 F300
G1 X30.946697129724683 Y4.053571419190992 F300
G1 X30.886503642716963 Y4.200434487120597 F300
G1 X30.836020999999995 Y4.351403999999974 F300
G1 X30.81776156963847 Y4.423918192013198 F300
G1 X30.80071948 Y4.516471055999976 F300
G1 X30.787352415858862 Y4.614280230095584 F300
G1 X30.77654964 Y4.722287087999975 F300
G1 X30.76908346922988 Y4.832073222438046 F300
G1 X30.76493756 Y4.941885791999974 F300
G1 X30.764306399105465 Y5.05017984773562 F300
G1 X30.76730932 Y5.148300863999973 F300
G1 X30.774543139435494 Y5.241480826292213 F300
G1 X30.785090999999994 Y5.314565999999971 F300
G1 X30.823522690010197 Y5.484579973867506 F300
G1 X30.87321587071192 Y5.649274497988997 F300
G1 X30.93390927372583 Y5.808874843614079 F300
G1 X31.005452430695367 Y5.963570129441038 F300
G1 X31.087798890624995 Y6.113504328124971 F300
G1 X31.179817922903794 Y6.257055850247656 F300
G1 X31.28209229870346 Y6.395479518720495 F300
G1 X31.394686767041673 Y6.5287994219686585 F300
G1 X31.517737162501113 Y6.656982731406463 F300
G1 X31.651442374999995 Y6.779933874999971 F300
G1 X31.79035137440424 Y6.893118454939403 F300
G1 X31.938981445847297 Y7.000666070217344 F300
G1 X32.09753211165574 Y7.102392804078271 F300
G1 X32.26623795057444 Y7.198054675569546 F300
G1 X32.445361921875 Y7.287344484374971 F300
G1 X32.62524436241261 Y7.3658493324802325 F300
G1 X32.81432405934284 Y7.437657810758976 F300
G1 X33.012810644962656 Y7.5024299005893305 F300
G1 X33.220925731535495 Y7.559770175229792 F300
G1 X33.438897999999995 Y7.609225999999971 F300
G1 X33.53316550778843 Y7.625314576623219 F300
G1 X33.658747096000006 Y7.640974959999974 F300
G1 X33.79234228293998 Y7.653545935216198 F300
G1 X33.941425648 Y7.664173679999971 F300
G1 X34.24405895199999 Y7.67700391999997 F300
G1 X34.392272837482096 Y7.678969197230902 F300
G1 X34.523772304000005 Y7.67764743999997 F300
G1 X34.64704575195245 Y7.672491303444867 F300
G1 X34.737691 Y7.664285999999969 F300
G1 X34.92276 Y7.641015999999972 F300
G1 X34.92276 Y8.552165999999971 F300
G1 X34.92276 Y9.46330899999997 F300
G1 X34.82702999999999 Y9.47833899999997 F300
G1 X34.73695849105711 Y9.490419944225449 F300
G1 X34.616444992000005 Y9.502620919999973 F300
G1 X34.339749055999995 Y9.522099959999972 F300
G1 X34.02857822399999 Y9.53542203999997 F300
G1 X33.714568528 Y9.541233079999971 F300
G1 X33.42935599999999 Y9.538178999999971 F300
G1 X33.148358510366016 Y9.525628918389161 F300
G1 X32.87910380138411 Y9.505604647900599 F300
G1 X32.620572896366525 Y9.478263096968224 F300
G1 X32.37180155555556 Y9.443750481481453 F300
G1 X32.121977325690736 Y9.400302835211741 F300
G1 X31.879532907448464 Y9.349061758494742 F300
G1 X31.64362759701813 Y9.290019974295893 F300
G1 X31.413451777777773 Y9.223150851851823 F300
G1 X31.18543564615385 Y9.147422609425748 F300
G1 X30.960659926956275 Y9.063135425866653 F300
G1 X30.7384115907295 Y8.970079093804456 F300
G1 X30.517981999999993 Y8.868018999999972 F300
G1 X30.323863512713494 Y8.769556023386908 F300
G1 X30.139821165745968 Y8.667516271848358 F300
G1 X29.964686 Y8.561395888888862 F300
G1 X29.793976555660425 Y8.448369194530416 F300
G1 X29.629092019194246 Y8.329167515289159 F300
G1 X29.469085999999997 Y8.20313277777775 F300
G1 X29.31428208240419 Y8.070701014154068 F300
G1 X29.161408860306604 Y7.929171306945759 F300
G1 X29.00962399999999 Y7.777644999999971 F300
G1 X28.876483725113125 Y7.634799612077873 F300
G1 X28.75360747009821 Y7.492639261387867 F300
G1 X28.640383167594493 Y7.350727420910496 F300
G1 X28.53623859259259 Y7.208641481481451 F300
G1 X28.43757268858546 Y7.061163458841971 F300
G1 X28.34705811093091 Y6.911860577187633 F300
G1 X28.264304871643922 Y6.760254165371756 F300
G1 X28.188956074074067 Y6.605859518518487 F300
G1 X28.120736382494123 Y6.448305711509137 F300
G1 X28.059023873717372 Y6.286221267753347 F300
G1 X28.00364432518772 Y6.1190365676453755 F300
G1 X27.95444399999999 Y5.9461579999999685 F300
G1 X27.908940738164787 Y5.755288225416287 F300
G1 X27.874474999999997 Y5.571037740740711 F300
G1 X27.849773103321223 Y5.385773968279922 F300
G1 X27.83441599999999 Y5.194105259259228 F300
G1 X27.828269816746456 Y4.997891208066077 F300
G1 X27.830702999999993 Y4.781820999999965 F300
G1 X27.83540331249999 Y4.5842179062499655 F300
G1 X27.833025499999994 Y4.473789749999965 F300
G1 X27.82776092585358 Y4.44069786267807 F300
G1 X27.82137393749999 Y4.425726718749965 F300
G1 X27.81143383605339 Y4.417349479427642 F300
G1 X27.798252999999992 Y4.415218999999965 F300
G1 X27.78036011427946 Y4.417757424311961 F300
G1 X27.763936749999992 Y4.424623999999964 F300
G1 X27.750383983301653 Y4.43512013590674 F300
G1 X27.742482999999993 Y4.447228999999965 F300
G1 X27.719616111111108 Y4.4838584814814455 F300
G1 X27.671401222222215 Y4.549111518518481 F300
G1 X27.608316999999992 Y4.628864999999962 F300
G1 X27.52665862114199 Y4.721456887196973 F300
G1 X27.431666788495917 Y4.8143667379107065 F300
G1 X27.322258750301163 Y4.907653149350393 F300
G1 X27.197248286192494 Y5.001312258261002 F300
G1 X27.055356544392072 Y5.09527942290254 F300
G1 X26.89522163741528 Y5.1894314453381885 F300
G1 X26.715406999999992 Y5.283588999999964 F300
G1 X26.546409710659077 Y5.364177703578277 F300
G1 X26.377722063999997 Y5.438083607999967 F300
G1 X26.205499882673 Y5.506560292008785 F300
G1 X26.020672871999995 Y5.572686583999966 F300
G1 X25.82832165973536 Y5.634528099344397 F300
G1 X25.610369647999992 Y5.697725655999964 F300
G1 X25.380754037996653 Y5.75834363122104 F300
G1 X25.11292261599999 Y5.8235285519999636 F300
G1 X24.829157286702966 Y5.888123035252891 F300
G1 X24.494441999999992 Y5.960422999999963 F300
G1 X24.113966979088797 Y6.043012594839867 F300
G1 X23.80611270312499 Y6.114264062499963 F300
G1 X23.522073163469152 Y6.185777931093799 F300
G1 X23.298960624999992 Y6.248337749999964 F300
G1 X23.096021020646575 Y6.313502253840411 F300
G1 X22.942289484374992 Y6.3717955624999645 F300
G1 X22.846436645713133 Y6.414619798187927 F300
G1 X22.768607575226934 Y6.45516292825526 F300
G1 X22.705402999999993 Y6.493788999999964 F300
G1 X22.655215167156147 Y6.530034812108356 F300
G1 X22.613976937891206 Y6.565983109836141 F300
G1 X22.580388925925924 Y6.60223955555552 F300
G1 X22.551583634064695 Y6.642175109631371 F300
G1 X22.528816261716095 Y6.684754297032916 F300
G1 X22.511584407407405 Y6.730922111111076 F300
G1 X22.50006375419313 Y6.77902479337817 F300
G1 X22.493032284171075 Y6.833351687164773 F300
G1 X22.490708999999992 Y6.895323999999967 F300
G1 X22.49644418884957 Y6.9706015158784815 F300
G1 X22.513096296717375 Y7.043666163522394 F300
G1 X22.540544715564707 Y7.115004299451518 F300
G1 X22.57906942418718 Y7.184994240692786 F300
G1 X22.629298962962956 Y7.253860444444414 F300
G1 X22.684983521726394 Y7.314633724324575 F300
G1 X22.750904392884127 Y7.3738391614318815 F300
G1 X22.82771292956121 Y7.431308067907527 F300
G1 X22.91614980140965 Y7.486746202472287 F300
G1 X23.017016037037028 Y7.539726222222191 F300
G1 X23.142136776025914 Y7.5940217831592225 F300
G1 X23.282747213953723 Y7.643360537398008 F300
G1 X23.43967081398268 Y7.686832940804279 F300
G1 X23.613715999999993 Y7.723335999999968 F300
G1 X23.706109262543972 Y7.736823839071211 F300
G1 X23.822345624 Y7.748074239999971 F300
G1 X23.944852185783123 Y7.75558529777609 F300
G1 X24.080938351999997 Y7.76015151999997 F300
G1 X24.219729526708488 Y7.761459461420217 F300
G1 X24.361581367999996 Y7.759619679999967 F300
G1 X24.502723164297862 Y7.754580946563058 F300
G1 X24.636361855999997 Y7.746530559999966 F300
G1 X24.765789974229413 Y7.7349791387880895 F300
G1 X24.877366999999992 Y7.720935999999966 F300
G1 X25.058313658653574 Y7.691174570852305 F300
G1 X25.24431424999999 Y7.654827421874967 F300
G1 X25.429805628985513 Y7.613127717530284 F300
G1 X25.61187199999999 Y7.566917374999967 F300
G1 X25.790571579632022 Y7.5161561153540974 F300
G1 X25.957256749999992 Y7.463326890624968 F300
G1 X26.11761599687293 Y7.406395743245303 F300
G1 X26.25768499999999 Y7.350176999999967 F300
G1 X26.343763749999994 Y7.314664499999967 F300
G1 X26.385965999999993 Y7.299896999999966 F300
G1 X26.387327467200944 Y7.307950870554803 F300
G1 X26.38967537499999 Y7.374903359374966 F300
G1 X26.391715999999995 Y7.579128624999967 F300
G1 X26.39195662499999 Y7.881382078124967 F300
G1 X26.390265999999993 Y8.250472999999968 F300
G1 X26.383565999999995 Y9.201067999999967 F300
G1 X26.128283999999994 Y9.271887999999969 F300
G1 X25.901027219107142 Y9.331371966920747 F300
G1 X25.67631354642724 Y9.383002272504319 F300
G1 X25.452902555555557 Y9.427065962962933 F300
G1 X25.22821700357938 Y9.464034596724296 F300
G1 X25.000765162507463 Y9.494063221628544 F300
G1 X24.76928511111111 Y9.517241037037007 F300
G1 X24.537236162946556 Y9.533386839631842 F300
G1 X24.296997310025628 Y9.543139741987986 F300
G1 X24.047120999999994 Y9.546410999999967 F300
G1 X23.791903598520687 Y9.542766043229275 F300
G1 X23.54939997179426 Y9.532015964570443 F300
G1 X23.318669721446827 Y9.51442817892765 F300
G1 X23.098824777777775 Y9.490255703703673 F300
G1 X22.876845288460096 Y9.45772469436395 F300
G1 X22.66429366589475 Y9.4181399194398 F300
G1 X22.460372134908294 Y9.371642616276555 F300
G1 X22.26432388888888 Y9.318349962962932 F300
G1 X22.06933852695741 Y9.256269763464793 F300
G1 X21.880473168586427 Y9.186809721421021 F300
G1 X21.697088770097114 Y9.10992316930314 F300
G1 X21.518570999999994 Y9.025533999999968 F300
G1 X21.315060843218188 Y8.916855845518086 F300
G1 X21.126680894360934 Y8.802460520870646 F300
G1 X20.952727721238166 Y8.682649328895398 F300
G1 X20.792553226849204 Y8.557645270904976 F300
G1 X20.64557201824815 Y8.427594868922611 F300
G1 X20.511268874999995 Y8.292570624999968 F300
G1 X20.400826939825365 Y8.166743926459548 F300
G1 X20.300297962074538 Y8.03718755976508 F300
G1 X20.20940773117421 Y7.9038487447298245 F300
G1 X20.127943204121166 Y7.7666317373607585 F300
G1 X20.055756362970058 Y7.625401054832168 F300
G1 X19.992767663443047 Y7.479985082495323 F300
G1 X19.938968999999993 Y7.33017999999997 F300
G1 X19.89619418518518 Y7.18469425925923 F300
G1 X19.860937148148142 Y7.040960074074047 F300
G1 X19.840828999999992 Y6.930094999999973 F300
G1 X19.828777831647262 Y6.850820525559209 F300
G1 X19.81698024999999 Y6.8082443749999735 F300
G1 X19.805250980791275 Y6.786107318495846 F300
G1 X19.792534089646512 Y6.77419605015203 F300
G1 X19.778048999999992 Y6.768670999999976 F300
G1 X19.76010171981077 Y6.767905135238698 F300
G1 X19.746545249999993 Y6.7718697499999765 F300
G1 X19.736893935555003 Y6.78012644881213 F300
G1 X19.733438999999994 Y6.791560999999973 F300
G1 X19.727205543536183 Y6.818958681602162 F300
G1 X19.700186856000002 Y6.887690967999974 F300
G1 X19.615218647999995 Y7.067567303999971 F300
G1 X19.500716711999992 Y7.288407655999972 F300
G1 X19.37886338399999 Y7.507429671999972 F300
G1 X19.271840999999995 Y7.681850999999973 F300
G1 X19.191278719619447 Y7.794245337666689 F300
G1 X19.087502874999995 Y7.924374203124975 F300
G1 X18.97473304191238 Y8.05490309808471 F300
G1 X18.850816249999994 Y8.189112874999974 F300
G1 X18.72255231752324 Y8.319560139704375 F300
G1 X18.596098499999997 Y8.440060359374973 F300
G1 X18.469245167759652 Y8.552026867790302 F300
G1 X18.357666999999996 Y8.641209999999973 F300
G1 X18.188714513182614 Y8.760758105024381 F300
G1 X18.010616122788534 Y8.872569360053173 F300
G1 X17.82316037646235 Y8.976596872703519 F300
G1 X17.62610151585228 Y9.07273758385477 F300
G1 X17.419164499999994 Y9.160831374999972 F300
G1 X17.211573847599617 Y9.237410214591273 F300
G1 X16.99483732776992 Y9.306044746726382 F300
G1 X16.768702383287795 Y9.366502279210348 F300
G1 X16.53290392166438 Y9.41850338905648 F300
G1 X16.287167999999994 Y9.461721999999973 F300
G1 X16.177227490192347 Y9.475953224452812 F300
G1 X16.04023529166666 Y9.488455226851826 F300
G1 X15.895940793209506 Y9.49764500691622 F300
G1 X15.735668999999994 Y9.504424481481458 F300
G1 X15.403495874999994 Y9.509644124999975 F300
G1 X15.07374266666666 Y9.504128518518494 F300
G1 X14.916208232169431 Y9.497188471547144 F300
G1 X14.776436124999995 Y9.48789202314812 F300
G1 X14.644598219556368 Y9.475213519305987 F300
G1 X14.541602999999995 Y9.460948999999975 F300
G1 X14.292114446203902 Y9.413467353775605 F300
G1 X14.050122076213196 Y9.355794611254252 F300
G1 X13.815493615288375 Y9.288261992684394 F300
G1 X13.58810640564485 Y9.211147908737924 F300
G1 X13.367851406249994 Y9.124679468749974 F300
G1 X13.150122710826356 Y9.026874673286843 F300
G1 X12.94028381820597 Y8.919964868768087 F300
G1 X12.738232691707719 Y8.804126706630782 F300
G1 X12.54389132126469 Y8.679486131138155 F300
G1 X12.357209999999995 Y8.546120749999975 F300
G1 X12.176940335530933 Y8.403033332893937 F300
G1 X12.004951094701525 Y8.251591698712303 F300
G1 X11.84122325840426 Y8.09181471061183 F300
G1 X11.685777317094791 Y7.923676929591395 F300
G1 X11.538677343749995 Y7.747111906249975 F300
G1 X11.401285073255767 Y7.563777139953531 F300
G1 X11.27270057489533 Y7.372484703572921 F300
G1 X11.153042726691435 Y7.17311393028019 F300
G1 X11.042483641964676 Y6.965510825333691 F300
G1 X10.941251999999995 Y6.749491999999975 F300
G1 X10.861794289217505 Y6.555213955780918 F300
G1 X10.791077107578397 Y6.354895055937778 F300
G1 X10.729093256449092 Y6.1479618745401865 F300
G1 X10.675877874999996 Y5.933812124999976 F300
G1 X10.63282054633154 Y5.719221812988478 F300
G1 X10.598064490406708 Y5.496109313560938 F300
G1 X10.571814951896714 Y5.263787055035538 F300
G1 X10.554310999999995 Y5.021532999999977 F300
G1 X10.543203147656838 Y4.858292865220334 F300
G1 X10.531842407407403 Y4.767535555555533 F300
G1 X10.518349677794438 Y4.716519250003049 F300
G1 X10.506145248297756 Y4.699344718334495 F300
G1 X10.494302259259255 Y4.697777444444421 F300
G1 X10.480790290672964 Y4.7072110781638905 F300
G1 X10.46070223929594 Y4.7346041543389505 F300
G1 X10.430658999999995 Y4.791777999999979 F300
G1 X10.394270148917894 Y4.860539708875562 F300
G1 X10.3458590797249 Y4.938195625777722 F300
G1 X10.284970812499997 Y5.024390374999991 F300
G1 X10.18515179909625 Y5.149997251029171 F300
G1 X10.067944724999998 Y5.2817287499999965 F300
G1 X9.94259230270066 Y5.409080370329818 F300
G1 X9.81150895 Y5.529703749999999 F300
G1 X9.676212351785246 Y5.641293466507496 F300
G1 X9.5475917 Y5.734226 F300
G1 X9.33660335638028 Y5.867886119377063 F300
G1 X9.118128149600002 Y5.991150024000001 F300
G1 X8.96865153059121 Y6.066983762885022 F300
G1 X8.808984844100355 Y6.141080998143174 F300
G1 X8.6368415048 Y6.213933472 F300
G1 X8.46271830588123 Y6.281284658350314 F300
G1 X8.270639195865 Y6.349435049676354 F300
G1 X8.0575647752 Y6.418912808 F300
G1 X7.726476280579332 Y6.517093980224585 F300
G1 X7.3341309704 Y6.622424496000002 F300
G1 X6.916559426857468 Y6.725716678151736 F300
G1 X6.4203731 Y6.840805000000003 F300
G1 X5.955086537197707 Y6.94833059889434 F300
G1 X5.577285474074076 Y7.041064583333338 F300
G1 X5.228610991431251 Y7.134348114780112 F300
G1 X4.955152892592594 Y7.216574000000004 F300
G1 X4.782141666837453 Y7.275529030408761 F300
G1 X4.639405253103699 Y7.330613342874754 F300
G1 X4.522166950000001 Y7.382475250000002 F300
G1 X4.408249860195598 Y7.441742769976306 F300
G1 X4.317853991607388 Y7.498705643899872 F300
G1 X4.246519240740741 Y7.553910333333336 F300
G1 X4.182337957103053 Y7.616881096028024 F300
G1 X4.133224920209585 Y7.680607348870736 F300
G1 X4.096401359259259 Y7.746021250000001 F300
G1 X4.069097298333521 Y7.816188239616942 F300
G1 X4.050598444890053 Y7.891716251162885 F300
G1 X4.0400049 Y7.973950000000002 F300
G1 X4.036487359734767 Y8.055259763850474 F300
G1 X4.039605073775485 Y8.127934716738613 F300
G1 X4.049110233333334 Y8.193889370370373 F300
G1 X4.065939935481357 Y8.258192716274731 F300
G1 X4.0904222225683045 Y8.320142792619585 F300
G1 X4.123301566666667 Y8.381168962962965 F300
G1 X4.162473672547576 Y8.438617377735614 F300
G1 X4.21202139723333 Y8.499074803607998 F300
G1 X4.273728899999999 Y8.563943000000002 F300
G1 X4.3627583083443 Y8.644756755929503 F300
G1 X4.454403125925926 Y8.713504518518523 F300
G1 X4.552616106955768 Y8.772938127285734 F300
G1 X4.662741040740741 Y8.825730481481486 F300
G1 X4.781161733309901 Y8.870594895931305 F300
G1 X4.921685799999999 Y8.912980000000001 F300
G1 X5.035655401562498 Y8.939300781250001 F300
G1 X5.155487087499998 Y8.955621250000002 F300
G1 X5.303335229687498 Y8.963986093750002 F300
G1 X5.501354199999999 Y8.966440000000002 F300
G1 X5.710997490791563 Y8.962317607077273 F300
G1 X5.904942104687499 Y8.949691390625002 F300
G1 X6.094640860884655 Y8.927568319507868 F300
G1 X6.2774450124999985 Y8.895905625000003 F300
G1 X6.45798187800264 Y8.853962975765038 F300
G1 X6.640091139062498 Y8.800787546875002 F300
G1 X6.822063570739697 Y8.73724790484286 F300
G1 X7.014108699999999 Y8.660042 F300
G1 X7.224918599999999 Y8.570112000000002 F300
G1 X7.298789599999998 Y8.630662000000001 F300
G1 X7.391443059259259 Y8.71018155555556 F300
G1 X7.563331674074073 Y8.860450444444448 F300
G1 X7.777243799999998 Y9.048934000000003 F300
G1 X8.125712970820395 Y9.351248597101394 F300
G1 X8.48281610280898 Y9.649634327221698 F300
G1 X8.84813870954145 Y9.943756487411381 F300
G1 X9.221262414062497 Y10.233271046875002 F300
G1 X9.598903030272641 Y10.515723380866866 F300
G1 X9.982373986571952 Y10.792210581145616 F300
G1 X10.3712068297813 Y11.062415511433871 F300
G1 X10.764934362499998 Y11.326016125000002 F300
G1 X11.16336757066472 Y11.582860577354944 F300
G1 X11.564716252372458 Y11.8317905943235 F300
G1 X11.968491405822638 Y12.07252940204301 F300
G1 X12.374211079687498 Y12.304798890625001 F300
G1 X12.785065299780541 Y12.530287901488677 F300
G1 X13.195803909214437 Y12.746000406510904 F300
G1 X13.605950965642467 Y12.951724347130204 F300
G1 X14.015043999999998 Y13.147249000000002 F300
G1 X14.496356643797762 Y13.36608895076005 F300
G1 X14.978993189688776 Y13.574568859508759 F300
G1 X15.463238827466474 Y13.772824378523351 F300
G1 X15.949379117091814 Y13.960983774562385 F300
G1 X16.4377003125 Y14.139167968750002 F300
G1 X16.929815586138407 Y14.307930860992338 F300
G1 X17.425197195331847 Y14.467039488559386 F300
G1 X17.92414872862465 Y14.616565327043121 F300
G1 X18.426976628071007 Y14.756572777344378 F300
G1 X18.9339905 Y14.887119250000001 F300
G1 X19.442005456206466 Y15.007462349251224 F300
G1 X19.955284528128843 Y15.11867209615361 F300
G1 X20.47415653577759 Y15.220756952553629 F300
G1 X20.998955497471663 Y15.31371901702106 F300
G1 X21.530020937499998 Y15.397554156250001 F300
G1 X22.059089943828184 Y15.471135271452432 F300
G1 X22.59545000141475 Y15.535914119690975 F300
G1 X23.139459567262335 Y15.591842015505716 F300
G1 X23.691484425069152 Y15.638864998355144 F300
G1 X24.251897999999997 Y15.676924000000003 F300
G1 X24.602013930029155 Y15.691471396501466 F300
G1 X25.052983195335273 Y15.70111745772595 F300
G1 X25.56398443731778 Y15.70587227696793 F300
G1 X26.09419629737609 Y15.705745947521871 F300
G1 X26.602797416909617 Y15.700748562682218 F300
G1 X27.048966437317777 Y15.69089021574344 F300
G1 X27.391881999999995 Y15.676181000000003 F300
G1 X27.90681458283017 Y15.64041492316822 F300
G1 X28.41300181296112 Y15.597356672231797 F300
G1 X28.90986462437758 Y15.547277450793773 F300
G1 X29.396847671874998 Y15.490438625000003 F300
G1 X29.88677308883098 Y15.425203399506714 F300
G1 X30.36347666164732 Y15.353612066933938 F300
G1 X30.826527123085487 Y15.275987470996393 F300
G1 X31.275528624999996 Y15.192638000000004 F300
G1 X31.72836545789418 Y15.099946916830703 F300
G1 X32.16354919811906 Y15.00204709586281 F300
G1 X32.580884406897695 Y14.899307562899033 F300
G1 X32.980221765625 Y14.792076125000005 F300
G1 X33.38371883700156 Y14.67388008551503 F300
G1 X33.76526560029666 Y14.551880377790011 F300
G1 X34.125027896242074 Y14.426480125393486 F300
G1 X34.463224 Y14.298050000000003 F300
G1 X34.54892806226705 Y14.265180831003685 F300
G1 X34.571941374999994 Y14.258776250000004 F300
G1 X34.574817003903334 Y14.262177022516864 F300
G1 X34.540983999999995 Y14.291750000000004 F300
G1 X34.468307908416726 Y14.345173757784456 F300
G1 X34.35687056481482 Y14.419815935185191 F300
G1 X34.078446185185186 Y14.592085148148152 F300
G1 X33.73142075 Y14.793949750000005 F300
G1 X33.34150414814815 Y15.010801851851856 F300
G1 X32.93440626851851 Y15.228033564814817 F300
G1 X32.535836999999994 Y15.431037000000003 F300
G1 X32.095374888536334 Y15.643260100528808 F300
G1 X31.65661252156396 Y15.842944874608575 F300
G1 X31.219412471072904 Y16.030301824779098 F300
G1 X30.78363573336308 Y16.205530057753457 F300
G1 X30.349141714389187 Y16.368817123658918 F300
G1 X29.91578822389226 Y16.520338860981262 F300
G1 X29.483431478246708 Y16.6602592481657 F300
G1 X29.051926111880377 Y16.788730262823726 F300
G1 X28.621125197052827 Y16.90589174948116 F300
G1 X28.190880271702568 Y17.01187129677859 F300
G1 X27.76104137499999 Y17.106784125000004 F300
G1 X27.323013971557547 Y17.19227397451748 F300
G1 X26.884913077640082 Y17.26648758843226 F300
G1 X26.446577043702376 Y17.329493021789574 F300
G1 X26.007843014953174 Y17.381344885398203 F300
G1 X25.568547002255137 Y17.422084308414718 F300
G1 X25.128523956221862 Y17.451738916555946 F300
G1 X24.68760784364946 Y17.470322826208946 F300
G1 X24.245631725398468 Y17.477836654593208 F300
G1 X23.802427834829572 Y17.474267546013063 F300
G1 X23.357827655895495 Y17.4595892141214 F300
G1 X22.911661999999993 Y17.433762 F300
G1 X22.46440550645947 Y17.39710550534757 F300
G1 X22.01778388921387 Y17.35006166525882 F300
G1 X21.571745912961106 Y17.292633463872306 F300
G1 X21.12624141364027 Y17.22481335466779 F300
G1 X20.681221580882735 Y17.14658334791581 F300
G1 X20.236639238244745 Y17.057915108386794 F300
G1 X19.792449120606424 Y16.958770063060403 F300
G1 X19.348608148148145 Y16.84909951851852 F300
G1 X18.910672637131103 Y16.730428992978567 F300
G1 X18.473243940711175 Y16.601448327799716 F300
G1 X18.036286491722663 Y16.462099308788822 F300
G1 X17.599767325959196 Y16.31231456492607 F300
G1 X17.163656320378337 Y16.15201770274902 F300
G1 X16.727926426560792 Y15.981123447694825 F300
G1 X16.292553899084883 Y15.799537791926916 F300
G1 X15.85751851851851 Y15.607158148148152 F300
G1 X15.432386951491406 Y15.408474845895025 F300
G1 X15.00777460982314 Y15.199364082279567 F300
G1 X14.583669222085678 Y14.979721920154391 F300
G1 X14.16006212871497 Y14.749436968189197 F300
G1 X13.73694846453253 Y14.508390530385723 F300
G1 X13.314327336141698 Y14.256456758872675 F300
G1 X12.892201994124576 Y13.993502809530614 F300
G1 X12.470579999999993 Y13.719389 F300
G1 X12.011395930238642 Y13.40772091470614 F300
G1 X11.56628951093749 Y13.091629078125 F300
G1 X11.128862377379052 Y12.766380353822923 F300
G1 X10.695631337499993 Y12.429128875 F300
G1 X10.410488848240606 Y12.198714650811663 F300
G1 X10.123299463944132 Y11.959835678391215 F300
G1 X9.833075170312494 Y11.711559734375001 F300
G1 X9.400743874744773 Y11.329273943303026 F300
G1 X8.953090699999994 Y10.918593000000001 F300
G1 X8.81265314444444 Y10.793220444444449 F300
G1 X8.700814255555551 Y10.703800555555558 F300
G1 X8.658014649272378 Y10.675727590744742 F300
G1 X8.641786699999994 Y10.669692000000001 F300
G1 X8.57678025555555 Y10.683286074074077 F300
G1 X8.449265811111106 Y10.718924592592595 F300
G1 X8.286850699999993 Y10.768892000000001 F300
G1 X8.061197569015114 Y10.83720845460724 F300
G1 X7.831023627749186 Y10.899217599976227 F300
G1 X7.595488118518518 Y10.954982851851852 F300
G1 X7.358385476432661 Y11.003672762542308 F300
G1 X7.113345168815414 Y11.046624946857841 F300
G1 X6.859399248148149 Y11.083793481481482 F300
G1 X6.6047545896124795 Y11.114149158940378 F300
G1 X6.338724077353959 Y11.139106863627497 F300
G1 X6.0601822 Y11.158536999999999 F300
G1 X5.7811591564378695 Y11.170277997153505 F300
G1 X5.5096628091061355 Y11.172784889627899 F300
G1 X5.2456766746884975 Y11.166411518125441 F300
G1 X4.989174881552902 Y11.151483587766696 F300
G1 X4.740124612500001 Y11.128298703125 F300
G1 X4.487401442761788 Y11.095482105705392 F300
G1 X4.243479882768053 Y11.054328747097413 F300
G1 X4.008261762471199 Y11.00515890752903 F300
G1 X3.7816461609640144 Y10.94825708960187 F300
G1 X3.563532875 Y10.883872124999998 F300
G1 X3.3445379715007433 Y10.808807516108617 F300
G1 X3.135292267559505 Y10.72628341692188 F300
G1 X2.9356261347972303 Y10.636535399799351 F300
G1 X2.7453818848967693 Y10.539752700867417 F300
G1 X2.56441885 Y10.436078734374998 F300
G1 X2.386699546570238 Y10.321574934295896 F300
G1 X2.219228853157572 Y10.200251274204668 F300
G1 X2.0618346808692145 Y10.072173801098902 F300
G1 X1.9143849339356713 Y9.93735186162545 F300
G1 X1.7767944 Y9.795739999999999 F300
G1 X1.6594958524502748 Y9.659617395947006 F300
G1 X1.5520522901010914 Y9.518420061936528 F300
G1 X1.4539154333527584 Y9.371384774485684 F300
G1 X1.3646056625 Y9.217706624999998 F300
G1 X1.2851865714237778 Y9.059706481581305 F300
G1 X1.213072754519933 Y8.892501502980926 F300
G1 X1.1481371535161085 Y8.71500883083275 F300
G1 X1.0902931 Y8.526063999999998 F300
G1 X1.062346803125 Y8.407736249999997 F300
G1 X1.053235182015213 Y8.348125438014367 F300
G1 X1.046187225 Y8.276018749999999 F300
G1 X1.0388118343750001 Y8.090429125 F300
G1 X1.0372181 Y7.810485 F300
G1 X1.0384565208000003 Y7.566343808000002 F300
G1 X1.0433516584000002 Y7.395342904000001 F300
G1 X1.0544332856 Y7.268551296 F300
G1 X1.0742311752000002 Y7.157037992000001 F300
G1 X1.1052751 Y7.031872 F300
G1 X1.1545322329932686 Y6.867472181221956 F300
G1 X1.212813039487121 Y6.711779621688939 F300
G1 X1.2802234683103262 Y6.56403759368995 F300
G1 X1.356958636401923 Y6.423553797530662 F300
G1 X1.4433081000000003 Y6.289699851851854 F300
G1 X1.5387625793739332 Y6.1630158029626925 F300
G1 X1.6450060293718702 Y6.041280117754919 F300
G1 X1.7627602754127591 Y5.924126752787557 F300
G1 X1.892852992122059 Y5.8112475304631115 F300
G1 X2.0362176333333335 Y5.702387481481482 F300
G1 X2.1811216420333226 Y5.605357470692791 F300
G1 X2.3398150217307547 Y5.511035828071237 F300
G1 X2.5134163603517954 Y5.419377194394402 F300
G1 X2.703126111799864 Y5.330355615501546 F300
G1 X2.9102275 Y5.243957999999999 F300
G1 X3.050772588888889 Y5.184057555555556 F300
G1 X3.1474286777777776 Y5.133478444444445 F300
G1 X3.1777838060560795 Y5.111306788186939 F300
G1 X3.1857973 Y5.099753999999997 F300
G1 X3.183692108410062 Y5.088406413620419 F300
G1 X3.1704766594134597 Y5.066629631308161 F300
G1 X3.1388131625 Y5.029615749999998 F300
G1 X3.0848385150469406 Y4.977088915117429 F300
G1 X3.0070992 Y4.910644999999995 F300
G1 X2.7945100866743813 Y4.733610207090473 F300
G1 X2.54462855625 Y4.514781218749995 F300
G1 X2.2872205347858436 Y4.280359768904431 F300
G1 X2.0049227249999997 Y4.014871999999995 F300
G1 X1.718929002995154 Y3.7382098616822104 F300
G1 X1.42004173125 Y3.4415145312499957 F300
G1 X1.121481948281966 Y3.137681247775057 F300
G1 X0.8220456 Y2.8253059999999977 F300
G1 X0.588444071875 Y2.577859859374997 F300
G1 X0.38500475000000006 Y2.3611771249999975 F300
G1 X0.23358130312500008 Y2.198613078124999 F300
G1 X0.15602740000000004 Y2.1135230000000007 F300
G1 X0.07521640000000004 Y2.020023000000002 F300
G1 X0.2865088 Y1.8675700000000006 F300
G1 X0.5462374952428563 Y1.687793702168374 F300
G1 X0.8164053856436885 Y1.515732792152179 F300
G1 X1.0968194291630136 Y1.3515557034971748 F300
G1 X1.387293815625 Y1.1954628124999993 F300
G1 X1.681958315068655 Y1.0503642512850466 F300
G1 X1.984991525506968 Y0.9139455110943029 F300
G1 X2.2961416289718684 Y0.7864051218481974 F300
G1 X2.6151582500000004 Y0.6679687499999991 F300
G1 X2.9369007941583254 Y0.5604348694818048 F300
G1 X3.2647760064901443 Y0.46253807700009747 F300
G1 X3.598486445969491 Y0.37448258936192363 F300
G1 X3.937734184375 Y0.29649681249999904 F300
G1 X4.2785632507923 Y0.22949209895108688 F300
G1 X4.623207081460774 Y0.1730140529319353 F300
G1 X4.971344577197891 Y0.12726136290260004 F300
G1 X5.3226537 Y0.09245599999999854 F300
G1 X5.490506407407409 Y0.08455507407407223 F300
G1 X5.730303459259261 Y0.08066192592592412 F300
G1 X6.00729545 Y0.08056599999999836 F300
G1 X6.286732974074075 Y0.0840567407407391 F300
G1 X6.533866625925926 Y0.09092359259259042 F300
G1 X6.713946999999999 Y0.10095599999999649 F300
G1 X6.7139472 Y0.10092799999999613 F300
G0 X5.6672856 Y2.4009519999999966
G1 X5.489216139595441 Y2.414533441210532 F300
G1 X5.308117112134185 Y2.4345933810438276 F300
G1 X5.1245818777777785 Y2.4611085185185186 F300
G1 X4.941969421021573 Y2.4935326293597777 F300
G1 X4.759302388171574 Y2.531956819036047 F300
G1 X4.577223088888889 Y2.57627614814815 F300
G1 X4.396641385414373 Y2.626319365536701 F300
G1 X4.218974550708516 Y2.6817245981489455 F300
G1 X4.0448379 Y2.7423240000000035 F300
G1 X3.9114472693264775 Y2.7941951430046563 F300
G1 X3.7585362324074083 Y2.8592072824074104 F300
G1 X3.6027284156730484 Y2.929917877401379 F300
G1 X3.4414155925925933 Y3.007020259259262 F300
G1 X3.2815898284707927 Y3.0869956108518535 F300
G1 X3.130433225 Y3.166009625000002 F300
G1 X2.985382918266452 Y3.245438016535274 F300
G1 X2.8625463740740744 Y3.3164220740740764 F300
G1 X2.7508806639943413 Y3.385775386214204 F300
G1 X2.674712284259259 Y3.4385043009259277 F300
G1 X2.629076041563448 Y3.476109880231072 F300
G1 X2.6088459143490814 Y3.4992070722379816 F300
G1 X2.6038882 Y3.5125030000000024 F300
G1 X2.6112290674001164 Y3.531236360454693 F300
G1 X2.6486909906249996 Y3.591790726562502 F300
G1 X2.7674321 Y3.7599370000000025 F300
G1 X2.936610634375 Y3.9867289609375027 F300
G1 X3.1327257 Y4.241953750000003 F300
G1 X3.3322764031250003 Y4.495398507812503 F300
G1 X3.51176185 Y4.7168503750000035 F300
G1 X3.647681146875 Y4.876096492187505 F300
G1 X3.6983643391768366 Y4.92904999537703 F300
G1 X3.7165334000000003 Y4.942924000000005 F300
G1 X3.7355405166254356 Y4.942924967001925 F300
G1 X3.8071101888888896 Y4.932044037037043 F300
G1 X4.0103059777777785 Y4.8904042962963015 F300
G1 X4.2821309 Y4.827005000000007 F300
G1 X4.5292581671875 Y4.767617078125007 F300
G1 X4.810367962500001 Y4.701709125000006 F300
G1 X5.0908741765625 Y4.637307359375004 F300
G1 X5.3361907 Y4.582438000000003 F300
G1 X5.697785636578909 Y4.49989356123016 F300
G1 X6.010982203742879 Y4.42193313178037 F300
G1 X6.28124578125 Y4.347987500000004 F300
G1 X6.5493897586183785 Y4.266041894243865 F300
G1 X6.7741130065486725 Y4.187953251037788 F300
G1 X6.96134465 Y4.113318750000004 F300
G1 X7.102415203604525 Y4.048746911055312 F300
G1 X7.221670902435979 Y3.9860943776996396 F300
G1 X7.321920872720079 Y3.925201213132661 F300
G1 X7.405688218750001 Y3.865913125000005 F300
G1 X7.487324913509307 Y3.796907449487898 F300
G1 X7.552687091306891 Y3.7287553500137447 F300
G1 X7.604099195426775 Y3.6610408942582313 F300
G1 X7.6434774 Y3.5932520000000068 F300
G1 X7.671954136456802 Y3.5241590453357197 F300
G1 X7.693538337500001 Y3.445272375000008 F300
G1 X7.707008262308376 Y3.3629273321849094 F300
G1 X7.71278965 Y3.2777470000000086 F300
G1 X7.710670800005281 Y3.192723917829635 F300
G1 X7.7007663375 Y3.112110875000009 F300
G1 X7.682454909113955 Y3.0353100993734374 F300
G1 X7.6570034 Y2.969799000000009 F300
G1 X7.61989204636967 Y2.904079522435807 F300
G1 X7.573640902320111 Y2.841541694451393 F300
G1 X7.51779200338089 Y2.78194678657783 F300
G1 X7.451687942524936 Y2.7251925288249153 F300
G1 X7.3745035431125485 Y2.6713190862813674 F300
G1 X7.285277925925927 Y2.6205101481481567 F300
G1 X7.180524582521664 Y2.572082751490109 F300
G1 X7.061543090887877 Y2.5279164792746953 F300
G1 X6.927222356474826 Y2.4885372591252795 F300
G1 X6.776409326258781 Y2.454595580539488 F300
G1 X6.607931007407409 Y2.4268615185185283 F300
G1 X6.4066164049441285 Y2.405053869317424 F300
G1 X6.1835168514835495 Y2.3926465541536404 F300
G1 X5.9374497435406 Y2.3908363530026384 F300
G1 X5.6672856 Y2.400952000000011 F300
G1 X5.6672856 Y2.4009519999999966 F300
G0 X6.6756546 Y2.5010659999999945
G1 X6.82650108025325 Y2.532888089846248 F300
G1 X6.960771145977069 Y2.5697778473629147 F300
G1 X7.079729653331015 Y2.610970601393039 F300
G1 X7.184589898247552 Y2.6558321173294903 F300
G1 X7.276497722222223 Y2.7038587037037036 F300
G1 X7.368854570277465 Y2.7634664363143857 F300
G1 X7.446001185771534 Y2.826071594645892 F300
G1 X7.509413060149344 Y2.891414837351148 F300
G1 X7.560296847435087 Y2.9594770312438308 F300
G1 X7.599537111111111 Y3.0304629629629654 F300
G1 X7.628287265239166 Y3.1069483010525847 F300
G1 X7.645294350661297 Y3.1870581657404156 F300
G1 X7.65039327905788 Y3.2715655796886463 F300
G1 X7.642872335361365 Y3.361347584017793 F300
G1 X7.6214739 Y3.4573230000000024 F300
G1 X7.596123914727501 Y3.5268756867042272 F300
G1 X7.560771632028843 Y3.5940680856600786 F300
G1 X7.514200921840165 Y3.659800198776641 F300
G1 X7.454803575 Y3.724877874999999 F300
G1 X7.39093086400784 Y3.7817147892721055 F300
G1 X7.312996146703545 Y3.8399178259023503 F300
G1 X7.218660574601422 Y3.8999389645961915 F300
G1 X7.1052801 Y3.962294 F300
G1 X6.979908800540651 Y4.023638895034226 F300
G1 X6.844524044000002 Y4.083011680000001 F300
G1 X6.702431848407133 Y4.13854714597544 F300
G1 X6.5381384680000005 Y4.195802160000001 F300
G1 X6.363345719159615 Y4.250559810021327 F300
G1 X6.15451074 Y4.310082800000002 F300
G1 X5.931218806707974 Y4.368851306539525 F300
G1 X5.6620282280000005 Y4.435270960000002 F300
G1 X5.0290783 Y4.580784000000001 F300
G1 X4.7178570484375 Y4.650835593750002 F300
G1 X4.4271779875 Y4.717695 F300
G1 X4.1895746828125 Y4.773790406249998 F300
G1 X4.0375807 Y4.811549999999997 F300
G1 X3.912821522222223 Y4.843377037037038 F300
G1 X3.8149262777777784 Y4.866079629629632 F300
G1 X3.7650889 Y4.874740000000003 F300
G1 X3.7506812383799177 Y4.865531367213316 F300
G1 X3.698982662400001 Y4.8130153120000045 F300
G1 X3.5548713992 Y4.645838176000004 F300
G1 X3.3547490847999994 Y4.4002039840000045 F300
G1 X3.1206096935999996 Y4.103108128000006 F300
G1 X2.8744471999999996 Y3.781546000000006 F300
G1 X2.769166520312499 Y3.6392503593750076 F300
G1 X2.7150232124999993 Y3.5555903750000075 F300
G1 X2.70329334654069 Y3.5273673150348746 F300
G1 X2.7017784734375 Y3.5110944531250077 F300
G1 X2.7070810987997955 Y3.497736886973354 F300
G1 X2.7191935 Y3.4862910000000085 F300
G1 X2.838583591200001 Y3.4108205280000092 F300
G1 X3.0283881416 Y3.3028800240000087 F300
G1 X3.2522934663999994 Y3.182063856000008 F300
G1 X3.4739858808 Y3.0679663920000078 F300
G1 X3.6571517 Y2.9801820000000063 F300
G1 X3.8777416438352534 Y2.8868152428057523 F300
G1 X4.108656540625 Y2.7998890625000072 F300
G1 X4.343833668743465 Y2.721477849755159 F300
G1 X4.581507 Y2.6519267500000083 F300
G1 X4.820318050950626 Y2.591652752462898 F300
G1 X5.053635659375 Y2.5423100625000092 F300
G1 X5.285142314458485 Y2.5033821438371313 F300
G1 X5.5029751000000005 Y2.4770540000000096 F300
G1 X5.599000675738289 Y2.4699227313885235 F300
G1 X5.719700369600001 Y2.4647593600000097 F300
G1 X5.983470136800001 Y2.461794480000009 F300
G1 X6.2561452192 Y2.467377920000008 F300
G1 X6.499586434400001 Y2.4807282400000075 F300
G1 X6.6037173641619304 Y2.490685895772685 F300
G1 X6.6756546000000005 Y2.5010640000000066 F300
G1 X6.6756546 Y2.5010659999999945 F300
G0 X13.172611 Y5.652035999999995
G1 X13.177157306999945 Y5.694809898725847 F300
G1 X13.193545499999997 Y5.769079843749995 F300
G1 X13.216257918590944 Y5.850185182048882 F300
G1 X13.24701875 Y5.946763999999995 F300
G1 X13.319035375 Y6.143347406249995 F300
G1 X13.358693710019445 Y6.238111973255057 F300
G1 X13.3956 Y6.317088999999996 F300
G1 X13.481588143826263 Y6.475319779984077 F300
G1 X13.574416755385153 Y6.620416902570306 F300
G1 X13.673999516780796 Y6.753198972948056 F300
G1 X13.780355628739192 Y6.874383679199542 F300
G1 X13.893609644355788 Y6.984580189072513 F300
G1 X14.013989752991424 Y7.084282023833402 F300
G1 X14.14182451139571 Y7.173860804035112 F300
G1 X14.277538142147826 Y7.253561230584287 F300
G1 X14.421644634808173 Y7.323497589125836 F300
G1 X14.574740974960385 Y7.3836519551220405 F300
G1 X14.7374998773615 Y7.433874146904868 F300
G1 X14.910662406178046 Y7.473883343790247 F300
G1 X15.095030830796375 Y7.503271174403215 F300
G1 X15.291462 Y7.521505999999995 F300
G1 X15.404432520758668 Y7.525431908906211 F300
G1 X15.520794082938806 Y7.523612771833542 F300
G1 X15.639813015625 Y7.516098828124995 F300
G1 X15.817605496796894 Y7.494832960121745 F300
G1 X15.993633124999999 Y7.462108624999995 F300
G1 X16.165938110556 Y7.41827380488986 F300
G1 X16.327906921874998 Y7.365027359374994 F300
G1 X16.43265772453578 Y7.323181491557035 F300
G1 X16.52935389942546 Y7.2781714610445265 F300
G1 X16.617618999999998 Y7.230346999999995 F300
G1 X16.696272769641947 Y7.180125532681258 F300
G1 X16.7833553125 Y7.116335624999995 F300
G1 X16.86940699759087 Y7.0462145824040245 F300
G1 X16.955754999999996 Y6.969177249999994 F300
G1 X17.038632323554765 Y6.8885383703257 F300
G1 X17.114177687499996 Y6.808102999999993 F300
G1 X17.183335372094987 Y6.7262966829545014 F300
G1 X17.237982999999996 Y6.652343999999992 F300
G1 X17.307391626921774 Y6.541049341150573 F300
G1 X17.377082281249997 Y6.411314640624992 F300
G1 X17.440779271628834 Y6.275852699373883 F300
G1 X17.497604999999997 Y6.138108874999993 F300
G1 X17.546513707668968 Y6.000391738390811 F300
G1 X17.58245546875 Y5.8771879218749925 F300
G1 X17.600907236971487 Y5.795191490412385 F300
G1 X17.611292285528787 Y5.727318559553567 F300
G1 X17.614537999999996 Y5.67301299999999 F300
G1 X17.614537999999996 Y5.589532999999989 F300
G1 X15.393574999999997 Y5.589532999999989 F300
G1 X13.172610999999996 Y5.589532999999989 F300
G1 X13.172611 Y5.652035999999995 F300
G0 X17.523188 Y5.8194269999999975
G1 X17.480944298219693 Y5.976797199696051 F300
G1 X17.42987172916223 Y6.1262017032636615 F300
G1 X17.37039331766378 Y6.267895382646018 F300
G1 X17.302830270789293 Y6.402101728466779 F300
G1 X17.227407222222226 Y6.529002296296295 F300
G1 X17.14231299563004 Y6.651319779587651 F300
G1 X17.049772210532343 Y6.765547802057874 F300
G1 X16.94989403036644 Y6.871814538592813 F300
G1 X16.84270014636062 Y6.970176741316991 F300
G1 X16.728133777777778 Y7.0606093703703685 F300
G1 X16.607655227640194 Y7.142008563411758 F300
G1 X16.480410828962867 Y7.214977190205433 F300
G1 X16.34624652875064 Y7.279371391271283 F300
G1 X16.20495383524693 Y7.334943324035646 F300
G1 X16.056281000000002 Y7.381333999999995 F300
G1 X15.928518578125002 Y7.412173374999995 F300
G1 X15.868620586493606 Y7.422282684445942 F300
G1 X15.802546875 Y7.429763999999994 F300
G1 X15.640956734375003 Y7.437387124999995 F300
G1 X15.406339000000003 Y7.438323999999994 F300
G1 X15.165661359375004 Y7.435309781249993 F300
G1 X15.005610125000002 Y7.425760249999993 F300
G1 X14.94110370302956 Y7.416919234382128 F300
G1 X14.881217828125003 Y7.404865093749994 F300
G1 X14.747517000000002 Y7.367813999999996 F300
G1 X14.604929635661803 Y7.32001909788134 F300
G1 X14.471901408424333 Y7.266598341882484 F300
G1 X14.347596842649953 Y7.20750546650783 F300
G1 X14.23124570370371 Y7.142651370370367 F300
G1 X14.118890763706242 Y7.069625188411097 F300
G1 X14.01299647064247 Y6.989688154673909 F300
G1 X13.913019316224922 Y6.902456641269459 F300
G1 X13.818472629629634 Y6.807476962962959 F300
G1 X13.731104735295645 Y6.706910984396854 F300
G1 X13.647735709677736 Y6.597372470873058 F300
G1 X13.568120372633167 Y6.478125378974808 F300
G1 X13.492042000000001 Y6.348360999999997 F300
G1 X13.432414176000004 Y6.225878071999998 F300
G1 X13.367891888000003 Y6.072316055999997 F300
G1 X13.308898912000002 Y5.915402103999998 F300
G1 X13.265859024000003 Y5.782863367999999 F300
G1 X13.252663314113992 Y5.729893922405452 F300
G1 X13.249196000000001 Y5.702427 F300
G1 X13.253455003673817 Y5.696682004809846 F300
G1 X13.28063166666667 Y5.6889395 F300
G1 X13.397676333333338 Y5.679193666666668 F300
G1 X13.634436500000003 Y5.672614500000001 F300
G1 X14.025018666666668 Y5.6686270000000025 F300
G1 X14.603529333333334 Y5.6666561666666695 F300
G1 X15.404075000000002 Y5.666127000000003 F300
G1 X17.558953000000002 Y5.666127000000003 F300
G1 X17.523188 Y5.8194269999999975 F300
M2
